name,english_name,operator,power,source,method,wikidata_id,latitude,longitude,municipality,county,country
Kvilldal kraftverk,,Statkraft,"1,240 MW",hydro,water-storage,Q4574437,59.52878,6.6542,Suldal Municipality,Rogaland,Norway
Sima kraftverk,,Statkraft,"1,120 MW",hydro,water-storage,Q493400,60.49944444,7.14194444,Eidfjord Municipality,Vestland,Norway
Tonstad kraftverk,,Sira-Kvina kraftselskap,960 MW,hydro,water-storage,Q7821687,58.6592,6.71694,Sirdal,Agder,Norway
Aurland I kraftverk,,Hafslund Kraft,840 MW,hydro,water-storage,Q4581595,60.855,7.30472,Aurland Municipality,Vestland,Norway
Saurdal pumpekraftverk,,Statkraft,640 MW,hydro,water-pumped-storage,Q4576004,,,,,
Svartisen kraftverk,,Statkraft,600 MW,hydro,water-storage,Q4574377,66.7283,13.9136,Meløy,Nordland,Norway
Rana kraftverk,,Statkraft,500 MW,hydro,water-storage,Q4572626,66.3028,14.2603,Rana Municipality,Nordland,Norway
Tokke kraftverk,,Statkraft,430 MW,hydro,water-storage,Q4573152,59.4444,8.03833,Tokke Municipality,Telemark,Norway
Øyfjellet vindkraftverk,,,400 MW,wind,,,,,,,
Tyin kraftverk,,Hydro Energi,374 MW,hydro,water-storage,Q7859868,61.3103,7.83139,Årdal Municipality,Vestland,Norway
Lysebotn 2 kraftverk,,Hydro Energi,370 MW,hydro,water-storage,Q56407467,59.06482,6.63662,Sandnes Municipality,Rogaland,Norway
Nedre Røssåga kraftverk,,Statkraft,350 MW,hydro,water-storage,Q11110145,66.05441,13.79413,Hemnes Municipality,Nordland,Norway
Vamma kraftverk,,Hafslund Kraft,344 MW,hydro,run-of-the-river,Q4581639,59.5414,11.17,Skiptvet Municipality,Viken,Norway
Brokke kraftverk,,Statkraft,330 MW,hydro,water-storage,Q4973561,59.128,7.514,Valle Municipality,Agder,Norway
Evanger kraftverk,,Eviny Fornybar,330 MW,hydro,water-storage,Q4580843,60.6561,6.11167,Voss,Vestland,Norway
Holen kraftverk,,Å Energi Vannkraft,328 MW,hydro,water-storage,Q19374545,59.346666666,7.248333333,Bykle Municipality,Agder,Norway
Suldal I&II kraftverk,,Norsk Hydro Rjukan,323 MW,hydro,water-storage,Q98417254,59.652365,6.821658,Suldal Municipality,Rogaland,Norway
Nedre Vinstra kraftverk,,Hafslund Kraft,308 MW,hydro,water-storage,Q11991065,61.57605,9.79775,Nord-Fron,Innlandet,Norway
Kobbelv kraftverk,,Statkraft,300 MW,hydro,water-storage,Q11111510,67.62319,15.99023,Sørfold Municipality,Nordland,Norway
Skjomen kraftverk,,Statkraft,300 MW,hydro,water-storage,Q11110554,68.20376,17.36071,Narvik,Narvik Municipality,Norway
Vinje kraftverk,,Statkraft,300 MW,hydro,water-storage,Q7932596,59.6167,7.85667,Vinje,Telemark,Norway
Bjerkreim vindpark,,Norsk Vind Energi,294 MW,wind,,,,,,,
Aura kraftverk,,Statkraft,290 MW,hydro,water-storage,Q1842085,62.6647,8.52111,Sunndal Municipality,Møre og Romsdal,Norway
Jostedal kraftverk,,Statkraft,288 MW,hydro,water-storage,Q11979369,61.52661,7.28806,Luster Municipality,Vestland,Norway
Storheia vindpark,,Fosen Vind,288 MW,wind,,Q97211037,63.879166666,10.159166666,Ørland Municipality,Trøndelag,Norway
Raudfjell/Kvitfjell vindpark,,Raudfjell Vind;Tromsø Vind,281 MW,wind,,Q98076499,69.59,18.18,Tromsø Municipality,Troms,Norway
Sønnå kraftverk,,Aktieselskabet Saudefaldene,272 MW,hydro,water-storage,Q19391642,59.639722222,6.378888888,Sauda Municipality,Rogaland,Norway
Aurland III pumpekraftverk,,Hafslund Kraft,270 MW,hydro,water-pumped-storage,Q17749553,60.80095,7.56658,Aurland Municipality,Vestland,Norway
Skagen kraftverk,,Norsk Hydro,270 MW,hydro,water-storage,Q5472774,61.505,7.7025,Luster Municipality,Vestland,Norway
Roan vindpark,,Aneo Vind,256 MW,wind,,Q25430918,64.141,10.327,Åfjord Municipality,Trøndelag,Norway
Mauranger kraftverk,,Statkraft,250 MW,hydro,water-storage,Q2617864,60.13257,6.33122,Kvinnherad Municipality,Vestland,Norway
Nes kraftverk,,Hafslund Kraft,250 MW,hydro,water-storage,Q6997075,60.6044,9.06972,Nesbyen,Buskerud,Norway
Blåfalli Vik kraftverk,,Sunnhordland Kraftlag,230 MW,hydro,water-storage,Q17750630,59.8438,5.98515,Kvinnherad Municipality,Vestland,Norway
Kykkelsrud Fossumfoss kraftverk,,Hafslund Kraft,230 MW,hydro,,Q11982739,59.57996,11.10157,Indre Østfold Municipality,Viken,Norway
Hol I kraftverk,,Hafslund Kraft,220 MW,hydro,water-storage,Q11975613,60.62665,8.18196,Hol Municipality,Buskerud,Norway
Tysso II kraftverk,,Statkraft,220 MW,hydro,water-storage,Q12008072,60.12925,6.64124,Ullensvang Municipality,Vestland,Norway
Nea & Tya kraftverk,,Statkraft,219 MW,hydro,water-storage,Q6983932,63.0317,11.6803,Tydal Municipality,Trøndelag,Norway
Oksla kraftverk,,Statkraft,215 MW,hydro,water-storage,Q19384377,60.1201,6.55664,Ullensvang Municipality,Vestland,Norway
Nore I kraftstasjon,,Statkraft,214 MW,hydro,water-storage,Q7050917,60.2675,8.95778,Nore og Uvdal Municipality,Buskerud,Norway
Borgund kraftverk,,Østfold Energi,212 MW,hydro,water-storage,Q11961972,61.05868,7.8192,Lærdal Municipality,Vestland,Norway
Solbergfoss kraftverk,,Hafslund Kraft,208 MW,hydro,,Q14437876,59.63712,11.15553,Indre Østfold Municipality,Viken,Norway
Tonstad vindpark,,,208 MW,wind,,Q97200775,58.5316,6.7928,Sirdal,Agder,Norway
Usta kraftverk,,Hafslund Kraft,208 MW,hydro,water-storage,Q12008611,60.57432,8.40963,Ål,Buskerud,Norway
Skjerka kraftverk,,Å Energi Vannkraft,207 MW,hydro,water-storage,Q19388924,58.55396,7.37625,Åseral Municipality,Agder,Norway
Vemork kraftverk,,Norsk Hydro,204 MW,hydro,water-storage,Q2296772,59.871667,8.494444,Tinn,Telemark,Norway
Duge pumpekraftverk,,Sira-Kvina kraftselskap,200 MW,hydro,water-pumped-storage,Q17768168,59.11916,6.89335,Sandnes Municipality,Rogaland,Norway
Solhom kraftverk,,Sira-Kvina kraftselskap,200 MW,hydro,water-storage,Q12001832,58.76835,7.02017,Kvinesdal Municipality,Agder,Norway
Guleslettene vindpark,,Zephyr,197 MW,wind,,,,,,,
Såheim kraftverk,,Hydro Energi,185 MW,hydro,,Q7665805,59.8769,8.59278,Tinn,Telemark,Norway
Geitfjellet vindpark,,Fosen Vind,180 MW,wind,,Q110122400,63.360833333,9.495,Orkland Municipality,Trøndelag,Norway
Matre Haugsdal kraftverk,,Eviny Fornybar,180 MW,hydro,water-storage,Q65233613,60.872777777,5.593055555,Masfjorden Municipality,Vestland,Norway
Mår kraftverk,,Statkraft,180 MW,hydro,water-storage,Q3675972,59.88452778,8.67652778,Tinn,Telemark,Norway
Siso kraftverk,,Siso Energi,180 MW,hydro,water-storage,Q11111653,67.32504,15.70731,Sørfold Municipality,Nordland,Norway
Tunnsjødal kraftverk,,NTE Energi,176 MW,hydro,water-storage,Q7853351,64.7033,12.8356,Namsskogan Municipality,Trøndelag,Norway
Øvre Røssåga kraftverk,,Statkraft,175 MW,hydro,water-storage,Q11117997,65.88685,13.81106,Hemnes Municipality,Nordland,Norway
Øvre Vinstra kraftverk,,Hafslund Kraft,172 MW,hydro,water-storage,Q12012018,61.48251,9.31276,Nord-Fron,Innlandet,Norway
Steinsland kraftverk,,Eviny Fornybar,170 MW,hydro,water-storage,Q12003026,60.92606,5.97811,Modalen Municipality,Vestland,Norway
Hylen kraftverk,,Statkraft,160 MW,hydro,water-storage,Q4575525,59.55575,6.59842,Suldal Municipality,Rogaland,Norway
Odal vindkraftverk,,,160 MW,wind,wind_turbine,,,,,,
Røldal kraftverk,,Hydro Energi,160 MW,hydro,water-storage,Q11998882,59.82154,6.81757,Ullensvang Municipality,Vestland,Norway
Tellenes vindkraftverk,,Arise,160 MW,wind,,Q40590148,58.34379,6.43556,Lund Municipality,Rogaland,Norway
Smøla vindpark,,Smøla Vind,150 MW,wind,,Q6978996,63.407,7.924,Smøla Municipality,Møre og Romsdal,Norway
Alta kraftverk,,Statkraft,150 MW,hydro,water-storage,Q1788692,69.70472222,23.81861111,Alta,Finnmark,Norway
Matre kraftverk,,Eviny Fornybar,150 MW,hydro,water-storage,Q6787785,60.8736,5.59111,Masfjorden Municipality,Vestland,Norway
Torpa kraftverk,,Hafslund Kraft,150 MW,hydro,water-storage,Q56368873,60.99609,10.0577,Nordre Land Municipality,Innlandet,Norway
Åna-Sira kraftverk,,Sira-Kvina Kraftselskap,150 MW,hydro,water-storage,Q12011529,58.2938,6.45037,Flekkefjord Municipality,Agder,Norway
Midtfjellet Vindpark,,,150 MW,wind,,,,,,,
Hitra vindpark,Hitra windfarm,Statkraft,149 MW,wind,,Q5872414,63.54194444,8.75888889,Hitra Municipality,Trøndelag,Norway
Dale II kraftverk,,Eviny Fornybar,146 MW,hydro,water-storage,Q11964588,60.58344,5.81926,Vaksdal Municipality,Vestland,Norway
Grytten kraftverk,,Statkraft,144 MW,hydro,water-storage,Q3742782,62.5024,7.77184,Rauma Municipality,Møre og Romsdal,Norway
Aurland II kraftverk,,Hafslund Kraft,142 MW,hydro,water-storage,Q11959666,60.80479,7.36825,Aurland Municipality,Vestland,Norway
Driva kraftverk,,TrønderEnergi,140 MW,hydro,water-storage,Q17767829,62.62305,8.88949,Sunndal Municipality,Møre og Romsdal,Norway
Straumsmo kraftverk,,Statkraft,137 MW,hydro,water-storage,Q12003621,68.74078,18.64304,Bardu Municipality,Troms,Norway
Sørmarkfjellet vindpark,,Aneo Vind,130 MW,wind,,,,,,,
Trollheim kraftverk,,Statkraft,130 MW,hydro,water-storage,Q19393078,63.00244,9.01908,Surnadal Municipality,Møre og Romsdal,Norway
Kolsvik kraftverk,,Helgeland Kraft,128 MW,hydro,water-storage,Q11111547,65.20399,12.79365,Bindal Municipality,Nordland,Norway
Harbakksfjellet vindpark,,Fosen Vind,126 MW,wind,,Q110507835,64.0725,10.092777777,Åfjord Municipality,Trøndelag,Norway
Leirdøla kraftverk,,Statkraft,125 MW,hydro,water-storage,Q11983651,61.43771,7.24323,Luster Municipality,Vestland,Norway
Rånåsfoss kraftverk,,Glomma Kraftproduksjon,125 MW,hydro,run-of-the-river,Q11998816,60.02755,11.32333,Nes Municipality,Akershus,Norway
Bratsberg kraftverk,,Statkraft,124 MW,hydro,water-storage,Q4958091,63.3573048,10.4416157,Trondheim municipality,Trøndelag,Norway
Hjartdøla kraftverk,,Skagerak kraft,120 MW,hydro,water-storage,Q5873220,59.6044,8.71139,Hjartdal,Telemark,Norway
Lysebotn 1 kraftverk,,Hydro Energi,120 MW,hydro,water-storage,,,,,,
Songa kraftverk,,Statkraft,120 MW,hydro,water-storage,Q12001995,59.77759,7.72583,Vinje,Telemark,Norway
Tjørhom kraftverk,,Sira-Kvina kraftselskap,120 MW,hydro,water-storage,Q12006516,58.87932,6.82101,Sirdal,Agder,Norway
Lomi kraftverk,,Salten Kraftsamband Produksjon,118 MW,hydro,water-storage,Q11110851,67.12103,16.10224,Fauske Municipality,Nordland,Norway
Sundsbarm kraftverk,,Skagerak Kraft,118 MW,hydro,water-storage,Q12003982,59.49762,8.63427,Seljord Municipality,Telemark,Norway
Hunderfossen kraftstasjon,,Hafslund Kraft,116 MW,hydro,run-of-the-river,Q56368921,61.2171,10.43943,Lillehammer,Innlandet,Norway
Åskåra kraftverk,,Sogn og Fjordane Energi,115 MW,hydro,water-storage,Q19399217,61.81216,5.6624,Bremanger Municipality,Vestland,Norway
Kvenndalsfjellet vindpark,,Fosen Vind,113 MW,wind,,Q110507697,64.045277777,10.156666666,Åfjord Municipality,Trøndelag,Norway
Egersund vindkraftverk,,Norsk Vind Energi,112 MW,wind,,Q56406602,58.42666,6.08369,Eigersund Municipality,Rogaland,Norway
Naddvik kraftverk,,Østfold Energi AS,112 MW,hydro,water-storage,Q19382495,61.18224,7.63551,Årdal Municipality,Vestland,Norway
Raskiftet vindpark,,,112 MW,wind,,,,,,,
Steinsfoss kraftverk,,Å Energi Vannkraft,110 MW,hydro,run-of-the-river,Q12003023,58.30019,7.96745,Vennesla,Agder,Norway
Tafjord 4 kraftverk,,Tafjord Kraftproduksjon,110 MW,hydro,water-storage,Q19391843,62.23118,7.42364,Fjord Municipality,Møre og Romsdal,Norway
Tjodan kraftverk,,Hydro Energi,110 MW,hydro,water-storage,Q7810628,59.0522,6.6525,Sandnes Municipality,Rogaland,Norway
Myster kraftverk,,Eviny Fornybar,107 MW,hydro,water-storage,Q19382138,60.74044,5.80706,Vaksdal Municipality,Vestland,Norway
Høyanger (K5) kraftverk,,Statkraft,106 MW,hydro,water-storage,Q19375237,61.21858,6.0636,Høyanger Municipality,Vestland,Norway
Blåfalli III kraftverk,,Sunnhordland Kraftlag,105 MW,hydro,water-storage,Q17750627,59.87093,6.07041,Kvinnherad Municipality,Vestland,Norway
Finndøla kraftverk,,Skagerak Kraft,103 MW,hydro,water-storage,Q5450704,59.1842,8.05389,Fyresdal Municipality,Telemark,Norway
Rendalen kraftverk,,Hafslund Kraft,100 MW,hydro,run-of-the-river,Q11997579,61.8123,11.12142,Rendalen Municipality,Innlandet,Norway
Øyberget kraftverk,,Hafslund Kraft,100 MW,hydro,water-storage,Q56368965,61.91827,8.09213,Skjåk Municipality,Innlandet,Norway
Hemsil II kraftverk,,Hafslund Kraft,98 MW,hydro,water-storage,Q11974984,60.7018,8.97261,Gol Municipality,Buskerud,Norway
Skollenborg kraftverk,,Å Energi Vannkraft,97 MW,hydro,run-of-the-river,Q12001160,59.61888,9.66772,Kongsberg,Buskerud,Norway
Sørfjord vindpark,,Nordkraft Energidrift,97 MW,wind,,,,,,,
Raggovidda vindpark,,Varanger Kraft,97 MW,wind,,,,,,,
Sundsfjord kraftverk,,Salten Kraftsamband Produksjon,96 MW,hydro,water-storage,Q12003989,66.9709,14.15163,Gildeskål Municipality,Nordland,Norway
Bjølvo kraftverk,,Statkraft,95 MW,hydro,water-storage,Q11961274,60.43257,6.41999,Kvam Municipality,Vestland,Norway
Måkaknuten vindpark,,Norsk Vind,95 MW,wind,,,,,,,
Åbjøra kraftverk,,Skagerak Kraft,95 MW,hydro,water-storage,Q56368916,60.91704,9.37962,Nord-Aurdal Municipality,Innlandet,Norway
Nedre Fiskumfoss kraftverk,,NTE Energi,94 MW,hydro,run-of-the-river,Q19382683,64.54303,12.45474,Grong Municipality,Trøndelag,Norway
Harpefossen kraftstasjon,,Hafslund Kraft,92 MW,hydro,water-storage,Q56368922,61.58292,9.84108,Sør-Fron Municipality,Innlandet,Norway
Refsdal kraftverk,,Statkraft,92 MW,hydro,water-storage,Q11997346,61.02129,6.56734,Vik Municipality,Vestland,Norway
Svelgfoss kraftverk,,Hydro Energi,92 MW,hydro,water-storage,Q7651898,59.5814,9.25722,Notodden Municipality,Telemark,Norway
Uvdal I,,Skagerak Kraft,92 MW,hydro,water-storage,Q12008724,60.25447,8.70366,Nore og Uvdal Municipality,Buskerud,Norway
Innset kraftverk,,Statkraft,91 MW,hydro,water-storage,Q19375680,68.65739,18.82242,Bardu Municipality,Troms,Norway
Langvatn kraftverk,,Statkraft,90 MW,hydro,water-storage,Q11110886,66.33696,14.16666,Rana Municipality,Nordland,Norway
Osa kraftverk,,Hafslund Kraft,90 MW,hydro,water-storage,Q19384751,61.235,11.50914,Åmot Municipality,Innlandet,Norway
Årøy kraftverk,,Sognekraft,90 MW,hydro,water-storage,Q19399169,61.27676,7.15457,Sogndal Municipality,Vestland,Norway
Stokkfjellet vindpark,,Aneo Vind,88 MW,wind,,,,,,,
Hywind Tampen,,Equinor,88 MW,wind,wind_turbine,Q91071098,61.3338,2.2594,,,Norway
Kaggefoss kraftverk,,Å Energi Vannkraft,88 MW,hydro,run-of-the-river,Q19376742,59.94825,9.9316,Modum Municipality,Buskerud,Norway
Svelgen II&IV kraftstasjon,,Svelgen Kraft,88 MW,hydro,water-storage,Q12004282,61.76876,5.30759,Bremanger Municipality,Vestland,Norway
Iveland kraftverk,,Å Energi Vannkraft,87 MW,hydro,water-storage,Q11977746,58.390367,7.894326,Iveland Municipality,Agder,Norway
Meråker kraftverk,,NTE Energi,87 MW,hydro,water-storage,Q11989120,63.40427778,11.76572222,Meråker Municipality,Trøndelag,Norway
Nedre Otta kraftverk,,Hafslund Kraft,86 MW,hydro,water-storage,Q56368971,61.798666666,9.390638888,Sel Municipality,Innlandet,Norway
Kjøsnesfjorden kraftstasjon,,Eviny Fornybar,84 MW,hydro,water-storage,Q11981072,61.51765,6.61536,Sunnfjord Municipality,Vestland,Norway
Tafjord 5 kraftverk,,Tafjord Kraftproduksjon,83 MW,hydro,water-storage,Q12005052,62.19858,7.50248,Fjord Municipality,Møre og Romsdal,Norway
Brattset kraftverk,,Trønderenergi Kraft,80 MW,hydro,water-storage,Q11962134,62.802448,10.013137,Rennebu Municipality,Trøndelag,Norway
Eiriksdal kraftverk,,Statkraft,80 MW,hydro,water-storage,Q20754009,61.24243,6.15044,Høyanger Municipality,Vestland,Norway
Flørli kraftverk,,Hydro Energi,80 MW,hydro,water-storage,Q11969315,59.01543,6.43283,Sandnes Municipality,Rogaland,Norway
Guolášjohka kraftverk,,Troms Kraft Produksjon,80 MW,hydro,water-storage,Q17779485,69.45973,20.91786,Kåfjord Municipality,Troms,Norway
Kvinen kraftverk,,Sira-Kvina kraftselskap,80 MW,hydro,water-storage,,,,,,
Rosten kraftverk,,Hafslund Kraft,80 MW,hydro,water-storage,Q20753997,61.86158,9.40886,Sel Municipality,Innlandet,Norway
Sarp kraftverk,,Hafslund Kraft,80 MW,hydro,,Q11999590,59.27644,11.13373,Sarpsborg Municipality,Viken,Norway
Buheii vindkraftverk,,,80 MW,wind,,Q110507447,58.656666666,6.877777777,Kvinesdal Municipality,Agder,Norway
Leikanger kraftverk,,Sognekraft,77 MW,hydro,run-of-the-river,Q20553073,61.204444444,6.709444444,Sogndal Municipality,Vestland,Norway
Bagn kraftverk,,Skagerak Kraft,76 MW,hydro,water-storage,Q56368897,60.82649,9.54995,Sør-Aurdal,Innlandet,Norway
Framruste kraftverk,,Hafslund Kraft,75 MW,hydro,water-storage,Q56368964,61.94095,7.88131,Skjåk Municipality,Innlandet,Norway
Grana kraftverk,,Trønderenergi Kraft,75 MW,hydro,water-storage,Q11972443,62.92295,9.707322,Rennebu Municipality,Trøndelag,Norway
Høg-Jæren Energipark,,Jæren Energi,74 MW,wind,,,,,,,
Lista Vindkraftverk,,,72 MW,wind,,,,,,,
Skibotn kraftverk,,Troms Kraft Produksjon,72 MW,hydro,water-storage,Q12000945,69.31533,20.35819,Storfjord Municipality,Troms,Norway
Embretsfoss kraftverk,,Å Energi Vannkraft,71 MW,hydro,run-of-the-river,Q11967317,59.90101,9.92897,Modum Municipality,Buskerud,Norway
Hemsil 1 kraftverk,,Hafslund Kraft,70 MW,hydro,water-storage,Q11974985,60.81118,8.64382,Hemsedal Municipality,Buskerud,Norway
Litjfossen kraftverk,,Kraftverkene i Orkla,70 MW,hydro,water-storage,Q11986483,62.66482,10.14634,Tynset Municipality,Innlandet,Norway
Hove kraftverk,,Statkraft,68 MW,hydro,water-storage,Q11975923,61.06982,6.59476,Vik Municipality,Vestland,Norway
Sørfjord I kraftverk,,Nordkraft Energidrift,68 MW,hydro,water-storage,Q11117934,68.06446,16.6638,Hamarøy Municipality,Nordland,Norway
Nedre Nea kraftverk,,Statkraft,67 MW,hydro,water-storage,Q11991056,63.15285,11.23738,Selbu Municipality,Trøndelag,Norway
Sjønstå kraftverk,,Salten Kraftsamband Produksjon,66 MW,hydro,water-storage,Q11111660,67.19455,15.70855,Fauske Municipality,Nordland,Norway
Bøylefoss kraftverk,,Arendals Fossekompani,65 MW,hydro,run-of-the-river,Q4962400,58.59629,8.71646,Froland Municipality,Agder,Norway
Sildvik kraftverk,,Nordkraft Magasin,65 MW,hydro,water-storage,Q11110798,68.40871,17.80107,Narvik Municipality,Nordland,Norway
Ylja kraftverk,,Hafslund Kraft,65 MW,hydro,water-storage,Q56368894,61.19751,8.38084,Vang,Innlandet,Norway
Grytåga kraftverk,,Helgeland Kraft,62 MW,hydro,water-storage,Q11111439,65.80354,12.72901,Vefsn Municipality,Nordland,Norway
Jølstra kraftverk,,Eviny Fornybar,62 MW,hydro,run-of-the-river,Q110038479,61.44409,6.01834,Sunnfjord Municipality,Vestland,Norway
Hol III kraftverk,,Hafslund Kraft,60 MW,hydro,run-of-the-river,Q19370896,,,,,
Kjela kraftverk,,Statkraft,60 MW,hydro,water-storage,Q19377258,59.73683,7.44347,Vinje,Telemark,Norway
Tussa kraftverk,,Tussa Energi,60 MW,hydro,water-storage,Q12007938,62.10882,6.55936,Volda Municipality,Møre og Romsdal,Norway
Frøya vindpark,,Aneo Vind,59 MW,wind,,,,,,,
Savalen kraftverk,,Hafslund Kraft,58 MW,hydro,water-storage,Q11999635,62.18682,10.61708,Alvdal Municipality,Innlandet,Norway
Bessakerfjellet vindpark,,Aneo Vind,58 MW,wind,,,,,,,
Bogna kraftverk,,NTE Energi,56 MW,hydro,water-storage,Q11961764,64.23172222,12.01794444,Snåsa,Trøndelag,Norway
Hekni kraftverk,,Å Energi Vannkraft,56 MW,hydro,run-of-the-river,Q19373970,58.995,7.54729,Bygland,Agder,Norway
Kjølberget vindkraftverk,,Austri Vind,56 MW,wind,,,,,,,
Nygard pumpekraftverk,,Eviny Fornybar,56 MW,hydro,water-pumped-storage,Q19384138,60.89335,6.05628,Modalen Municipality,Vestland,Norway
Bjelland kraftstasjon,,Å Energi Vannkraft,55 MW,hydro,water-storage,Q11961233,58.40603,7.52802,Lindesnes Municipality,Agder,Norway
Hundhammerfjellet vindmøllepark,,Aneo Vind,55 MW,wind,,Q11976110,64.76095278,11.38595556,Nærøysund Municipality,Trøndelag,Norway
Jørundland kraftverk,,Å Energi Vannkraft,55 MW,hydro,water-storage,Q19376676,58.90642,8.23129,Åmli,Agder,Norway
Kvænangsbotn kraftverk,,Ymber Produksjon,55 MW,hydro,water-storage,Q17442976,69.720788888,22.055330555,Kvænangen Municipality,Troms,Norway
Rygene kraftverk,,Å Energi Vannkraft,55 MW,hydro,run-of-the-river,Q19387123,58.40616,8.6377,Grimstad,Agder,Norway
Svorkmo kraftverk,,TrønderEnergi Kraft,55 MW,hydro,run-of-the-river,Q7652794,63.1783,9.77083,Orkland Municipality,Trøndelag,Norway
Lomen kraftverk,,Hafslund Kraft,54 MW,hydro,water-storage,Q56368895,61.13549,8.87932,Vestre Slidre Municipality,Innlandet,Norway
Fakken vindpark,,Troms Kraft,54 MW,wind,,,,,,,
Mel kraftverk,,Sogn og Fjordane Energi,52 MW,hydro,water-storage,Q19381309,61.34671,6.55652,Sogndal Municipality,Vestland,Norway
Nore II kraftstasjon,,Statkraft,52 MW,hydro,water-storage,Q11991990,60.23845,9.00076,Nore og Uvdal Municipality,Buskerud,Norway
Sjona kraftstasjon,,Helgeland Kraft Vannkraft,52 MW,hydro,water-storage,Q11117802,66.31062,13.56354,Rana Municipality,Nordland,Norway
Lutelandet vindkraftverk,,Sogn og Fjordane Energi,51 MW,wind,wind_turbine,,,,,,
Borregaard kraftverk,,Borregaard,51 MW,hydro,,Q11961992,59.27651,11.13048,Sarpsborg Municipality,Viken,Norway
Ånstadblåheia Vindpark,,Ånstadblåheia Vindpark,50 MW,wind,,,,,,,
Adamselv kraftverk,,Statkraft,50 MW,hydro,water-storage,Q11956895,70.41103,26.69798,Lebesby Municipality,Finnmark,Norway
Fjone kraftverk,,Skagerak Kraft,50 MW,hydro,water-storage,Q11969126,59.21703,8.45184,Nissedal,Telemark,Norway
Hamnefjellet vindkraftverk,,Hamnefjell Vindkraft,50 MW,wind,,,,,,,
Hennøy vindpark,,,50 MW,wind,,,,,,,
Roskrepp kraftverk,,Sira-Kvina kraftselskap,50 MW,hydro,water-storage,Q11998462,59.02568,7.08532,Sirdal,Agder,Norway
Tevla pumpekraftverk,,NTE Energi,49.60 MW,hydro,water-pumped-storage,Q12005672,63.39044,11.9106,Meråker Municipality,Trøndelag,Norway
Holsbru kraftverk,,Hydro Energi,49.00 MW,hydro,water-storage,Q19374607,61.3114,7.83066,Årdal Municipality,Vestland,Norway
Follafoss kraftverk,,NTE Energi,48.10 MW,hydro,water-storage,Q11969402,63.98699,11.10196,Verran Municipality,Nord-Trøndelag,Norway
Fagerli kraftverk,,Salten Kraftsamband Produksjon,48.00 MW,hydro,water-storage,Q11111260,67.1193,16.07712,Fauske Municipality,Nordland,Norway
Håverstad kraftstasjon,,Å Energi Vannkraft,48.00 MW,hydro,water-storage,Q11976455,58.50656,7.41948,Åseral Municipality,Agder,Norway
Kvittingen kraftverk,,Eviny Fornybar,48.00 MW,hydro,water-storage,Q11982720,60.46472,5.90845,Samnanger,Vestland,Norway
Mykstufoss kraftverk,,Å Energi Vannkraft,48.00 MW,hydro,run-of-the-river,Q19382111,60.04935,9.20057,Rollag Municipality,Buskerud,Norway
Novle kraftverk,,Hydro Energi,48.00 MW,hydro,water-storage,Q11992721,59.83845,6.88053,Ullensvang Municipality,Vestland,Norway
Skogfoss kraftverk,,Pasvik Kraft,48.00 MW,hydro,run-of-the-river,Q1792529,69.37281,29.69381,Sør-Varanger Municipality,Finnmark,Norway
Storlivatn kraftverk,,Aktieselskabet Saudefaldene,48.00 MW,hydro,water-storage,Q19390732,59.68519,6.51963,Sauda Municipality,Rogaland,Norway
Øljusjøen pumpekraftverk,,Østfold Energi,48.00 MW,hydro,water-pumped-storage,Q19399287,61.00381,8.08482,Lærdal Municipality,Vestland,Norway
Østerbø kraftverk,,SFE Produksjon,48.00 MW,hydro,water-storage,Q106363450,61.07731,5.91785,Høyanger Municipality,Vestland,Norway
Tysvær vindpark,,,47.00 MW,wind,wind_turbine,,,,,,
Bardufoss kraftverk,,Statkraft,45.00 MW,hydro,run-of-the-river,Q11960189,69.04369,18.58967,Målselv,Troms,Norway
Frøystul kraftverk,,Norsk Hydro,45.00 MW,hydro,water-storage,Q17775406,59.82567,8.35814,Tinn,Telemark,Norway
Havøygavlen vindpark,,Finnmark Kraft,45.00 MW,wind,,,,,,,
Hovatn kraftverk,,Å Energi Vannkraft,45.00 MW,hydro,water-storage,Q11975911,58.98293,7.66936,Bygland,Agder,Norway
Leirfossene kraftverk,,Statkraft,45.00 MW,hydro,run-of-the-river,Q11983654,63.37377,10.40463,Trondheim municipality,Trøndelag,Norway
Vemundsbotn kraftverk,,Eviny Fornybar,45.00 MW,hydro,water-storage,Q12009257,60.85496,5.69507,Masfjorden Municipality,Vestland,Norway
Dokka kraftverk,,Hafslund Kraft,44.60 MW,hydro,water-storage,Q11965844,60.8158,10.12151,Søndre Land Municipality,Innlandet,Norway
Tolga kraftverk,,Hafslund Kraft,43.10 MW,hydro,run-of-the-river,Q106859544,62.42791,11.08824,Tolga Municipality,Innlandet,Norway
Lio kraftverk,,Statkraft,43.00 MW,hydro,water-storage,Q19379507,59.46269,7.93908,Tokke Municipality,Telemark,Norway
Kongsvinger kraftverk,,Hafslund Kraft,42.70 MW,hydro,run-of-the-river,Q11981722,60.20255,11.8927,Kongsvinger Municipality,Innlandet,Norway
Tinfos I kraftverk,,Tinfos AS,41.00 MW,hydro,run-of-the-river,Q76737672,59.568611111,9.264444444,Notodden Municipality,Telemark,Norway
Uvdal II,,Skagerak Kraft,41.00 MW,hydro,run-of-the-river,Q12008723,60.265,8.93082,Nore og Uvdal Municipality,Buskerud,Norway
Funnefoss kraftverk,,Glomma Kraftproduksjon,40.00 MW,hydro,,Q17775488,60.16715,11.52926,Nes Municipality,Akershus,Norway
Jukla pumpekraftverk,,Statkraft,40.00 MW,hydro,water-pumped-storage,Q19376538,60.18911,6.38306,Kvinnherad Municipality,Vestland,Norway
Kvanndal kraftverk,,Norsk Hydro Rjukan,40.00 MW,hydro,water-storage,Q14436751,59.65831,6.98233,Suldal Municipality,Rogaland,Norway
Ormsetfoss kraftverk,,NTE Energi,40.00 MW,hydro,water-storage,Q11994112,63.84514,10.68782,Verran Municipality,Nord-Trøndelag,Norway
Vessingfoss kraftverk,,Statkraft,40.00 MW,hydro,water-storage,Q19397841,62.99566,11.82847,Tydal Municipality,Trøndelag,Norway
Ytre Vikna vindpark,,Aneo Vind,39.10 MW,wind,,,,,,,
Kjøllefjord vindpark,,Kjøllefjord Vind,39.00 MW,wind,,,,,,,
Aurland IV (Vangen) kraftverk,,Hafslund Kraft,38.00 MW,hydro,water-storage,Q19394239,60.90369,7.17768,Aurland Municipality,Vestland,Norway
Mæl kraftverk,,Hydro Energi,38.00 MW,hydro,run-of-the-river,Q19382172,59.92218,8.78002,Tinn,Telemark,Norway
Stuvane kraftverk,,Okken Kraft,38.00 MW,hydro,water-storage,Q19391049,61.05141,7.64176,Lærdal Municipality,Vestland,Norway
Mesna kraftverk,,Hafslund Kraft,37.50 MW,hydro,water-storage,Q11989128,61.11702,10.47094,Lillehammer,Innlandet,Norway
Mosvik kraftverk,,NTE Energi,37.00 MW,hydro,water-storage,Q11990095,63.72654,10.86853,Inderøy Municipality,Trøndelag,Norway
Søa kraftverk,,Trønderenergi Kraft,37.00 MW,hydro,water-storage,Q12004714,63.316268,9.143329,Heim Municipality,Trøndelag,Norway
Ustekveikja kraftverk,,,36.50 MW,hydro,water-storage,Q12008613,60.52775,7.75237,Hol Municipality,Buskerud,Norway
Braskereidfoss kraftverk,,Hafslund Kraft,36.00 MW,hydro,,Q17143362,60.70629,11.79202,Våler Municipality,Innlandet,Norway
Hardeland kraftverk,,Sunnhordland Kraftlag,36.00 MW,hydro,water-storage,Q5655842,59.6575,6.09667,Etne Municipality,Vestland,Norway
Dalavatn kraftverk,,Aktieselskabet Saudefaldene,35.40 MW,hydro,water-storage,Q11964608,59.69056,6.57012,Sauda Municipality,Rogaland,Norway
Grønsdal kraftverk,,Eviny Fornybar,35.00 MW,hydro,water-storage,Q11973088,60.4397,5.85949,Samnanger,Vestland,Norway
Ulset kraftverk,,Trønderenergi Kraft,35.00 MW,hydro,water-storage,Q12008329,62.61872,10.25454,Tynset Municipality,Innlandet,Norway
Vrangfoss kraftverk,,Statkraft,35.00 MW,hydro,run-of-the-river,Q12010133,59.30206,9.2047,Nome Municipality,Telemark,Norway
Grøa kraftverk,,Nordmøre Energiverk,34.70 MW,hydro,run-of-the-river,Q11973042,62.64334,8.73401,Sunndal Municipality,Møre og Romsdal,Norway
Jøssang kraftverk,,,34.00 MW,hydro,water-storage,Q19376679,59.00029,6.07503,Strand Municipality,Rogaland,Norway
Haram vindkraftverk,,,33.60 MW,wind,,,,,,,
Vittingfoss kraftverk,,Ringerikskraft produksjon,33.50 MW,hydro,run-of-the-river,Q12010003,59.474166666,10.005555555,Kongsberg,Buskerud,Norway
Bingsfoss kraftverk,,Glomma Kraftproduksjon,33.00 MW,hydro,run-of-the-river,Q17750389,59.99003,11.2648,Lillestrøm Municipality,Akershus,Norway
Dynjanfoss kraftverk,,Å Energi Vannkraft,33.00 MW,hydro,water-storage,Q11966238,58.95158,8.39528,Nissedal,Telemark,Norway
Hegsetfoss kraftverk,,Statkraft,33.00 MW,hydro,water-storage,Q11974661,63.16534,11.23072,Selbu Municipality,Trøndelag,Norway
Mågeli kraftverk,,Statkraft,33.00 MW,hydro,water-storage,Q11990371,60.13307,6.62892,Ullensvang Municipality,Vestland,Norway
Skjåk kraftverk,,Hafslund Kraft,33.00 MW,hydro,water-storage,Q11218795,61.89921,8.22728,Skjåk Municipality,Innlandet,Norway
Smibelg kraftverk,,Helgeland Kraft Vannkraft,33.00 MW,hydro,water-storage,Q112233718,66.46053,13.34654,Rødøy Municipality,Nordland,Norway
Nygårdsfjellet vindpark,,Nordkraft,32.20 MW,wind,,,,,,,
Grønvollfoss kraftverk,,Skagerak kraft,32.00 MW,hydro,run-of-the-river,Q11973093,59.65838,9.20826,Notodden Municipality,Telemark,Norway
Herva kraftverk,,Norsk Hydro,32.00 MW,hydro,water-pumped-storage,Q11975232,61.56622,7.86239,Luster Municipality,Vestland,Norway
Laudal kraftverk,,Å Energi Vannkraft,32.00 MW,hydro,water-storage,Q19379052,58.24498,7.5141,Lindesnes Municipality,Agder,Norway
Åmela kraftverk,,Tussa,32.00 MW,hydro,water-storage,Q12011516,62.01862,5.84717,Volda Municipality,Møre og Romsdal,Norway
Hellandsfoss kraftverk,,Eviny Fornybar,31.50 MW,hydro,run-of-the-river,Q11974860,60.83049,5.88125,Modalen Municipality,Vestland,Norway
Hafslund kraftstasjon,,Hafslund Kraft,31.00 MW,hydro,,Q11973627,59.275,11.12951,Sarpsborg Municipality,Viken,Norway
Tunnsjø kraftverk,,NTE Energi,31.00 MW,hydro,water-storage,Q12007875,64.69385,13.63821,Lierne Municipality,Trøndelag,Norway
Vardafjellet vindkraftverk,,RES,30.10 MW,wind,,Q106947269,58.83588,5.898559,Sandnes Municipality,Rogaland,Norway
Båtsvatn kraftverk,,Statkraft,30.00 MW,hydro,water-storage,Q11157069,68.09358,17.7197,Narvik,Narvik Municipality,Norway
Daja Kraftverk,,Salten Kraftsamband Produksjon,30.00 MW,hydro,water-storage,Q11157091,67.08824,16.05687,Fauske Municipality,Nordland,Norway
Eikelandsosen kraftverk,,Sunnhordland Kraftlag,30.00 MW,hydro,water-storage,Q17769321,60.24856,5.73822,Bjørnafjorden Municipality,Vestland,Norway
Gravfoss II kraftverk,,Å Energi Vannkraft,30.00 MW,hydro,run-of-the-river,Q17778375,59.9294,9.94646,Modum Municipality,Buskerud,Norway
Hodnaberg kraftverk,,Voss Energi,30.00 MW,hydro,water-storage,Q19374501,60.55796,6.21117,Voss,Vestland,Norway
Håen kraftverk,,Trønderenergi Kraft,30.00 MW,hydro,water-storage,Q19375094,63.11816,10.470389,Melhus Municipality,Trøndelag,Norway
Lakshola kraftverk,,Siso Energi,30.00 MW,hydro,water-storage,Q11111585,67.44818,15.75045,Sørfold Municipality,Nordland,Norway
Moflåt kraftverk,,Hydro Energi,30.00 MW,hydro,run-of-the-river,Q11989755,59.88336,8.68372,Tinn,Telemark,Norway
Ramfoss kraftstasjon,,Kraftia Tjenester,30.00 MW,hydro,water-storage,Q11997034,60.0825,9.815555555,Modum Municipality,Buskerud,Norway
Sokna kraftverk,,Trønderenergi Kraft,30.00 MW,hydro,water-storage,Q12001758,63.148647,10.316226,Melhus Municipality,Trøndelag,Norway
Stigafjellet vindpark,,Eolus Vind,30.00 MW,wind,,,,,,,
Aunfoss kraftverk,,NTE Energi,29.50 MW,hydro,run-of-the-river,Q17749549,64.61007,12.57804,Grong Municipality,Trøndelag,Norway
Tafjord 2 kraftverk,,Tafjord Kraftproduksjon,29.50 MW,hydro,water-storage,Q12005051,62.21002,7.44533,Fjord Municipality,Møre og Romsdal,Norway
Løpet kraftverk,,Hafslund Kraft,28.20 MW,hydro,run-of-the-river,Q11987292,61.16381,11.45655,Åmot Municipality,Innlandet,Norway
Nomeland kraftstasjon,,Å Energi Vannkraft,28.00 MW,hydro,run-of-the-river,Q11991647,58.356672,7.90447,Iveland Municipality,Agder,Norway
Øksenelvane kraftverk,,Sogn og Fjordane Energi,28.00 MW,hydro,water-storage,Q19399278,61.84183,5.80134,Bremanger Municipality,Vestland,Norway
Glomfjord & Fykanvatnet kraftverk,,Statkraft AS,27.50 MW,hydro,water-storage,Q26256473,66.79682,14.00065,Meløy,Nordland,Norway
Hofsfoss kraftverk,,Å Energi Vannkraft,27.00 MW,hydro,run-of-the-river,Q11975592,60.18848,10.23822,Ringerike,Buskerud,Norway
Svean kraftverk,,Statkraft,27.00 MW,hydro,water-storage,Q19391278,63.27933,10.47278,Trondheim municipality,Trøndelag,Norway
Govddesåga kraftverk,,Salten Kraftsamband Produksjon,26.80 MW,hydro,run-of-the-river,Q25431054,66.92406,14.38883,Beiarn Municipality,Nordland,Norway
Tokagjelet kraftverk,,Nordkraft Energidrift,26.50 MW,hydro,run-of-the-river,Q115283654,60.36,6.05658,Kvam Municipality,Vestland,Norway
Hol II kraftverk,,Hafslund Kraft,26.00 MW,hydro,run-of-the-river,Q11975615,60.61178,8.26552,Hol Municipality,Buskerud,Norway
Hønefoss krafstasjon II,,Ringeriks-Kraft,26.00 MW,hydro,run-of-the-river,Q19370902,60.17,10.254166666,Ringerike,Buskerud,Norway
Stordal kraftverk,,Eviny Fornybar,26.00 MW,hydro,water-storage,Q19390637,60.9606,5.70238,Høyanger Municipality,Vestland,Norway
Vigelandsfoss kraftverk,,Norsk Hydro,26.00 MW,hydro,run-of-the-river,Q19398058,58.25352,7.95859,Vennesla,Agder,Norway
Dividalen kraftverk,,Troms Kraft Produksjon,25.70 MW,hydro,water-storage,Q11965793,68.87414,19.56073,Målselv,Troms,Norway
Storåselva kraftverk,,NTE Energi,25.50 MW,hydro,run-of-the-river,Q56408405,64.27963,12.61699,Snåsa,Trøndelag,Norway
Mehuken Vindpark,,Kvalheim Kraft,25.30 MW,wind,,Q11988902,,,,,
Svåheia vindkraftverk,,Dalane Vind,25.20 MW,wind,,,,,,,
Evenstad kraftverk,,Å Energi Vannkraft,25.00 MW,hydro,run-of-the-river,Q11968192,58.5431,8.67383,Froland Municipality,Agder,Norway
Fosse kraftverk,,Eviny Fornybar,25.00 MW,hydro,water-storage,Q17773587,60.58177,5.88682,Vaksdal Municipality,Vestland,Norway
Holmen kraftverk,,Holmen Kraft,25.00 MW,hydro,run-of-the-river,Q26256460,60.84947,6.72379,Aurland Municipality,Vestland,Norway
Nedalsfoss kraftverk,,Statkraft,25.00 MW,hydro,water-storage,Q19382656,62.95589,12.09634,Tydal Municipality,Trøndelag,Norway
Nygård kraftverk,,Nordkraft Energidrift,25.00 MW,hydro,water-storage,Q7071090,68.47583333,17.62583333,Narvik Municipality,Nordland,Norway
Rekvatn kraftverk,,Nord-Salten Kraft,25.00 MW,hydro,water-storage,Q11110712,67.82422,15.99388,Hamarøy Municipality,Nordland,Norway
Strandfossen kraftverk,,Hafslund Kraft,25.00 MW,hydro,run-of-the-river,Q19390863,60.90928,11.52582,Elverum Municipality,Innlandet,Norway
Svorka kraftverk,,Statkraft,25.00 MW,hydro,water-storage,Q12004454,63.03875,8.65562,Surnadal Municipality,Møre og Romsdal,Norway
Tafjord 1 kraftverk,,Tafjord Kraftproduksjon,25.00 MW,hydro,water-storage,Q19391841,62.2264,7.42136,Fjord Municipality,Møre og Romsdal,Norway
Frøland kraftverk,,Eviny Fornybar,24.90 MW,hydro,water-storage,Q14404721,60.38466,5.80637,Samnanger,Vestland,Norway
Høgefoss kraftverk,,Å Energi Vannkraft,24.90 MW,hydro,water-storage,Q19375167,58.95183,8.51656,Nissedal,Telemark,Norway
Skarg kraftverk,,Otra Kraft DA,24.60 MW,hydro,water-storage,Q19388726,59.35026,7.29516,Bykle Municipality,Agder,Norway
Åmli kraftverk,,Å Energi Vannkraft,24.20 MW,hydro,run-of-the-river,,,,,,
Kaldestad krafverk,,Eviny Fornybar,24.00 MW,hydro,water-storage,Q11979936,60.55453,6.0227,Vaksdal Municipality,Vestland,Norway
Skotfoss kraftverk,,Akershus Energi,24.00 MW,hydro,run-of-the-river,Q12001183,59.20703,9.5306,Skien,Telemark,Norway
Smeland kraftstasjon,,Å Energi Vannkraft,24.00 MW,hydro,water-storage,Q19389354,58.66708,7.45061,Åseral Municipality,Agder,Norway
Herand kraftverk,,Herand Kraft,23.70 MW,hydro,run-of-the-river,Q106860464,60.34672,6.40404,Ullensvang Municipality,Vestland,Norway
Finså kraftverk,,Å Energi Vannkraft,23.00 MW,hydro,water-storage,Q17772368,58.66011,6.69867,Sirdal,Agder,Norway
Ringedalen kraftverk,,Statkraft,23.00 MW,hydro,water-storage,Q37298624,60.12209,6.62727,Ullensvang Municipality,Vestland,Norway
Nye Verma kraftverk,,Rauma Energi Produksjon,22.50 MW,hydro,run-of-the-river,Q65234475,62.346111111,8.049722222,Rauma Municipality,Møre og Romsdal,Norway
Hanefoss kraftverk,,Å Energi Vannkraft,22.00 MW,hydro,water-storage,Q11973897,58.52941,8.33765,Birkenes,Agder,Norway
Melkefoss kraftverk,,Pasvik Kraft,22.00 MW,hydro,run-of-the-river,Q1792497,69.39944,29.78761,Sør-Varanger Municipality,Finnmark,Norway
Målset kraftverk,,Statkraft,22.00 MW,hydro,water-storage,Q19382152,60.97869,6.51601,Vik Municipality,Vestland,Norway
"Svelgen III, Indrehus kraftverk",,Svelgen Kraft,22.00 MW,hydro,water-storage,Q19391311,61.71674,5.23615,Bremanger Municipality,Vestland,Norway
Tafjord 3 kraftverk,,Tafjord Kraftproduksjon,22.00 MW,hydro,water-storage,Q12005049,62.15195,7.43506,Fjord Municipality,Møre og Romsdal,Norway
Årlifoss kraftverk,,Skagerak kraft,22.00 MW,hydro,run-of-the-river,Q12011595,59.68594,9.14267,Notodden Municipality,Telemark,Norway
Fagervollan kraftverk,,Helgeland Kraft Vannkraft,21.00 MW,hydro,water-storage,Q11111315,66.3703,13.65672,Rana Municipality,Nordland,Norway
Gresslifoss kraftverk,,Statkraft,21.00 MW,hydro,run-of-the-river,Q11972583,63.05193,11.48381,Tydal Municipality,Trøndelag,Norway
Okla vindkraftverk,,,21.00 MW,wind,wind_turbine,,,,,,
Slunkajavrre kraftverk,,Nord-Salten Kraft,21.00 MW,hydro,water-storage,Q11111642,67.80769,16.10939,Hamarøy Municipality,Nordland,Norway
Åmdal kraftverk,,Skafså Kraftverk ANS,21.00 MW,hydro,water-storage,Q19399102,59.36454,8.0524,Tokke Municipality,Telemark,Norway
Funna kraftverk,,NTE Energi,20.60 MW,hydro,water-storage,Q17775485,63.43687,11.73411,Meråker Municipality,Trøndelag,Norway
Bjerka kraftverk,,Statkraft,20.00 MW,hydro,water-storage,Q11157106,66.06274,13.99782,Hemnes Municipality,Nordland,Norway
Byrte kraftverk,,Statkraft,20.00 MW,hydro,water-storage,Q5004518,59.4961,7.83333,Tokke Municipality,Telemark,Norway
Logna kraftstasjon,,Å Energi Vannkraft,20.00 MW,hydro,water-storage,,,,,,
Osbu kraftverk,,Statkraft,20.00 MW,hydro,run-of-the-river,Q19384757,62.5081,8.47343,Sunndal Municipality,Møre og Romsdal,Norway
Slind kraftverk,,Selbu Energiverk,20.00 MW,hydro,water-storage,Q19389297,63.1925,10.95157,Selbu Municipality,Trøndelag,Norway
Svandalsflona kraftverk,,Hydro Energi,20.00 MW,hydro,water-storage,Q12004135,59.847,6.95268,Ullensvang Municipality,Vestland,Norway
Skjefstadfoss II kraftverk,,Hafslund Kraft,19.80 MW,hydro,run-of-the-river,Q76814419,60.830555555,11.611666666,Elverum Municipality,Innlandet,Norway
Tosdalen Kraftverk,,Helgeland Kraft Vannkraft,19.30 MW,hydro,run-of-the-river,Q31079161,65.29082,13.0436,Brønnøy Municipality,Nordland,Norway
Gravfoss I kraftverk,,Å Energi Vannkraft,19.00 MW,hydro,run-of-the-river,Q11972493,59.93086,9.94536,Modum Municipality,Buskerud,Norway
Kalvedalen kraftverk,,Hafslund Kraft,19.00 MW,hydro,water-storage,Q11979970,61.25665,8.75864,Vang,Innlandet,Norway
Småvatna kraftverk,,Ymber Produksjon,18.80 MW,hydro,water-storage,Q19389399,69.68916667,22.15555556,Kvænangen Municipality,Troms,Norway
Fjæremsfoss kraftverk,,Statkraft,18.00 MW,hydro,run-of-the-river,Q17772686,63.32211,10.43658,Trondheim municipality,Trøndelag,Norway
Ulvund kraftverk,,Nordmøre Energiverk,18.00 MW,hydro,run-of-the-river,Q19393838,62.83387,8.52142,Sunndal Municipality,Møre og Romsdal,Norway
Faslefoss kraftverk,,Hafslund Kraft,17.80 MW,hydro,water-storage,Q11968561,60.95702,9.30077,Nord-Aurdal Municipality,Innlandet,Norway
Stardalen kraftverk,,Stardalen Kraft,17.37 MW,hydro,run-of-the-river,Q106086032,61.61248,6.54821,Sunnfjord Municipality,Vestland,Norway
Hensfoss kraftverk,,Å Energi Vannkraft,17.00 MW,hydro,run-of-the-river,Q11975117,60.21131,10.23673,Ringerike,Buskerud,Norway
Hogga kraftverk,,Statkraft,17.00 MW,hydro,run-of-the-river,Q11975601,59.31055,9.04522,Nome Municipality,Telemark,Norway
Litledalen kraftverk,,Sunnhordland Kraftlag,17.00 MW,hydro,water-storage,Q11986488,59.66349,6.0654,Etne Municipality,Vestland,Norway
Niingen kraftverk,,Nordkraft Energidrift,17.00 MW,hydro,water-storage,Q11991401,68.53705,17.02846,Evenes Municipality,Nordland,Norway
Stølsdal krafverk,,Statkraft,17.00 MW,hydro,water-storage,Q12003864,59.31077,6.61508,Hjelmeland Municipality,Rogaland,Norway
Røyrvikfoss kraftverk,,NTE Energi,16.60 MW,hydro,water-storage,Q19387300,64.88624,13.56218,Røyrvik Municipality,Trøndelag,Norway
Osen kraftverk,,Skafså Kraftverk ANS,16.50 MW,hydro,water-storage,Q19384775,59.35639,8.17697,Kviteseid Municipality,Telemark,Norway
Haukrei kraftverk,,Skagerak Kraft,16.00 MW,hydro,water-storage,Q11974511,59.20481,7.83178,Fyresdal Municipality,Telemark,Norway
Nedre Tessa II,,Eidefoss Vannkraft,16.00 MW,hydro,run-of-the-river,Q19382713,61.84619,8.96088,Vågå,Innlandet,Norway
Pikerfoss Kraftverk,,Å Energi Vannkraft,16.00 MW,hydro,run-of-the-river,Q19385335,59.72111,9.59446,Kongsberg,Buskerud,Norway
Øvre Tessa kraftstasjon,,Eidefoss Vannkraft,16.00 MW,hydro,water-storage,Q19399524,61.82064,8.95673,Vågå,Innlandet,Norway
Innvik kraftverk,,Innvik Kraftverk,15.50 MW,hydro,water-storage,Q19375691,61.84281,6.62853,Stryn Municipality,Vestland,Norway
Eidsfoss kraftverk,,Statkraft,15.00 MW,hydro,run-of-the-river,Q17769287,59.29695,9.21993,Nome Municipality,Telemark,Norway
Gamlebrofoss kraftverk,,Å Energi Vannkraft,15.00 MW,hydro,run-of-the-river,Q11971496,59.65778,9.65153,Kongsberg,Buskerud,Norway
Gråsjø kraftverk,,Statkraft,15.00 MW,hydro,water-storage,Q11973031,62.93366,9.12519,Surnadal Municipality,Møre og Romsdal,Norway
Hunsfoss øst,,Å Energi Vannkraft,15.00 MW,hydro,run-of-the-river,Q11976125,58.26161,7.97119,Vennesla,Agder,Norway
Kaldåga kraftverk,,Helgeland Kraft Vannkraft,15.00 MW,hydro,water-storage,Q11113959,66.05302,13.33664,Vefsn Municipality,Nordland,Norway
Moksa kraftstasjon,,Gudbrandsdal Energi Produksjon,15.00 MW,hydro,water-storage,Q11989790,61.31902,10.30019,Øyer,Innlandet,Norway
Oldereid kraftverk,,Salten Kraftsamband Produksjon,15.00 MW,hydro,water-storage,Q11110628,67.12944,14.9555,Bodø Municipality,Nordland,Norway
Åsebotn kraftverk,,Eviny Fornybar,15.00 MW,hydro,water-storage,Q19399191,60.97526,6.05488,Modalen Municipality,Vestland,Norway
Lutufallet kraftverk,,Hafslund Kraft,14.70 MW,hydro,run-of-the-river,Q19380329,61.06559,12.58182,Trysil Municipality,Innlandet,Norway
Breiava kraftverk,,Lyse Energi,14.40 MW,hydro,,,,,,,
Djupdal kraftverk,,Å Energi Vannkraft,14.30 MW,hydro,run-of-the-river,Q17766699,59.93956,9.33919,Rollag Municipality,Buskerud,Norway
Dønnesfjord vindpark,,,14.00 MW,wind,,,,,,,
Døvikfoss kraftverk,,Å Energi Vannkraft,14.00 MW,hydro,run-of-the-river,Q11966317,59.88568,9.90903,Modum Municipality,Buskerud,Norway
Svartelva kraftverk,,Trønderenergi Kraft,14.00 MW,hydro,water-storage,Q12004167,63.637504,10.129867,Indre Fosen Municipality,Sør-Trøndelag,Norway
Smådøla kraftverk,,Eidefoss Vannkraft,13.90 MW,hydro,water-storage,Q25438645,61.73664,8.94554,Lom Municipality,Innlandet,Norway
Herlandsfoss kraftverk,,Eviny Fornybar,13.80 MW,hydro,water-storage,Q19374201,60.582238888,5.542830555,Osterøy Municipality,Vestland,Norway
Mørre kraftverk,,TrønderEnergi Kraft,13.60 MW,hydro,water-storage,Q11990486,63.92824,10.225707,Åfjord Municipality,Trøndelag,Norway
Geithusfoss kraftverk,,Å Energi Vannkraft,13.50 MW,hydro,run-of-the-river,Q17776022,59.92897,9.9635,Modum Municipality,Buskerud,Norway
Byrkjelo kraftverk,,Byrkjelo Kraft,13.27 MW,hydro,run-of-the-river,Q11962748,61.73364,6.50857,Gloppen Municipality,Vestland,Norway
Skomarkerfjellet vindpark,,Aneo Vind,13.20 MW,wind,,,,,,,
Askerudfoss kraftverk,,Viul Kraft,13.00 MW,hydro,run-of-the-river,,,,,,
Blåfalli IV kraftverk,,Sunnhordland Kraftlag,13.00 MW,hydro,water-storage,Q17750628,59.92773,6.19844,Kvinnherad Municipality,Vestland,Norway
Klosterfoss kraftverk,,Skien kraftproduksjon,13.00 MW,hydro,run-of-the-river,Q19377490,59.19842,9.60956,Skien,Telemark,Norway
Nedre Porsa kraftverk,,Porsa kraftlag,12.80 MW,hydro,water-storage,Q11991054,70.4021,23.62435,Hammerfest Municipality,Finnmark,Norway
Flatenfoss kraftverk,,Arendals Fossekompani,12.60 MW,hydro,run-of-the-river,Q98400006,58.629942,8.688371,Åmli,Agder,Norway
Gismarvik vindkraftverk,,,12.60 MW,wind,,,,,,,
Valsnes vindkraftverk - Vimle,,Vimle,12.60 MW,wind,,,,,,,
Brulandsfossen kraftverk,,Eviny Fornybar,12.50 MW,hydro,run-of-the-river,Q17760386,61.43579,5.91518,Sunnfjord Municipality,Vestland,Norway
Eidefoss kraftstasjon,,Eidefoss,12.50 MW,hydro,run-of-the-river,Q17769265,61.80368,9.30374,Vågå,Innlandet,Norway
Forså kraftvetk,,Salten Kraftsamband Produksjon,12.00 MW,hydro,water-storage,Q11111403,66.95136,14.22537,Gildeskål Municipality,Nordland,Norway
Kjensvatn kraftverk,,Statkraft,12.00 MW,hydro,water-storage,Q25431055,66.05919,14.24403,Hemnes Municipality,Nordland,Norway
Åsmulfoss kraftverk,,NTE Energi,12.00 MW,hydro,run-of-the-river,Q12011679,64.67749,12.67791,Grong Municipality,Trøndelag,Norway
Valsneset vindpark,,Aneo vind,11.50 MW,wind,,Q12008916,63.816327,9.618273,Ørland Municipality,Trøndelag,Norway
Sagfossen kraftverk,,Nord-Salten Kraft,11.30 MW,hydro,water-storage,Q11110786,67.904619444,15.860038888,Hamarøy Municipality,Nordland,Norway
Hellefoss kraftverk,,Å Energi Vannkraft,11.00 MW,hydro,run-of-the-river,Q19374049,59.78714,9.90099,Øvre Eiker,Buskerud,Norway
Håkvik kraftverk,,Nordkraft Energidrift,11.00 MW,hydro,water-storage,Q11111494,68.40382,17.42236,Narvik Municipality,Nordland,Norway
Oksebotn kraftverk,,Eviny Fornybar,11.00 MW,hydro,water-storage,Q11993282,60.73839,6.26186,Voss,Vestland,Norway
Brattingfoss pumpekraftverk,,NTE Energi,10.70 MW,hydro,water-pumped-storage,Q17750865,64.04331,11.08354,Verran Municipality,Trøndelag,Norway
Kuråsfoss kraftverk,,Ren Røros Strøm,10.60 MW,hydro,run-of-the-river,Q19378468,62.672745,11.455007,Røros Municipality,Trøndelag,Norway
Vrenga kraftverk,,Skagerak Kraft,10.50 MW,hydro,water-storage,Q19398384,59.86287,9.38507,Flesberg Municipality,Buskerud,Norway
Tindafjellet vindkraftverk,,Asko Rogaland,10.35 MW,wind,,,,,,,
Sagefossen kraftverk,,Sogn og Fjordane Energi,10.10 MW,hydro,,Q19387352,61.614722222,5.678055555,Gloppen Municipality,Vestland,Norway
Gjuva kraftverk,,Hafslund Kraft,10.00 MW,hydro,water-storage,Q11972127,60.92975,8.42293,Hemsedal Municipality,Buskerud,Norway
Heggmoen kraftverk,,Salten Kraftsamband Produksjon,10.00 MW,hydro,water-storage,Q11111484,67.35579,14.85214,Bodø Municipality,Nordland,Norway
Hunsfoss vest,,Å Energi Vannkraft,10.00 MW,hydro,run-of-the-river,,,,,,
Mo kraftverk,,Eviny Fornybar,10.00 MW,hydro,water-storage,Q19381701,61.4205,5.93765,Sunnfjord Municipality,Vestland,Norway
Stakaldefoss kraftverk,,Eviny Fornybar,10.00 MW,hydro,run-of-the-river,Q19390209,61.44585,6.00969,Sunnfjord Municipality,Vestland,Norway
Svelgen I kraftstasjon,,Svelgen Kraft,10.00 MW,hydro,,Q19391312,61.77168,5.29795,Bremanger Municipality,Vestland,Norway
Trælandsfos kraftverk,,Trælandsfos,10.00 MW,hydro,run-of-the-river,Q19393408,58.34814,6.96491,Kvinesdal Municipality,Agder,Norway
Viulfoss Kraftverk,,Viul Kraft,10.00 MW,hydro,run-of-the-river,Q12010006,60.19449,10.32257,Ringerike,Buskerud,Norway
Ørteren kraftverk,,,10.00 MW,hydro,water-storage,Q19371123,60.50287,7.86222,Hol Municipality,Buskerud,Norway
Usma kraftverk,,Usma Kraft,9.98 MW,hydro,run-of-the-river,Q25438681,63.11198,11.25753,Selbu Municipality,Trøndelag,Norway
Mork kraftverk,,Hafslund Kraft,9.90 MW,hydro,run-of-the-river,Q112710081,61.09329,7.41099,Lærdal Municipality,Vestland,Norway
Rafoss kraftverk,,Sira Kvina Kraftselskap,9.90 MW,hydro,run-of-the-river,Q111472650,58.36377,6.96146,Kvinesdal Municipality,Agder,Norway
Eldao kraftverk,,Eldao kraftverk,9.80 MW,hydro,water-storage,Q60291089,61.46122,7.03844,Luster Municipality,Vestland,Norway
Grøndalselva kraftverk,,Captiva Asset Management,9.62 MW,hydro,run-of-the-river,Q114705384,64.69169,12.76995,Grong Municipality,Trøndelag,Norway
Eid kraftstasjon,,Hafslund Kraft,9.60 MW,hydro,run-of-the-river,Q11966686,60.72077,9.71373,Sør-Aurdal,Innlandet,Norway
Hogstad,,Skagerak Kraft AS,9.60 MW,hydro,water-storage,Q11975607,59.32129,9.65699,Siljan Municipality,Telemark,Norway
Reinskar kraftverk,,Salten Kraftsamband Produksjon,9.60 MW,hydro,water-storage,Q19386416,66.94417,14.12205,Gildeskål Municipality,Nordland,Norway
Berlifoss kraftverk,,Å Energi Vannkraft,9.50 MW,hydro,run-of-the-river,Q17750269,58.94581,8.48209,Nissedal,Telemark,Norway
Fennefoss kraftverk,,Å Energi Vannkraft,9.50 MW,hydro,run-of-the-river,Q121545089,58.58366,7.79049,Evje og Hornnes Municipality,Agder,Norway
Dvergfossen kraftverk,,Dvergfossen kraft,9.40 MW,hydro,run-of-the-river,,,,,,
Nedre Tessa I kraftverk,,Eidefoss Vannkraft,9.40 MW,hydro,run-of-the-river,Q11991061,61.84601,8.96107,Vågå,Innlandet,Norway
Oltedal kraftverk,,Hydro Energi,9.30 MW,hydro,water-storage,Q14437522,58.8284,6.05488,Gjesdal Municipality,Rogaland,Norway
Salvasskardelva kraftverk,,Småkraft,9.30 MW,hydro,run-of-the-river,Q106633215,68.65237,18.89769,Bardu Municipality,Troms,Norway
Einunna kraftverk,,Hafslund Kraft,9.20 MW,hydro,water-storage,Q17769364,62.23134,10.34209,Folldal Municipality,Innlandet,Norway
Svardøla kraftverk,,Svardøla kraft,9.20 MW,hydro,water-storage,Q65236826,61.49042,6.98372,Luster Municipality,Vestland,Norway
Valken kraftverk,,Småkraft,9.20 MW,hydro,run-of-the-river,Q25431072,67.11926,15.49596,Saltdal Municipality,Nordland,Norway
Reppa kraftstasjon,,Salten Kraftsamband Produksjon,9.10 MW,hydro,water-storage,Q11110738,66.64594,13.56055,Rødøy Municipality,Nordland,Norway
Aurland V (Reppa) kraftverk,,Hafslund Kraft,9.00 MW,hydro,water-storage,Q19386484,60.80534,7.36694,Aurland Municipality,Vestland,Norway
Kjerringnes kraftverk,,Captivia Asset Managment,9.00 MW,hydro,run-of-the-river,Q110072564,61.39056,7.07221,Luster Municipality,Vestland,Norway
Kvitno kraftverk,,Kvitno kraft,9.00 MW,hydro,run-of-the-river,Q28719731,60.17487,6.54599,Ullensvang Municipality,Vestland,Norway
Langfjord kraftverk,,Helgeland Kraft Vannkraft,9.00 MW,hydro,water-storage,Q11111607,65.37517,12.70074,Brønnøy Municipality,Nordland,Norway
Løkaunet kraftverk,,Statkraft,9.00 MW,hydro,water-storage,Q11987261,63.2685,10.45843,Trondheim municipality,Trøndelag,Norway
Sigdestad kraftverk,,Småkraft,9.00 MW,hydro,run-of-the-river,Q56408399,61.83413,5.6647,Bremanger Municipality,Vestland,Norway
Søkkunda kraftverk,,Kiær Mykleby,9.00 MW,hydro,water-storage,Q56406605,61.37093,11.09801,Stor-Elvdal Municipality,Innlandet,Norway
Bergselvi kraftverk,,,8.90 MW,hydro,run-of-the-river,Q110086082,61.50399,7.69935,Luster Municipality,Vestland,Norway
Forsanvatn kraftverk,,Nord-Salten Kraft,8.80 MW,hydro,water-storage,Q25434984,67.95067,15.65405,Steigen Municipality,Nordland,Norway
Ritaelva kraftverk,,Nordkraft Energidrift,8.77 MW,hydro,run-of-the-river,Q111371053,69.50694,19.63675,Tromsø Municipality,Troms,Norway
Sveingård kraftverk,,Nordkraft Energidrift,8.76 MW,hydro,water-storage,Q111371058,69.44572,19.59021,Tromsø Municipality,Troms,Norway
Lávkajohka kraftverk,,Troms Kraft Produksjon,8.70 MW,hydro,water-storage,Q11983495,69.23427,20.52612,Storfjord Municipality,Troms,Norway
Romøyri kraftverk,,Sognekraft,8.63 MW,hydro,run-of-the-river,Q56406662,61.2863,6.686,Sogndal Municipality,Vestland,Norway
Hellifossen kraftverk,,Clemens Kraft,8.60 MW,hydro,water-storage,Q114273350,65.06695,12.35191,Bindal Municipality,Nordland,Norway
Holsen kraftverk,,Småkraft,8.60 MW,hydro,run-of-the-river,Q31080292,61.41974,6.1581,Sunnfjord Municipality,Vestland,Norway
Breivikelva kraftverk,,Salten Kraftsamband Produksjon,8.59 MW,hydro,run-of-the-river,Q107510043,67.05476,14.47887,Beiarn Municipality,Nordland,Norway
Øvre Forsland kraftverk,,Helgeland Kraft Vannkraft,8.58 MW,hydro,run-of-the-river,Q19399498,66.05029,13.11668,Leirfjord Municipality,Nordland,Norway
Vassenden kraftverk,,Helgeland Kraft Vannkraft,8.56 MW,hydro,run-of-the-river,Q75997943,66.123055555,13.257777777,Leirfjord Municipality,Nordland,Norway
Øvre Leiråga,,MIP Miljøkraft,8.51 MW,hydro,run-of-the-river,Q97819920,66.44226,13.84219,Rana Municipality,Nordland,Norway
Håfossen kraftverk,,,8.50 MW,hydro,run-of-the-river,Q111371013,59.876111111,6.403333333,Etne Municipality,Vestland,Norway
Tunnsjøfoss kraftverk,,NTE Energi,8.50 MW,hydro,run-of-the-river,Q12007877,64.69015,13.21587,Røyrvik Municipality,Trøndelag,Norway
Eidsfossen kraftverk,,Sogn og Fjordane Energi Produksjon,8.42 MW,hydro,run-of-the-river,Q17769289,61.75681,6.24565,Gloppen Municipality,Vestland,Norway
Nedre Svultingen kraftverk,,Eviny Fornybar,8.40 MW,hydro,water-storage,Q19382711,61.15459,5.34986,Hyllestad Municipality,Vestland,Norway
Bjørnstokk kraftverk,,Helgeland Kraft Vannkraft,8.20 MW,hydro,run-of-the-river,Q56405184,65.33369,12.946,Brønnøy Municipality,Nordland,Norway
Holen kraftverk,,Luster Småkraft,8.20 MW,hydro,run-of-the-river,Q11975642,61.35558,7.08669,Luster Municipality,Vestland,Norway
Kildalen kraftverk,,Ymber Produksjon,8.20 MW,hydro,water-storage,Q11980601,69.666,21.10674,Nordreisa Municipality,Troms,Norway
Blåfalli V kraftverk,,Sunnhordland Kraftlag,8.10 MW,hydro,water-storage,Q17750629,59.9191,6.18655,Kvinnherad Municipality,Vestland,Norway
Lindland Kraftverk,,Dalane Kraft,8.10 MW,hydro,water-storage,Q11984099,58.35878,6.30339,Sokndal,Rogaland,Norway
Brekke kraftverk,,Østfold Energi,8.00 MW,hydro,,Q17750917,59.14858,11.55678,Halden Municipality,Viken,Norway
Lindesnes vindpark,,Norsk Miljø Energi AS,8.00 MW,wind,,,,,,,
Sama kraftverk,,Trønderenergi Kraft,8.00 MW,hydro,water-storage,Q19387445,63.110426,10.598223,Melhus Municipality,Trøndelag,Norway
Storelva kraftverk,,Helgeland Kraft Vannkraft,8.00 MW,hydro,run-of-the-river,Q62571071,65.32298,12.99757,Brønnøy Municipality,Nordland,Norway
Storåvatn 1 kraftverk,,Helgeland Kraft Vannkraft,8.00 MW,hydro,water-storage,Q65236668,66.47432,13.39654,Rødøy Municipality,Nordland,Norway
Berge kraftverk,,Sognekraft,7.96 MW,hydro,run-of-the-river,Q56407130,61.37657,6.75054,Sogndal Municipality,Vestland,Norway
Bergsbotn kraftverk,,Troms Kraft Produksjon,7.90 MW,hydro,water-storage,Q11960724,69.43321,17.48293,Senja Municipality,Troms,Norway
Lidal kraftverk,,Sognekraft,7.82 MW,hydro,run-of-the-river,Q56406656,61.33199045,6.71513355,Sogndal Municipality,Vestland,Norway
Anga kraftverk,,Anga Kraft AS,7.80 MW,hydro,run-of-the-river,,,,,,
Kupekraft kraftverk,,Clemens Kraft,7.60 MW,hydro,run-of-the-river,Q113622175,61.59347,6.307,Sunnfjord Municipality,Vestland,Norway
Øvre Fiskumfoss kraftverk,,NTE Energi,7.60 MW,hydro,run-of-the-river,Q12012002,64.55625,12.47774,Grong Municipality,Trøndelag,Norway
Høylandsfoss kraftverk,,Å Energi Vannkraft,7.50 MW,hydro,water-storage,Q19375270,58.28127,6.81534,Kvinesdal Municipality,Agder,Norway
Jordalen 2 kraftverk,,Småkraft,7.50 MW,hydro,run-of-the-river,Q37298285,60.87,6.72441,Voss,Vestland,Norway
Norddalen kraftverk,,Statkraft,7.50 MW,hydro,water-storage,Q11110579,68.1743,17.91906,Narvik,Narvik Municipality,Norway
Leirelva/Tverråga kraftverk,,Småkraft,7.49 MW,hydro,run-of-the-river,Q20753915,,,,,
Lassajavrre kraftverk,,Ymber Produksjon,7.20 MW,hydro,water-storage,Q19379031,,,,,
Forsland kraftverk,,Helgeland Kraft Vannkraft,7.00 MW,hydro,water-storage,Q11111368,66.07417,13.04777,Leirfjord Municipality,Nordland,Norway
Furuset solkraftverk,,Solgrid,7.00 MW,solar,photovoltaic,,,,,,
Hakavik kraftverk,,Statkraft,7.00 MW,hydro,water-storage,Q2551139,59.624722,9.953611,Øvre Eiker,Buskerud,Norway
Julskaret kraftverk,,Selbu Energiverk,7.00 MW,hydro,water-storage,Q19376592,63.14034,10.966415,Selbu Municipality,Trøndelag,Norway
Midtre Tessa kraftstasjon,,Eidefoss Vannkraft,7.00 MW,hydro,run-of-the-river,Q19381490,61.8422,8.96038,Vågå,Innlandet,Norway
Mydalen kraftverk,,Skagerak kraft,7.00 MW,hydro,water-storage,Q11990317,59.7156,8.69955,Hjartdal,Telemark,Norway
Stølsdalselva kraftverk,,Småkraft,7.00 MW,hydro,run-of-the-river,,,,,,
Røvassåga kraftverk,,NKG Utbygging,6.94 MW,hydro,run-of-the-river,Q113653602,66.4585,14.33484,Rana Municipality,Nordland,Norway
Skoddeberg kraftverk,,Nordkraft Energidrift,6.78 MW,hydro,water-storage,Q19388972,68.62531,17.26093,Tjeldsund,Troms,Norway
Tufteelva kraftverk,,Forte Vannkraft,6.60 MW,hydro,run-of-the-river,,,,,,
Veiski kraftverk,,Småkraft,6.60 MW,hydro,run-of-the-river,Q111961834,67.33166,15.9769,Sørfold Municipality,Nordland,Norway
Dyrnesli kraftverk,,Vadheim Kraft,6.50 MW,hydro,water-storage,Q17768452,61.20428,5.81091,Høyanger Municipality,Vestland,Norway
Ildgrubfossen kraftverk,,Helgeland Kraft Vannkraft,6.50 MW,hydro,water-storage,Q11111503,66.30092,14.35095,Rana Municipality,Nordland,Norway
Sjøfossen kraftverk,,Salten Kraftsamband Produksjon,6.50 MW,hydro,water-storage,Q11117850,66.97085,14.14665,Gildeskål Municipality,Nordland,Norway
Øvre Svultingen kraftverk,,Eviny Fornybar,6.45 MW,hydro,water-storage,Q12012015,61.16019,5.47831,Høyanger Municipality,Vestland,Norway
Trollvikelva kraftverk,,Clemens Kraft,6.40 MW,hydro,run-of-the-river,,,,,,
Ulefoss kraftverk,,Statkraft,6.40 MW,hydro,run-of-the-river,Q12008271,59.28118,9.25281,Nome Municipality,Telemark,Norway
Grytendal kraftverk,,,6.35 MW,hydro,water-storage,Q60291084,65.185,12.798055555,Bindal Municipality,Nordland,Norway
Litlebø Kraftverk,,Finsk Kraft,6.20 MW,hydro,run-of-the-river,,,,,,
Sagnfossen kraftverk,,Hafslund Kraft,6.20 MW,hydro,run-of-the-river,Q11999092,61.1614,12.44544,Trysil Municipality,Innlandet,Norway
Hesjeberg kraftverk,,Nordkraft Energidrift,6.14 MW,hydro,run-of-the-river,Q25434892,68.73022,17.47029,Gratangen Municipality,Troms,Norway
Skjenaldfoss kraftverk,,Småkraft,6.10 MW,hydro,water-storage,Q12001039,63.293648,9.729509,Orkland Municipality,Trøndelag,Norway
Jordal kraftverk,,Sognekraft,6.06 MW,hydro,run-of-the-river,Q56407125,61.3341,6.6881,Sogndal Municipality,Vestland,Norway
Byafossen kraftverk,,NTE Energi,6.00 MW,hydro,run-of-the-river,Q17760886,64.03812,11.5525,Steinkjer Municipality,Trøndelag,Norway
Hjelmeland kraftverk,,,6.00 MW,hydro,run-of-the-river,Q19374433,59.22388,6.21934,Hjelmeland Municipality,Rogaland,Norway
Hønefoss kraftstasjon I,,Ringeriks-Kraft,6.00 MW,hydro,run-of-the-river,Q11976526,60.1684,10.25627,Ringerike,Buskerud,Norway
Rognsfossen kraftverk,,Voss Energi AS,6.00 MW,hydro,run-of-the-river,Q19386858,,,,,
Storøy vindpark,,,6.00 MW,wind,,,,,,,
Tjønnefoss kraftverk,,Å Energi Vannkraft,6.00 MW,hydro,run-of-the-river,Q12006514,58.98427,8.53449,Nissedal,Telemark,Norway
Grytneselva kraftverk,,Istad Kraft,5.90 MW,hydro,run-of-the-river,Q25435046,62.72518,8.1285,Molde Municipality,Møre og Romsdal,Norway
Kiste kraftstasjon,,Skagerak Kraft AS,5.87 MW,hydro,water-storage,Q11980792,59.24282,9.81186,Siljan Municipality,Telemark,Norway
Ala kraftverk,,Skagerak Kraft AS,5.80 MW,hydro,water-storage,Q114626455,61.14543,8.70837,Vang,Innlandet,Norway
Krossdalselvi kraftverk,,Blåfall,5.80 MW,hydro,run-of-the-river,Q120544951,,,,,
Dalsfoss kraftverk,,Skagerak Kraft,5.70 MW,hydro,run-of-the-river,Q11964603,58.96714,9.3137,Kragerø,Telemark,Norway
Begna kraftverk,,Å Energi Vannkraft,5.60 MW,hydro,run-of-the-river,Q11960424,60.20257,10.24993,Ringerike,Buskerud,Norway
Osfallet kraftverk,,,5.60 MW,hydro,run-of-the-river,Q18766247,61.20153,11.50633,Åmot Municipality,Innlandet,Norway
Raukforsen kraftverk,,Nord-Salten Kraft,5.60 MW,hydro,run-of-the-river,Q107265407,67.67177,16.06103,Sørfold Municipality,Nordland,Norway
Aall-Ulefoss kraftverk,,Ringerikskraft Produksjon,5.50 MW,hydro,run-of-the-river,Q11956733,59.28146,9.25322,Nome Municipality,Telemark,Norway
Flittig,,Løvenskiold Fossum Kraft,5.50 MW,hydro,water-storage,Q17772801,59.32295,9.53751,Skien,Telemark,Norway
Kanndalen kraftverk,,Småkraft,5.50 MW,hydro,run-of-the-river,Q19376878,62.676,8.15705,Molde Municipality,Møre og Romsdal,Norway
Leiro kraftverk,,Statkraft,5.50 MW,hydro,run-of-the-river,Q19379177,60.40433,7.37464,Eidfjord Municipality,Vestland,Norway
Leiråa karftverk,,Helgeland Kraft Vannkraft,5.50 MW,hydro,water-storage,Q31079542,65.32703,12.91839,Brønnøy Municipality,Nordland,Norway
Vassfossen kraftverk,,Risdal Energi,5.50 MW,hydro,water-storage,Q19397596,58.66201,8.06245,Froland Municipality,Agder,Norway
Øvre Bersåvatn kraftverk,,Statkraft,5.50 MW,hydro,water-storage,Q19399490,60.181666666,6.693333333,Ullensvang Municipality,Vestland,Norway
Dokkelva kraftverk,,Småkraft,5.49 MW,hydro,run-of-the-river,Q17766795,62.67965,8.13729,Molde Municipality,Møre og Romsdal,Norway
Lya kraftverk,,Hafslund Kraft,5.49 MW,hydro,run-of-the-river,Q19370945,60.66433,8.68096,Ål,Buskerud,Norway
Rottenvik kraftverk,,Troms Kraft Produksjon,5.49 MW,hydro,water-storage,Q19387003,69.60052,20.27108,Lyngen Municipality,Troms,Norway
Bergselva kraftverk,,Nordic Power,5.40 MW,hydro,run-of-the-river,Q28718727,69.29935,19.98561,Storfjord Municipality,Troms,Norway
Haugafossen kraftverk,,Hardanger Energi,5.40 MW,hydro,run-of-the-river,Q19373745,60.28021,6.26415,Ullensvang Municipality,Vestland,Norway
Hjertvatn kraftverk,,Nordkraft Energidrift,5.40 MW,hydro,water-storage,Q19374477,68.23749,16.74715,Narvik Municipality,Nordland,Norway
Langvann kraftverk,,Salten Kraftsamband Produksjon,5.40 MW,hydro,water-storage,Q11111007,66.88768,14.14871,Gildeskål Municipality,Nordland,Norway
Steinåga kraftverk,,Salten Kraftsamband Produksjon,5.40 MW,hydro,water-storage,Q20753999,66.96824,14.43117,Beiarn Municipality,Nordland,Norway
Storelvvatn kraftstasjon,,Salten Kraftsamband Produksjon,5.40 MW,hydro,run-of-the-river,Q26256483,67.12334,16.19368,Fauske Municipality,Nordland,Norway
Selselva kraftverk,,Selselva kraft,5.36 MW,hydro,run-of-the-river,Q26256461,61.38731,5.61458,Sunnfjord Municipality,Vestland,Norway
Kvannvatn kraftverk,,Kvannvatn Kraft,5.35 MW,hydro,run-of-the-river,Q19378508,66.41775,14.52298,Rana Municipality,Nordland,Norway
Lysbotn kraftverk,,Troms Kraft Produksjon,5.35 MW,hydro,water-storage,Q19380397,69.38706,17.79764,Senja Municipality,Troms,Norway
Sølna kraftverk,,Østerdalen Kraftproduksjon AS,5.35 MW,hydro,run-of-the-river,Q12004731,62.11614,10.55876,Alvdal Municipality,Innlandet,Norway
Myklebost kraftverk,,Myklebost Kraft,5.32 MW,hydro,run-of-the-river,Q56407632,61.52486,6.35645,Sunnfjord Municipality,Vestland,Norway
Bjørndalselva kraftverk,,Bjørndalen Kraft,5.30 MW,hydro,run-of-the-river,Q17750510,61.50966,6.28704,Sunnfjord Municipality,Vestland,Norway
Reinåa kraftverk,,Clemens Kraft,5.30 MW,hydro,run-of-the-river,Q111371042,63.45609,11.57983,Meråker Municipality,Trøndelag,Norway
Skrankefoss,,,5.30 MW,hydro,run-of-the-river,,,,,,
Åkraelva kraftverk,,Åkraelva Kraftverk AS,5.30 MW,hydro,run-of-the-river,Q19399082,59.7939,6.09403,Kvinnherad Municipality,Vestland,Norway
Årvik kraftverk,,Småkraft AS,5.30 MW,hydro,run-of-the-river,Q19399166,60.1715,6.109,Kvinnherad Municipality,Hordaland,Norway
Øvre Storelvi kraftverk,,Forte Vannkraft,5.30 MW,hydro,run-of-the-river,Q120548860,61.51582,6.98347,Luster Municipality,Vestland,Norway
Dittielva kraftverk,,Nordic Power,5.25 MW,hydro,run-of-the-river,Q17766641,68.65635,18.78431,Bardu Municipality,Troms,Norway
Nydalselva kraftverk,,Nydalselva Kraft,5.25 MW,hydro,water-storage,Q19384125,61.62095,6.44259,Sunnfjord Municipality,Vestland,Norway
Forneselva kraftverk,,Nordic Power,5.20 MW,hydro,run-of-the-river,Q28718728,69.59641,19.90259,Tromsø Municipality,Troms,Norway
Muoidejohka kraftverk,,Muoidejohka kraft,5.20 MW,hydro,run-of-the-river,Q25431071,66.81135,14.64479,Beiarn Municipality,Nordland,Norway
Oltesvik kraftverk,,Hydro Energi,5.20 MW,hydro,water-storage,Q11993770,58.85199,6.12312,Gjesdal Municipality,Rogaland,Norway
Rasdalen kraftverk,,Småkraft AS,5.20 MW,hydro,run-of-the-river,Q19386238,60.63625,5.96373,Voss,Vestland,Norway
Søberg kraftverk,,Småkraft,5.20 MW,hydro,run-of-the-river,Q19391592,65.2357,12.65717,Bindal Municipality,Nordland,Norway
Bjåstad kraftverk,,Sognekraft,5.19 MW,hydro,run-of-the-river,Q56407261,61.3764,6.75051,Sogndal Municipality,Vestland,Norway
Djupfjord 1 kraftverk,,Vesterålskraft Produksjon,5.10 MW,hydro,water-storage,Q11155335,68.60256,15.47336,Sortland Municipality,Nordland,Norway
Fiskløysa kraftverk,,Småkraft,5.10 MW,hydro,run-of-the-river,Q60291081,64.465277777,14.0325,Lierne Municipality,Trøndelag,Norway
Fjerdingelva kraftverk,,Captiva Asset Management,5.10 MW,hydro,run-of-the-river,Q112999953,64.65122,12.72775,Grong Municipality,Trøndelag,Norway
Folkedal kraftverk,,Hardanger Energi,5.00 MW,hydro,run-of-the-river,Q11969354,60.5046,6.63325,Granvin Municipality,Vestland,Norway
Haukland kraftverk,,Dalane Energi,5.00 MW,hydro,water-storage,Q19373807,58.46507,6.54426,Lund Municipality,Rogaland,Norway
Håvardsvatn kraftverk,,Statkraft,5.00 MW,hydro,water-storage,Q11976451,60.10168,6.91333,Ullensvang Municipality,Vestland,Norway
Kaupanger 3 kraftverk,,Kaupanger Energi,5.00 MW,hydro,run-of-the-river,Q19377041,61.19805,7.22453,Sogndal Municipality,Vestland,Norway
Kjeldalselva kraftverk,,Clemens Kraft,5.00 MW,hydro,run-of-the-river,Q96358291,69.29081,19.91036,Storfjord Municipality,Troms,Norway
Krogstadelva kraftverk,,Nordic Power,5.00 MW,hydro,run-of-the-river,Q19378238,68.88448,18.42025,Bardu Municipality,Troms,Norway
Nyset kraftverk,,Østfold Energi,5.00 MW,hydro,water-storage,Q19384178,61.16308,7.75083,Årdal Municipality,Vestland,Norway
Oftedal II kraftverk,,Småkraft,5.00 MW,hydro,water-storage,Q76814364,58.543055555,6.709722222,Sirdal,Agder,Norway
Roppa kraftverk,,Hafslund Kraft,5.00 MW,hydro,run-of-the-river,Q19386951,,,,,
Saltdalelva kraftverk,,Nordic Power,5.00 MW,hydro,run-of-the-river,Q19387429,69.51522,19.25669,Tromsø Municipality,Troms,Norway
Skarelva kraftverk,,Småkraft,5.00 MW,hydro,run-of-the-river,Q25434977,68.18391,17.3064,Narvik,Narvik Municipality,Norway
Skravelåga kraftverk,,Småkraft,5.00 MW,hydro,run-of-the-river,Q20753986,66.11198,13.53752,Vefsn Municipality,Nordland,Norway
Sleveåne kraftverk,,Clemens Kraft,5.00 MW,hydro,run-of-the-river,Q56406614,60.09929,6.54868,Ullensvang Municipality,Vestland,Norway
Virakelva kraftverk,,Nordkraft Energidrift,5.00 MW,hydro,run-of-the-river,Q19398215,68.37719,17.12337,Narvik,Narvik Municipality,Norway
Øvre Markevatn kraftverk,,Sogn og Fjordane Energi,5.00 MW,hydro,water-storage,Q19399511,61.44598,5.33481,Askvoll Municipality,Vestland,Norway
Bjørndalen kraftverk,,Sogn og Fjordane Energi,4.95 MW,hydro,water-storage,Q20753992,61.82173,5.79913,Bremanger Municipality,Vestland,Norway
Dauremål kraftverk,,Sogn og Fjordane Energi,4.95 MW,hydro,water-storage,Q17764910,61.82909,5.78219,Bremanger Municipality,Vestland,Norway
Fossan kraftverk,,Nordkraft Energidrift,4.95 MW,hydro,run-of-the-river,Q25439925,68.66285,17.697,Gratangen Municipality,Troms,Norway
Jordal kraftverk,,Småkraft,4.95 MW,hydro,run-of-the-river,Q19376438,62.75487,8.31545,Sunndal Municipality,Møre og Romsdal,Norway
Laksen kraftverk,,Helgeland Kraft Vannkraft,4.95 MW,hydro,water-storage,Q19378753,65.78688,12.87525,Vefsn Municipality,Nordland,Norway
Råssåfoss kraftverk,,Småkraft,4.95 MW,hydro,run-of-the-river,Q19387175,62.82704,8.7019,Surnadal Municipality,Møre og Romsdal,Norway
Grunnevatn & Leknesvatn kraftverk,,Sogn og Fjordane Energi,4.93 MW,hydro,run-of-the-river,Q76814277,61.43468,5.35535,Askvoll Municipality,Vestland,Norway
Dalen 1 kraftverk,,Jørpeland kraft,4.90 MW,hydro,water-storage,Q17764558,59.02282,6.07051,Strand Municipality,Rogaland,Norway
Hålandsfossen Kraftverk,,Eviny Fornybar,4.90 MW,hydro,water-storage,Q11976403,61.33079,5.41394,Fjaler Municipality,Vestland,Norway
Reinset kraftverk,,Nordmøre Energiverk,4.90 MW,hydro,water-storage,Q19386414,62.80459,8.50284,Sunndal Municipality,Møre og Romsdal,Norway
Vafoss kraftverk,,Skagerak Kraft,4.90 MW,hydro,run-of-the-river,Q19394145,58.89584,9.33766,Kragerø,Telemark,Norway
Voldsetelva kraftverk,,LHI Solarwind Hydro Voldsetelva 2645,4.90 MW,hydro,run-of-the-river,Q20113229,63.87187,10.79642,Verran Municipality,Trøndelag,Norway
Asko Øst,,Asko Øst,4.87 MW,solar,photovoltaic,,,,,,
Litj-Hena,,Litj-Hena Kraftverk,4.86 MW,hydro,run-of-the-river,Q21481764,63.0497,11.48721,Tydal Municipality,Trøndelag,Norway
Knutfoss kraftverk,,Småkraft,4.85 MW,hydro,run-of-the-river,Q19377585,64.52277,12.42639,Grong Municipality,Trøndelag,Norway
Øvre Russvik kraftverk,,Nordkraft Energidrift,4.84 MW,hydro,run-of-the-river,Q107193333,68.13614,16.5456,Narvik Municipality,Nordland,Norway
Fjelna kraftverk,,Nordkraft,4.83 MW,hydro,run-of-the-river,Q28718713,63.20195,9.00375,Heim Municipality,Sør-Trøndelag,Norway
Ellenelva kraftverk,,Nordic Power,4.80 MW,hydro,run-of-the-river,Q17769496,69.38069,19.64474,Tromsø Municipality,Troms,Norway
Gandvik kraftverk,,Pasvik Kraft,4.80 MW,hydro,water-storage,Q11971533,70.01467,29.11528,Nesseby Municipality,Finnmark,Norway
Gjuvåa kraftverk,,Skagerak kraft,4.80 MW,hydro,run-of-the-river,Q108734341,59.75407,8.793627,Hjartdal,Telemark,Norway
Istad kraftverk,,Istad Kraft,4.80 MW,hydro,water-storage,Q19375909,62.80527,7.700687,Molde Municipality,Møre og Romsdal,Norway
Kandal kraftverk,,Kandal Kraft AS,4.80 MW,hydro,run-of-the-river,Q19376871,61.67155,6.37929,Gloppen Municipality,Vestland,Norway
Leinafoss Kraftstasjon,,Hafslund Kraft,4.80 MW,hydro,run-of-the-river,Q19379160,60.83179,7.1186,Aurland Municipality,Vestland,Norway
Tokleiv Kraftverk,,Skagerak Kraft AS,4.80 MW,hydro,water-storage,Q12006582,59.36234,9.6632,Siljan Municipality,Telemark,Norway
Skyggeelva kraftverk,,Skyggeelva kraft,4.76 MW,hydro,run-of-the-river,Q19389144,61.35978,5.66713,Sunnfjord Municipality,Vestland,Norway
Hammeren kraftverk,,Hafslund Kraft,4.70 MW,hydro,,Q5645687,59.99666667,10.75,Oslo Municipality,Norway,Norway
Seterkraft kraftverk,,Seterkraft,4.70 MW,hydro,run-of-the-river,Q28718707,62.67495,8.43076,Sunndal Municipality,Møre og Romsdal,Norway
Setredalen kraftverk,,Setredalen Kraft,4.70 MW,hydro,water-storage,Q65235974,61.83476,5.60765,Bremanger Municipality,Vestland,Norway
Tverråa kraftverk,,Helgeland Kraft Vannkraft,4.70 MW,hydro,run-of-the-river,Q56408019,65.32976,12.96997,Brønnøy Municipality,Nordland,Norway
Gudåa kraftverk,,Clemens Kraft,4.60 MW,hydro,run-of-the-river,Q96358724,63.4387,11.6159545,Meråker Municipality,Trøndelag,Norway
Usma kraftverk,,Småkraft,4.60 MW,hydro,run-of-the-river,Q19394012,62.63378,8.29918,Sunndal Municipality,Møre og Romsdal,Norway
Espeelvi kraftverk,,Espeelvi kraft,4.56 MW,hydro,run-of-the-river,Q56407571,60.20595,6.60371,Ullensvang Municipality,Vestland,Norway
Befring kraftverk,,Befring Kraft,4.50 MW,hydro,run-of-the-river,Q11960415,61.6091,6.63535,Sunnfjord Municipality,Vestland,Norway
Graffer kraftverk,,Clemens Kraft,4.50 MW,hydro,run-of-the-river,Q111370920,61.84837,8.6912,Lom Municipality,Innlandet,Norway
Hynna kraftverk,,Hynna Kraft,4.50 MW,hydro,run-of-the-river,Q25425470,63.05776,11.43939,Tydal Municipality,Trøndelag,Norway
Jøssingfjord kraftverk,,Titania,4.50 MW,hydro,water-storage,Q19376682,58.32582,6.35173,Sokndal,Rogaland,Norway
Kåven kraftverk,,Alta kraftlag,4.50 MW,hydro,water-storage,Q11982817,70.11793,22.79605,Alta,Finnmark,Norway
Mølleelva kraftverk,,Alta Kraftlag,4.50 MW,hydro,water-storage,Q56409109,69.94989,23.06374,Alta,Finnmark,Norway
Hatlestad kraftverk,,Sognekraft,4.49 MW,hydro,run-of-the-river,Q56406653,,,,,
Sagevikelv kraftverk,,Sagevikelv kraft,4.45 MW,hydro,run-of-the-river,Q19387358,61.36177,5.56169,Fjaler Municipality,Vestland,Norway
Herje kraftverk,,Rauma Energi Produksjon,4.44 MW,hydro,run-of-the-river,Q20112339,62.6689,7.53219,Rauma Municipality,Møre og Romsdal,Norway
Berdalselva kraftverk,,,4.40 MW,hydro,run-of-the-river,Q17750151,62.4475,7.48734,Rauma Municipality,Møre og Romsdal,Norway
Brattabøelvi kraftverk,,Captivia Asset Managment,4.40 MW,hydro,run-of-the-river,Q114681947,60.28025,6.38618,Ullensvang Municipality,Vestland,Norway
Kongsfjord kraftverk,,Pasvik Kraft,4.40 MW,hydro,water-storage,Q11981701,70.59872,29.05794,Berlevåg Municipality,Finnmark,Norway
Mårøyfjord kraftverk,,Nordkyn Kraftlag,4.40 MW,hydro,water-storage,Q19382167,70.75172,27.35401,Lebesby Municipality,Finnmark,Norway
Repvåg kraftverk,,Repvåg Kraftlag,4.40 MW,hydro,water-storage,Q17278747,70.77353,25.6165,Nordkapp Municipality,Finnmark,Norway
Kvassteinåga kraftverk,,Småkraft,4.33 MW,hydro,run-of-the-river,Q19378524,66.12789,13.57307,Vefsn Municipality,Nordland,Norway
Bjørdal kraftverk,,Tussa Energi,4.30 MW,hydro,water-storage,Q11961278,62.13408,6.29908,Ørsta Municipality,Møre og Romsdal,Norway
Langdalselva kraftverk,,Småkraft,4.30 MW,hydro,run-of-the-river,Q28718730,70.0263,22.10172,Kvænangen Municipality,Troms,Norway
Nordvik kraftverk,,Clemens Kraft,4.30 MW,hydro,run-of-the-river,Q19383390,62.86983,8.62205,Surnadal Municipality,Møre og Romsdal,Norway
Valsøyfjord kraftverk,,Svorka Energi,4.28 MW,hydro,water-storage,Q19394224,63.12111111,8.56805556,Heim Municipality,Trøndelag,Norway
Ørtvatn kraftverk,,MIP Miljøkraft,4.27 MW,hydro,run-of-the-river,Q25431075,66.40675,14.5031,Rana Municipality,Nordland,Norway
Bjørkåsen kraftverk,,Nordkraft Energidrift,4.20 MW,hydro,water-storage,Q17750500,,,,,
Kistefoss II,,Hadeland kraftproduksjon,4.20 MW,hydro,,Q76814273,60.22207,10.36874,Jevnaker,Akershus,Norway
Solbjørn kraftverk,,Lofotkraft Produksjon,4.20 MW,hydro,water-storage,Q19389560,68.00483,13.16263,Flakstad Municipality,Nordland,Norway
Trysilfossen kraftverk,,Sogn og Fjordane Energi Produksjon,4.20 MW,hydro,run-of-the-river,Q12007781,61.75014,6.27625,Gloppen Municipality,Vestland,Norway
Eidsfoss kraftverk,,Elvang Kraftproduksjon,4.10 MW,hydro,water-storage,Q17769286,61.17666,8.39105,Vang,Innlandet,Norway
Kinso Kraftverk,,Hardanger Energi,4.10 MW,hydro,run-of-the-river,Q11980708,60.35185,6.75818,Ullensvang Municipality,Vestland,Norway
Lysvatn kraftstasjon,,Meløy Energi AS,4.10 MW,hydro,water-storage,Q11110064,66.87512,13.84259,Meløy,Nordland,Norway
Meisal 2 kraftverk,,Istad Kraft,4.10 MW,hydro,water-storage,Q76814283,62.788611111,8.2325,Molde Municipality,Møre og Romsdal,Norway
Nedre Bersåvatn kraftverk,,Statkraft,4.10 MW,hydro,water-storage,Q11991040,60.16852,6.67187,Ullensvang Municipality,Vestland,Norway
Åvella kraftverk,,Vokks Kraft,4.10 MW,hydro,water-storage,Q12011719,60.8007,10.11197,Nordre Land Municipality,Innlandet,Norway
Brandåa kraftverk,,Svorka Energi,4.05 MW,hydro,run-of-the-river,Q17750833,63.0922,9.22306,Rindal Municipality,Trøndelag,Norway
Sandøy vindkraftverk,,,4.00 MW,wind,,,,,,,
Skarsfjord kraftverk,,Troms Kraft Produksjon,4.00 MW,hydro,water-storage,Q15632350,69.96338,18.90786,Tromsø Municipality,Troms,Norway
Skjefstadfoss I,,Hafslund Kraft,4.00 MW,hydro,water-storage,Q19388894,60.82654,11.61052,Elverum Municipality,Innlandet,Norway
Storelvi kraftverk,,Sunnhordaland Kraftlag,4.00 MW,hydro,run-of-the-river,Q56405167,60.26217,6.62424,Ullensvang Municipality,Vestland,Norway
Sørfjord II kraftverk,,Nordkraft Energidrift,4.00 MW,hydro,water-storage,Q11117963,68.03765,16.69074,Hamarøy Municipality,Nordland,Norway
Årøy I kraftverk,,Sognekraft,4.00 MW,hydro,run-of-the-river,Q76735901,61.27664,7.15726,Sogndal Municipality,Vestland,Norway
Reinåga kraftverk,,Småkraft,3.91 MW,hydro,run-of-the-river,Q20753833,66.03755951,13.85498047,Hemnes Municipality,Nordland,Norway
Bruvollelva kraftverk,,Småkraft,3.80 MW,hydro,run-of-the-river,Q17760440,64.26627,12.29437,Snåsa,Trøndelag,Norway
Eidesfossen kraftstasjon,,Hardanger Energi,3.80 MW,hydro,water-storage,Q17769269,60.28391,6.29705,Ullensvang Municipality,Vestland,Norway
Seterfossen kraftverk,,Seterfossen Kraftverk,3.80 MW,hydro,run-of-the-river,Q110873882,64.8989,12.85185,Namsskogan Municipality,Trøndelag,Norway
Staffi kraftverk,,Sunnhordland Kraftlag,3.80 MW,hydro,run-of-the-river,Q19390203,59.86684,6.08743,Kvinnherad Municipality,Vestland,Norway
Åmotsfoss kraftverk,,Åmotsfoss Kraft,3.80 MW,hydro,run-of-the-river,,,,,,
Mela kraftverk,,Småkraft,3.74 MW,hydro,water-storage,Q56405924,64.25452,12.5461,Snåsa,Trøndelag,Norway
Brunstad kraftverk,,,3.73 MW,hydro,run-of-the-river,Q17760421,62.28449,6.67718,Sykkylven Municipality,Møre og Romsdal,Norway
Coop Norge Hovedlager,,Coop,3.73 MW,solar,photovoltaic,,,,,,
Gjesdal kraftverk,,Gjesdal kraft,3.70 MW,hydro,water-storage,Q17776287,61.48723,6.12041,Sunnfjord Municipality,Vestland,Norway
Dversetelva kraftverk,,Dragefossen,3.68 MW,hydro,run-of-the-river,Q17768283,67.16109,15.40571,Saltdal Municipality,Nordland,Norway
Haugfoss kraftverk,,Kraftia Tjenester,3.60 MW,hydro,run-of-the-river,Q11974477,59.91378,9.88574,Modum Municipality,Buskerud,Norway
Kjosfoss kraftverk,,Bane Energi,3.60 MW,hydro,run-of-the-river,Q6419491,60.74698,7.1349,Aurland Municipality,Vestland,Norway
Nedrefoss kraftverk,,Nordkraft Energidrift,3.60 MW,hydro,water-storage,Q17775987,68.60896,16.49313,Harstad Municipality,Troms,Norway
Palmafossen kraftverk,,Voss Energi Produksjon,3.60 MW,hydro,run-of-the-river,Q11994659,60.63638,6.46764,Voss,Vestland,Norway
Tinfos II kraftverk,,Tinfos AS,3.50 MW,hydro,run-of-the-river,Q76737673,59.56562,9.26309,Notodden Municipality,Telemark,Norway
Tøsse kraftverk,,Småkraft,3.50 MW,hydro,water-storage,Q12008170,60.61773,5.58688,Osterøy Municipality,Vestland,Norway
Vangpollen kraftverk,,Vesterålskraft Produksjon,3.50 MW,hydro,water-storage,Q19394241,68.61161,15.58166,Sortland Municipality,Nordland,Norway
Årdal Øvre kraftverk,,Årdal Kraft AS,3.50 MW,hydro,run-of-the-river,Q19399132,61.67148,6.42469,Gloppen Municipality,Vestland,Norway
Åselva kraftverk,,Åselva Kraft AS,3.50 MW,hydro,run-of-the-river,Q19399196,61.52044,6.34005,Sunnfjord Municipality,Vestland,Norway
Midtlæger kraftverk,,Hydro Energi,3.47 MW,hydro,run-of-the-river,,,,,,
Reinfossen kraftverk,,Statkraft,3.40 MW,hydro,run-of-the-river,Q11110664,66.34963,14.34287,Rana Municipality,Nordland,Norway
Dragefossen kraftverk,,Dragefossen,3.30 MW,hydro,run-of-the-river,Q17767059,67.02392,15.32166,Saltdal Municipality,Nordland,Norway
Fritzøe Kraftverk,,Treschow Fritzøe,3.30 MW,hydro,,Q11970327,59.05229,10.01834,Larvik,Vestfold,Norway
Grøndalselva kraftverk,,Grøndalselva Kraft,3.30 MW,hydro,run-of-the-river,,,,,,
Krokevatn kraftverk,,Eviny Fornybar,3.30 MW,hydro,run-of-the-river,Q19378254,60.98385,5.69863,Høyanger Municipality,Vestland,Norway
Salhuselva kraftverk,,Clemens Kraft Drift,3.30 MW,hydro,run-of-the-river,,,,,,
Tyria I,,Eidsiva Vannkraft,3.30 MW,hydro,water-storage,Q19393631,61.11396,10.67109,Ringsaker Municipality,Innlandet,Norway
Tafjord 7 kraftverk,,Tafjord Kraftproduksjon,3.25 MW,hydro,water-storage,Q19391844,62.13981,7.4398,Fjord Municipality,Møre og Romsdal,Norway
Byro kraftverk,,Småkraft,3.20 MW,hydro,run-of-the-river,Q28719729,60.206638888,6.562361111,Ullensvang Municipality,Vestland,Norway
Kobbholm kraftverk,,Tinfos,3.20 MW,hydro,water-storage,Q19377597,69.76237,30.70635,Sør-Varanger Municipality,Finnmark,Norway
Kupe kraftverk,,Proxima Hydrotech,3.20 MW,hydro,run-of-the-river,Q37298062,61.63953,5.09801,Kinn Municipality,Vestland,Norway
Rivedal kraftverk,,Rivedal kraftverk,3.20 MW,hydro,run-of-the-river,Q19386691,61.37436,5.26151,Askvoll Municipality,Vestland,Norway
Rødberg kraftverk,,Statkraft,3.20 MW,hydro,water-storage,Q19387203,60.2629,8.97655,Nore og Uvdal Municipality,Buskerud,Norway
Svabo kraftverk,,Mo Industripark,3.20 MW,hydro,water-storage,Q11117913,66.30532,14.1799,Rana Municipality,Nordland,Norway
Trollfjord 1 kraftverk,,Trollfjord Kraft,3.20 MW,hydro,water-storage,Q19393075,68.36267,14.93089,Hadsel Municipality,Nordland,Norway
Øvrebø kraftverk,,Clemens Kraft,3.20 MW,hydro,run-of-the-river,Q110879942,61.56311,6.25965,Sunnfjord Municipality,Vestland,Norway
Nedre Leiråga kraftverk,,MIP Miljøkraft,3.15 MW,hydro,run-of-the-river,Q99278669,66.4417,13.86271,Rana Municipality,Nordland,Norway
Stokkelandsåna kraftverk,,Småkraft,3.12 MW,hydro,run-of-the-river,Q19390588,,,,,
Kangsliåga kraftverk,,Salten Kraftsamband Produksjon,3.10 MW,hydro,run-of-the-river,Q20753923,66.14801025,13.85025024,Hemnes Municipality,Nordland,Norway
Mossefossen kraftverk,,Hafslund kraft AS,3.10 MW,hydro,,Q11990074,59.43869,10.66862,Moss Municipality,Viken,Norway
Skjerva kraftverk,,Clemens Kraft,3.10 MW,hydro,run-of-the-river,Q108540281,63.06391,9.62313,Orkland Municipality,Trøndelag,Norway
Øvre Leirfoss kraftstasjon,,Statkraft,3.10 MW,hydro,run-of-the-river,Q12012003,63.37295,10.40757,Trondheim municipality,Trøndelag,Norway
Grødemfoss kraftverk,,Dalane Kraft,3.08 MW,hydro,water-storage,Q17779179,58.40599,6.10154,Eigersund Municipality,Rogaland,Norway
Gaula kraftverk,,Midt Energi,3.00 MW,hydro,run-of-the-river,Q11971612,62.802669,11.370383,Holtålen Municipality,Trøndelag,Norway
Nybrufoss kraftverk,,Kongsberg Energiselskap,3.00 MW,hydro,,Q19384118,59.66748,9.65221,Kongsberg,Buskerud,Norway
Oftedal I kraftverk,,Småkraft,3.00 MW,hydro,run-of-the-river,Q19384350,58.54214,6.7351,Sirdal,Agder,Norway
Stublielva kraftverk,,Småkraft,3.00 MW,hydro,run-of-the-river,Q28718719,68.35371,17.62327,Narvik Municipality,Nordland,Norway
Kinnforsen kraftverk,,Småkraft,2.95 MW,hydro,run-of-the-river,Q20753985,66.12789,13.6135,Vefsn Municipality,Nordland,Norway
Bergstø kraftverk,,Småkraft,2.90 MW,hydro,run-of-the-river,Q17750258,59.90605,6.49747,Etne Municipality,Vestland,Norway
Bjordalen kraftverk,,Skagerak kraft,2.90 MW,hydro,water-storage,Q17750458,59.67427,8.55899,Hjartdal,Telemark,Norway
Gisnafallet kraftverk,,Kvikne-Rennebu Kraftlag,2.90 MW,hydro,run-of-the-river,Q17776174,,,,,
Hylla kraftverk,,Hafslund Kraft,2.90 MW,hydro,,Q19375063,61.66526,12.01894,Engerdal Municipality,Innlandet,Norway
Kongsfoss kraftverk,,Kraftia Tjenester,2.90 MW,hydro,run-of-the-river,Q11981700,59.89491,9.91134,Modum Municipality,Buskerud,Norway
Liafoss kraftverk,,Albert Collett,2.90 MW,hydro,water-storage,Q19379290,64.83879,11.95332,Nærøysund Municipality,Trøndelag,Norway
Oslandsbotn kraftverk,,Sogn og Fjordane Energi,2.90 MW,hydro,run-of-the-river,Q19384784,61.42161,5.2335,Askvoll Municipality,Vestland,Norway
Sagefoss kraftverk,,Hafslund Kraft,2.90 MW,hydro,water-storage,Q19387353,58.25417,6.79248,Kvinesdal Municipality,Agder,Norway
Skar kraftverk,,Nordmøre Energiverk,2.90 MW,hydro,water-storage,Q19388717,,,,,
Skorga kraftverk,,Proxima Hydrotech,2.90 MW,hydro,run-of-the-river,Q62571031,62.72018,7.77003,Molde Municipality,Møre og Romsdal,Norway
Stongfjord kraftverk,,Sogn og Fjordane Energi,2.90 MW,hydro,run-of-the-river,Q19390602,61.427954525,5.169336119,Askvoll Municipality,Vestland,Norway
XXL hovedlager,,XXL,2.85 MW,solar,photovoltaic,,,,,,
Optimera sentrallager,,Optimera,2.84 MW,solar,photovoltaic,,,,,,
Syrifossen kraftverk,,Syrikraft,2.84 MW,hydro,run-of-the-river,Q19391519,60.64195,6.32492,Voss,Vestland,Norway
Einungstølsåna kraftverk,,Einungstølsåna Kraftverk,2.80 MW,hydro,run-of-the-river,,,,,,
Hommelfoss kraftverk,,Eviny Fornybar,2.80 MW,hydro,water-storage,Q11975760,60.90025,5.61794,Masfjorden Municipality,Vestland,Norway
Kaldsåni kraftverk,,Småkraft,2.80 MW,hydro,water-storage,Q28718629,59.54082,7.3333,Bykle Municipality,Agder,Norway
Nedre Markevatn kraftverk,,Sogn og Fjordane Energi,2.80 MW,hydro,water-storage,Q19382694,61.46297,5.32202,Askvoll Municipality,Vestland,Norway
Nedre Russvik kraftverk,,Nordkraft Energidrift,2.80 MW,hydro,water-storage,Q107094680,68.12772,16.52186,Narvik Municipality,Nordland,Norway
Rendalselva kraftverk,,Meløy Energi,2.80 MW,hydro,run-of-the-river,Q19386465,66.80355,13.76361,Meløy,Nordland,Norway
Røstad kraftverk,,Nordkraft Energidrift,2.80 MW,hydro,run-of-the-river,Q19387275,63.67337,10.63088,Indre Fosen Municipality,Nord-Trøndelag,Norway
Sagelva kraftverk,,Brødrene Dahl,2.80 MW,hydro,run-of-the-river,,,,,,
Tafjord 8 kraftverk,,Tafjord Kraftproduksjon,2.80 MW,hydro,water-storage,Q19391845,62.1127,7.38767,Fjord Municipality,Møre og Romsdal,Norway
Ursdalselva kraftverk,,Småkraft,2.80 MW,hydro,run-of-the-river,Q20753892,65.94188,13.06426,Vefsn Municipality,Nordland,Norway
Venna kraftverk,,Småkraft,2.80 MW,hydro,run-of-the-river,Q19397725,63.34816,9.28103,Heim Municipality,Trøndelag,Norway
Vestrebotn kraftverk,,Eviny Fornybar,2.80 MW,hydro,water-storage,Q19397961,60.99498,5.72295,Høyanger Municipality,Vestland,Norway
Årdal Nedre kraftverk,,Årdal Kraft AS,2.80 MW,hydro,run-of-the-river,Q19399131,61.67592,6.40304,Gloppen Municipality,Vestland,Norway
Kvernstad kraftverk,,Kvernstad Kraft,2.75 MW,hydro,run-of-the-river,Q19378555,63.446087,9.36166,Orkland Municipality,Sør-Trøndelag,Norway
Bele kraftverk,,Bele Kraft,2.70 MW,hydro,run-of-the-river,Q25435371,63.01753,8.52747,Surnadal Municipality,Møre og Romsdal,Norway
Brødbølfoss kraftverk,,Hafslund Kraft,2.70 MW,hydro,,Q11962472,60.03346,12.37126,Kongsvinger Municipality,Innlandet,Norway
Helgheim kraftverk,,Nydalselva kraft,2.70 MW,hydro,run-of-the-river,Q56408414,61.56185,6.4035,Sunnfjord Municipality,Vestland,Norway
Lappvikelva kraftverk,,Nordkraft Energidrift,2.70 MW,hydro,run-of-the-river,Q19378980,68.20774,17.36617,Narvik,Narvik Municipality,Norway
Raubergfossen kraftverk,,Midt Energi,2.70 MW,hydro,run-of-the-river,Q11997197,62.942927,11.107564,Holtålen Municipality,Trøndelag,Norway
Røyrvatn kraftverk,,Indre Salten Energi Produksjon Røyrvatn,2.70 MW,hydro,water-storage,Q11110763,67.31365,15.67664,Sørfold Municipality,Nordland,Norway
Snefjellå kraftverk,,Snefjellåkraft A/S,2.70 MW,hydro,run-of-the-river,Q28719337,66.38485,13.99116,Rana Municipality,Nordland,Norway
Storfallet Kraftverk,,,2.70 MW,hydro,run-of-the-river,Q12003438,61.37182,11.10412,Stor-Elvdal Municipality,Innlandet,Norway
Kvamselva kraftverk,,Eviny Fornybar,2.67 MW,hydro,run-of-the-river,Q28718711,61.38256,5.65406,Sunnfjord Municipality,Vestland,Norway
Bentsjord kraftverk,,Bekk og Strøm,2.66 MW,hydro,run-of-the-river,Q25434889,69.3554,20.09348,Storfjord Municipality,Troms,Norway
Heina kraftverk,,Clemens Kraft,2.63 MW,hydro,run-of-the-river,Q19373961,62.77124,8.00114,Molde Municipality,Møre og Romsdal,Norway
Djupfjord 2 kraftverk,,Vesterålskraft Produksjon,2.60 MW,hydro,water-storage,Q11111135,68.5866,15.51437,Sortland Municipality,Nordland,Norway
Haukvik kraftverk,,Haukvik Kraft,2.60 MW,hydro,water-storage,Q19373809,63.195509,8.930565,Heim Municipality,Sør-Trøndelag,Norway
Ljøsåa kraftverk,,Småkraft,2.60 MW,hydro,run-of-the-river,Q19380073,62.6698,8.37469,Sunndal Municipality,Møre og Romsdal,Norway
Luostejok kraftverk,,Luostejok Kraftlag,2.60 MW,hydro,water-storage,Q19380315,69.82947,25.1672,Porsanger,Finnmark,Norway
Skjærlivatn kraftverk,,TrønderEnergi Kraft,2.60 MW,hydro,water-storage,Q19388958,64.227471,10.405576,Roan Municipality,Sør-Trøndelag,Norway
Syversætre Foss kraftverk,,Syversætre Foss Kraftverk A/S,2.60 MW,hydro,run-of-the-river,Q25425390,60.62981,12.03068,Åsnes Municipality,Innlandet,Norway
Osteren kraftverk,,Troms Kraft Produksjon,2.54 MW,hydro,water-storage,Q11994330,69.3117,17.16598,Senja Municipality,Troms,Norway
Asko Vest,,Asko Vest,2.51 MW,solar,photovoltaic,,,,,,
Ardalen kraftverk,,Småkraft AS,2.50 MW,hydro,run-of-the-river,Q11958589,60.47622,5.77782,Vaksdal Municipality,Vestland,Norway
Arneselv kraftverk,,Nordkraft Energidrift,2.50 MW,hydro,water-storage,Q17749342,68.34621,16.92809,Narvik Municipality,Nordland,Norway
Bakkeelva kraftverk,,Clemens Kraft Drift,2.50 MW,hydro,run-of-the-river,Q79394342,61.37051,5.1881,Askvoll Municipality,Vestland,Norway
Fossan kraftverk,,Statkraft,2.50 MW,hydro,run-of-the-river,Q11969754,63.02734,11.69678,Tydal Municipality,Trøndelag,Norway
Havdal kraftverk,,Småkraft,2.50 MW,hydro,run-of-the-river,Q19373823,64.64195,13.69331,Lierne Municipality,Trøndelag,Norway
Kongsmarka kraftverk,,Lofotkraft Produksjon,2.50 MW,hydro,water-storage,Q19377918,68.24192,14.47951,Vågan Municipality,Nordland,Norway
Rema 1000 hovedlager Vinterbro,,Rema 1000,2.50 MW,solar,photovoltaic,,,,,,
Saksenvik kraftverk,,Småkraft,2.50 MW,hydro,run-of-the-river,Q19387385,67.11057,15.46268,Saltdal Municipality,Nordland,Norway
Sanddal kraftverk,,Sanddal Kraft,2.50 MW,hydro,run-of-the-river,Q19387585,61.51138,6.26707,Sunnfjord Municipality,Vestland,Norway
Skromma kraftverk,,Salten Kraftsamband Produksjon,2.50 MW,hydro,water-storage,Q19389098,66.93452,13.77582,Gildeskål Municipality,Nordland,Norway
Teksdal kraftverk,,Fosenkraft Energi,2.50 MW,hydro,water-storage,Q19392070,63.848765,9.890184,Bjugn Municipality,Trøndelag,Norway
Vatne kraftverk,,Tussa Energi,2.50 MW,hydro,run-of-the-river,Q12009118,,,,,
Bjørgelva kraftverk,,Tinfos,2.42 MW,hydro,run-of-the-river,Q115949804,69.14462,17.94534,Sørreisa Municipality,Troms,Norway
Julfoss kraftverk,,Julfoss Kraftverk,2.41 MW,hydro,run-of-the-river,Q19376585,63.41288,10.94423,Stjørdal Municipality,Trøndelag,Norway
Grønlielva kraftverk,,Grønlielva kraftverk,2.40 MW,hydro,run-of-the-river,Q56405190,68.97028,17.77641,Salangen Municipality,Troms,Norway
Hanestadnea kraftverk,,Østre Hanestad Gård,2.40 MW,hydro,water-storage,Q20112314,61.78139,10.83732,Rendalen Municipality,Innlandet,Norway
Helleren kraftverk,,Nordkraft Energidrift,2.40 MW,hydro,water-storage,Q11974883,68.65662,17.21018,Skånland Municipality,Troms,Norway
Krokvatn kraftverk,,Lofotkraft Produksjon,2.40 MW,hydro,water-storage,Q19378269,67.93939,12.98147,Moskenes,Nordland,Norway
Nedre Leirfoss kraftstasjon,,Statkraft,2.40 MW,hydro,run-of-the-river,Q19382692,63.38191,10.39682,Trondheim municipality,Trøndelag,Norway
Røymyra vindpark,,Norsk Vind Energi,2.40 MW,wind,,,,,,,
Ågskar kraftverk,,Ågskarkraft,2.40 MW,hydro,run-of-the-river,Q19399073,,,,,
Bulko kraftverk,,Bulko Kraft,2.35 MW,hydro,water-storage,Q17760696,60.58452,6.61344,Granvin Municipality,Vestland,Norway
Nordsvorka kraftverk,,Statkraft,2.34 MW,hydro,water-storage,Q19383380,63.0325,8.83694444,Surnadal Municipality,Møre og Romsdal,Norway
Eidet kraftverk,,Skagerak Kraft,2.30 MW,hydro,run-of-the-river,Q17769271,59.20568,9.60915,Skien,Telemark,Norway
Mattisfoss kraftverk,,Alta Kraftlag,2.30 MW,hydro,run-of-the-river,Q11988728,69.9165,23.01355,Alta,Finnmark,Norway
Mo kraftverk,,Løvenskiold Fossum Kraft,2.30 MW,hydro,run-of-the-river,Q19381702,59.29472,9.56029,Skien,Telemark,Norway
Osvatn kraftverk,,Småkraft,2.30 MW,hydro,water-storage,Q19384933,60.61344,5.60448,Osterøy Municipality,Vestland,Norway
Skonningsfoss,,,2.30 MW,hydro,,Q12001165,59.12627,11.41817,Halden Municipality,Viken,Norway
ASKO Oslofjord,,ASKO,2.20 MW,solar,photovoltaic,,,,,,
Bordalselva kraftverk,,Småkraft,2.20 MW,hydro,run-of-the-river,Q104045027,62.77798,7.67349,Molde Municipality,Møre og Romsdal,Norway
Brufoss kraftverk,,VOKKS Kraft,2.20 MW,hydro,run-of-the-river,Q11962372,60.79033,10.67855,Gjøvik Municipality,Innlandet,Norway
Holsfossen kraftverk,,Hafslund Kraft,2.20 MW,hydro,run-of-the-river,Q11975722,61.21972,10.19793,Gausdal Municipality,Innlandet,Norway
Kvarv kraftverk,,Indre Salten Energi,2.20 MW,hydro,water-storage,Q11111566,67.46645,15.58256,Sørfold Municipality,Nordland,Norway
Offervann kraftverk,,Statkraft,2.20 MW,hydro,water-storage,Q28719633,70.36033,26.89208,Lebesby Municipality,Finnmark,Norway
Stølselva kraftverk,,Småkraft,2.20 MW,hydro,run-of-the-river,Q95965675,61.42693,6.01195,Sunnfjord Municipality,Vestland,Norway
Sundfossen kraftverk,,NTE Energi,2.20 MW,hydro,run-of-the-river,Q19391119,64.0782,11.63214,Steinkjer Municipality,Trøndelag,Norway
Tyria II,,Eidsiva Vannkraft,2.20 MW,hydro,water-storage,Q12008044,61.12457,10.6951,Ringsaker Municipality,Innlandet,Norway
Åmot kraftverk,,Løvenskiold-Fossum Kraft AS,2.20 MW,hydro,run-of-the-river,Q25438683,59.40733,9.50365,Skien,Telemark,Norway
Kaldåga kraftverk,,Småkraft,2.14 MW,hydro,run-of-the-river,Q81854417,68.33855,16.86523,Narvik Municipality,Nordland,Norway
Døla kraftverk,,Småkraft,2.10 MW,hydro,run-of-the-river,Q17768567,63.95133,11.65663,Steinkjer Municipality,Trøndelag,Norway
Glesåa kraftverk,,Glesåa kraftverk,2.10 MW,hydro,water-storage,Q17776431,61.40674,11.36294,Åmot Municipality,Innlandet,Norway
Gravbrøtfoss kraftverk,,Gravbrøtfoss Kraft,2.10 MW,hydro,run-of-the-river,Q17778359,64.27336,12.54805,Snåsa,Trøndelag,Norway
Kvernhusfossen kraftverk,,Terråk Kraftverk,2.10 MW,hydro,run-of-the-river,Q111537231,65.0805,12.3642,Bindal Municipality,Nordland,Norway
Malmelva kraftverk,,Småkraft,2.10 MW,hydro,run-of-the-river,Q95984362,62.79858,7.22455,Hustadvika Municipality,Møre og Romsdal,Norway
Morkenfoss kraftverk,,Småkraft,2.10 MW,hydro,water-storage,Q11989949,64.42932,10.95925,Flatanger Municipality,Trøndelag,Norway
Mortendalselva kraftverk,,Nordkraft,2.10 MW,hydro,run-of-the-river,Q19381882,69.23595,19.836,Storfjord Municipality,Troms,Norway
Neverdalsåga kraftverk,,Statkraft,2.10 MW,hydro,water-storage,Q11110516,,,,,
Nyvikelva kraftverk,,Småkraft,2.10 MW,hydro,run-of-the-river,Q20754013,64.81895,13.6284,Røyrvik Municipality,Trøndelag,Norway
Reingardsåga kraftverk,,Småkraft,2.10 MW,hydro,run-of-the-river,Q19386410,66.44177,14.25901,Rana Municipality,Nordland,Norway
Ulefoss kraftverk,,Albert Collett,2.10 MW,hydro,run-of-the-river,Q12008272,64.83005,11.93371,Nærøysund Municipality,Trøndelag,Norway
Veiteberg kraftverk,,Veiteberg kraftverk,2.07 MW,hydro,run-of-the-river,Q19397674,61.6188,6.64261,Sunnfjord Municipality,Vestland,Norway
Andåsfossen kraftverk,,Helgeland Kraft Vannkraft,2.00 MW,hydro,run-of-the-river,Q11157051,65.82242,13.25992,Vefsn Municipality,Nordland,Norway
Dvergsdalsdalen kraftverk,,Dvergsdalsdalen Kraftverk,2.00 MW,hydro,run-of-the-river,Q20112170,61.52312,6.42417,Sunnfjord Municipality,Vestland,Norway
Fossmark kraftverk,,,2.00 MW,hydro,run-of-the-river,Q17773652,58.97687,6.24294,Forsand,Rogaland,Norway
Gaudøla kraftverk,,Gaudalskraft,2.00 MW,hydro,run-of-the-river,Q17775944,62.68597,8.41679,Sunndal Municipality,Møre og Romsdal,Norway
Nisserdam kraftverk,,Å Energi Vannkraft,2.00 MW,hydro,run-of-the-river,Q19383033,59.00809,8.55231,Nissedal,Telemark,Norway
Nordlandselva kraftverk,,Salten Kraftsamband Produksjon,2.00 MW,hydro,run-of-the-river,Q19383268,,,,,
Ryssdal kraftverk,,Småkraft,2.00 MW,hydro,run-of-the-river,Q19387142,62.73857,8.31376,Sunndal Municipality,Møre og Romsdal,Norway
Storvatnet kraftverk,,Nordlaks Smolt,2.00 MW,hydro,water-storage,Q31079537,67.9641,15.97525,Hamarøy Municipality,Nordland,Norway
Øyrabekken kraftverk,,Småkraft,2.00 MW,hydro,run-of-the-river,Q19399578,60.12646,6.16797,Kvinnherad Municipality,Hordaland,Norway
Bråberg kraftverk,,Bråberg kraft,1.95 MW,hydro,run-of-the-river,Q56407572,60.24619,6.56375,Ullensvang Municipality,Vestland,Norway
Myrholten kraftverk,,Myrholten Kraftverk,1.93 MW,hydro,run-of-the-river,Q109914037,63.06182,8.74692,Surnadal Municipality,Møre og Romsdal,Norway
Strandos kraftverk,,Strandos kraft,1.93 MW,hydro,run-of-the-river,Q25425587,61.16446,5.53324,Høyanger Municipality,Vestland,Norway
Valåe kraftverk,,Småkraft,1.93 MW,hydro,run-of-the-river,Q20113196,62.18592,8.49545,Lesja Municipality,Innlandet,Norway
Fossheimfoss kraftverk,,Hafslund Kraft,1.90 MW,hydro,run-of-the-river,Q17773628,61.03,9.04962,Vestre Slidre Municipality,Innlandet,Norway
Sikkajokk kraftverk,,Ymber Produksjon,1.90 MW,hydro,water-storage,Q19388453,69.80931,20.75309,Nordreisa Municipality,Troms,Norway
Storå kraftverk,,Nordkraft Energidrift,1.90 MW,hydro,run-of-the-river,,,,,,
Senneset kraftverk,,Småkraft,1.82 MW,hydro,run-of-the-river,Q108654267,61.290277777,5.8325,Sunnfjord Municipality,Vestland,Norway
Kleivan kraftverk,,Kvikraft,1.81 MW,hydro,run-of-the-river,Q111370868,58.33834,7.04154,Kvinesdal Municipality,Agder,Norway
Breilobekken kraftverk,,Captivia Asset Managment,1.80 MW,hydro,run-of-the-river,Q111370810,58.77921,6.74522,Sirdal,Agder,Norway
Kvitfossen kraftverk,,Lofotkraft Produksjon,1.80 MW,hydro,water-storage,Q25434934,68.3268,14.65226,Vågan Municipality,Nordland,Norway
Liavatn kraftverk,,Albert Collett,1.80 MW,hydro,water-storage,Q11983907,64.84322,11.9713,Nærøysund Municipality,Trøndelag,Norway
Skorge kraftverk,,Sogn og Fjordane Energi,1.80 MW,hydro,water-storage,Q12001168,61.9992,5.45879,Stad Municipality,Vestland,Norway
Slemmå kraftverk,,Slemmå Kraft,1.80 MW,hydro,run-of-the-river,Q84344276,62.6825,7.608611111,Rauma Municipality,Møre og Romsdal,Norway
Tafjord 6 kraftverk,,Tafjord Kraftproduksjon,1.80 MW,hydro,water-storage,Q12005053,62.15988,7.5216,Fjord Municipality,Møre og Romsdal,Norway
Tua kraftverk,,Småkraft,1.80 MW,hydro,run-of-the-river,Q20113170,63.94886,10.99583,Steinkjer Municipality,Nord-Trøndelag,Norway
Åmot kraftverk,,VOKKS Kraft,1.80 MW,hydro,run-of-the-river,Q19399105,60.78266,10.64744,Gjøvik Municipality,Innlandet,Norway
Svartvatn kraftverk,,Helgeland Kraft Vannkraft,1.79 MW,hydro,water-storage,Q25434935,65.37551,12.75301,Brønnøy Municipality,Nordland,Norway
Føssa kraftverk,,Bekk og Strøm,1.77 MW,hydro,run-of-the-river,Q17775692,62.98513,9.77115,Orkland Municipality,Trøndelag,Norway
Grønnedal kraftverk,,Istad Kraft,1.76 MW,hydro,water-storage,Q17779218,62.840899,7.702356,Molde Municipality,Møre og Romsdal,Norway
Ørje kraftverk,,Østfold Energi,1.75 MW,hydro,run-of-the-river,Q12011860,59.48078,11.65233,Marker Municipality,Østfold,Norway
Bergerfoss II kraftverk,,,1.70 MW,hydro,run-of-the-river,,,,,,
Gautvella kraftverk,,Kvikne-Rennebu Kraftlag,1.70 MW,hydro,run-of-the-river,Q11971650,62.830773,9.895409,Rennebu Municipality,Trøndelag,Norway
Heimså kraftverk,,Proxima Hydrotech,1.70 MW,hydro,run-of-the-river,Q95950713,58.72139,6.72915,Sirdal,Agder,Norway
Rodal kraftverk,,Rodal Kraft,1.70 MW,hydro,run-of-the-river,Q19386825,63.1616,8.67754,Heim Municipality,Trøndelag,Norway
Strielva kraftverk,,Vesterålskraft Produksjon,1.70 MW,hydro,water-storage,Q11117875,68.61086,15.46777,Sortland Municipality,Nordland,Norway
Øvre Porsa kraftverk,,Porsa kraftlag,1.70 MW,hydro,water-storage,Q12012009,70.38299,23.70274,Hammerfest Municipality,Finnmark,Norway
Čorrojávrrit kraftverk,,Ymber Produksjon,1.70 MW,hydro,run-of-the-river,Q11964292,69.69163,22.16081,Kvænangen Municipality,Troms,Norway
Mjeldeelva kraftverk,,Småkraft,1.64 MW,hydro,run-of-the-river,Q28718732,69.54308,18.42889,Tromsø Municipality,Troms,Norway
Brekkefoss kraftverk,,Hafslund Kraft,1.60 MW,hydro,run-of-the-river,Q11962208,60.88762,8.46045,Hemsedal Municipality,Buskerud,Norway
Kistafossen kraftverk,,Småkraft,1.60 MW,hydro,run-of-the-river,Q25431070,66.62466,13.41005,Rødøy Municipality,Nordland,Norway
Ramsliåna kraftverk,,Ramsliåna Kraftverk,1.60 MW,hydro,run-of-the-river,Q111370892,58.53392,6.68899,Flekkefjord Municipality,Agder,Norway
Tuddal kraftverk,,Tuddal Kraft,1.60 MW,hydro,run-of-the-river,Q19393476,59.76204,8.77834,Hjartdal,Telemark,Norway
Urlandåga kraftverk,,Småkraft,1.60 MW,hydro,run-of-the-river,Q20753930,66.22179,13.85211,Hemnes Municipality,Nordland,Norway
Vorma kraftverk,,Orkland Enegi Produksjon,1.59 MW,hydro,run-of-the-river,Q19398362,63.192139,9.757139,Orkland Municipality,Trøndelag,Norway
Gilja kraftverk,,Gilja kraftverk,1.55 MW,hydro,run-of-the-river,Q11971974,58.80211,6.27456,Gjesdal Municipality,Rogaland,Norway
Mølnbekken kraftverk,,Lifjellkraft,1.55 MW,hydro,run-of-the-river,Q56405186,65.96533,13.76669,Hemnes Municipality,Nordland,Norway
Austad kraftverk,,Austad Kraftverk,1.50 MW,hydro,run-of-the-river,Q111506708,58.95428,7.68841,Bygland,Agder,Norway
Bergerfoss I kraftverk,,,1.50 MW,hydro,run-of-the-river,,,,,,
Brekke Kraftverk,,Småkraft,1.50 MW,hydro,,Q11962206,59.43864,11.22562,Rakkestad Municipality,Viken,Norway
Buer Kraftverk,,Småkraft,1.50 MW,hydro,,Q11962530,59.43312,11.27995,Rakkestad Municipality,Viken,Norway
Fiskefjord kraftverk,,Trollfjord Kraft,1.50 MW,hydro,water-storage,Q11111349,68.56184,15.36267,Hadsel Municipality,Nordland,Norway
Gapestad Kraftverk,,Småkraft,1.50 MW,hydro,,Q17775859,59.4357,11.24175,Rakkestad Municipality,Viken,Norway
Hetland kraftverk,,Hydro Energi,1.50 MW,hydro,water-storage,Q11975289,58.52391,5.83632,Hå Municipality,Rogaland,Norway
Hetland kraftverk,,Lyse Energi,1.50 MW,hydro,,,,,,,
Lekum Kraftverk,,Småkraft,1.50 MW,hydro,,Q11983699,59.52293,11.24549,Indre Østfold Municipality,Viken,Norway
Mølnåa kraftverk,,Selbu Energiverk,1.50 MW,hydro,run-of-the-river,Q87432314,63.19873,11.14082,Selbu Municipality,Trøndelag,Norway
Salsbruket kraftverk,,Albert Collett,1.50 MW,hydro,run-of-the-river,Q19387427,64.80159,11.86217,Nærøysund Municipality,Trøndelag,Norway
Sandvand kraftverk,,Proxima Hydrotech,1.50 MW,hydro,run-of-the-river,Q95472069,58.4853,6.79125,Flekkefjord Municipality,Agder,Norway
Stølslia kraftverk,,Stølslia Kraft,1.50 MW,hydro,run-of-the-river,Q20753989,61.41036,6.09225,Sunnfjord Municipality,Vestland,Norway
Taraldsvik kraftverk,,Nordkraft Energidrift,1.50 MW,hydro,water-storage,Q11117987,68.44017,17.46964,Narvik Municipality,Nordland,Norway
Tennesvatn kraftverk,,Lofotkraft Produksjon,1.50 MW,hydro,water-storage,Q25434907,67.93959,12.98189,Moskenes,Nordland,Norway
Åsedøla kraftverk,,Åsedøla Kraft AS,1.50 MW,hydro,run-of-the-river,Q19399195,61.52044,5.79543,Sunnfjord Municipality,Vestland,Norway
Gryta kraftverk,,Småkraft,1.49 MW,hydro,run-of-the-river,Q17779114,63.0556,9.1775,Rindal Municipality,Trøndelag,Norway
Tyttebærelva kraftverk,,Småkraft,1.46 MW,hydro,run-of-the-river,Q26721270,69.599480555,19.958480555,Lyngen Municipality,Troms,Norway
Reisæter kraftverk,,Reisæter kraft,1.45 MW,hydro,run-of-the-river,Q19386429,60.24518,6.55138,Ullensvang Municipality,Vestland,Norway
Scheldefoss kraftverk,,Småkraft,1.45 MW,hydro,water-storage,Q19387771,64.4659,10.94673,Flatanger Municipality,Trøndelag,Norway
Straumane kraftverk,,Svelgen Kraft,1.45 MW,hydro,run-of-the-river,Q19390887,61.79236,5.35432,Bremanger Municipality,Vestland,Norway
Brekkestøl kraftverk,,,1.44 MW,hydro,water-storage,Q11962217,58.80117,6.26347,Gjesdal Municipality,Rogaland,Norway
Nydal kraftverk,,Nydal Kraft,1.44 MW,hydro,run-of-the-river,Q20753990,61.42053986,6.10912991,Sunnfjord Municipality,Vestland,Norway
Nedrebø kraftverk,,Nedrebø kraftverk,1.42 MW,hydro,water-storage,Q20112613,61.53459,6.23521,Sunnfjord Municipality,Vestland,Norway
Akslandselva kraftverk,,SKL,1.40 MW,hydro,run-of-the-river,Q17748351,59.70987,5.85974,Etne Municipality,Vestland,Norway
Eide kraftverk,,Eide Kraft,1.40 MW,hydro,run-of-the-river,Q112989609,61.90707,5.39052,Bremanger Municipality,Vestland,Norway
Kistefoss I,,Hadeland kraftproduksjon,1.40 MW,hydro,,Q19377240,,,,,
Lauvsnes kraftverk,,Småkraft,1.40 MW,hydro,water-storage,Q11983478,64.4996,10.91293,Flatanger Municipality,Trøndelag,Norway
Liemyr kraftverk,,Proxima Hydrotech,1.40 MW,hydro,run-of-the-river,Q95464367,58.533888888,6.744166666,Sirdal,Agder,Norway
Trollfjord 2 kraftverk,,Trollfjord Kraft,1.40 MW,hydro,water-storage,Q25434904,68.36518,14.93619,Hadsel Municipality,Nordland,Norway
Virak kraftverk,,Virak Kraft,1.40 MW,hydro,run-of-the-river,Q19398214,,,,,
Åsa kraftstasjon,,Ringerikskraft Produksjon AS,1.40 MW,hydro,run-of-the-river,Q12011635,60.124166666,10.364444444,Ringerike,Buskerud,Norway
Gyl kraftverk,,Clemens Kraft,1.38 MW,hydro,run-of-the-river,Q20112309,62.953,8.13308,Tingvoll,Møre og Romsdal,Norway
Litlelva kraftverk,,Ulvig Kiær,1.36 MW,hydro,run-of-the-river,Q25435003,64.86706,12.88507,Namsskogan Municipality,Trøndelag,Norway
Meierifossen kraftverk,,Meierifossen kraftverk,1.36 MW,hydro,run-of-the-river,Q25435013,61.55114,6.3504,Sunnfjord Municipality,Vestland,Norway
Jora kraftverk,,Kvikne-Rennebu Kraftlag,1.35 MW,hydro,run-of-the-river,Q19376436,,,,,
Sundli kraftverk,,Sundlikraft,1.35 MW,hydro,run-of-the-river,Q31079555,63.25652,9.8354,Orkland Municipality,Trøndelag,Norway
Ågjølet kraftverk,,Ågjølet kraftverk,1.34 MW,hydro,run-of-the-river,Q19399070,61.55786,6.33648,Sunnfjord Municipality,Vestland,Norway
Austdøla kraftverk,,Austdøla Kraft,1.30 MW,hydro,run-of-the-river,Q17749571,59.94947,6.61639,Ullensvang Municipality,Vestland,Norway
Grytdalen kraftverk,,Svorka Energi,1.30 MW,hydro,water-storage,Q17779116,63.10888889,8.55888889,Heim Municipality,Trøndelag,Norway
Grytåga småkraftverk,,Grytåga Settefisk,1.30 MW,hydro,water-storage,Q25434985,65.80309,12.72915,Vefsn Municipality,Nordland,Norway
Hansfoss kraftverk,,Småkraft,1.30 MW,hydro,run-of-the-river,Q11974150,63.72113,11.4504,Levanger Municipality,Trøndelag,Norway
Kvinesdal kraftverk,,Å Energi Vannkraft,1.30 MW,hydro,water-storage,Q11982672,,,,,
Kvernfallet kraftverk,,Hafslund Kraft,1.25 MW,hydro,run-of-the-river,Q19378545,61.19586,11.54886,Åmot Municipality,Innlandet,Norway
Kysinga kraftverk,,Svorka Energi,1.25 MW,hydro,run-of-the-river,Q19378624,63.0183,9.36472,Rindal Municipality,Trøndelag,Norway
Ravnåga kraftverk,,MIP Miljøkraft,1.25 MW,hydro,run-of-the-river,Q25431096,66.42542,13.97521,Rana Municipality,Nordland,Norway
Rensjø kraftverk,,Selbu Energiverk,1.25 MW,hydro,water-storage,Q11997588,63.144179,10.899124,Selbu Municipality,Trøndelag,Norway
Simavik kraftverk,,Tromsø kommune,1.25 MW,hydro,water-storage,Q31079554,69.83485,19.00775,Tromsø Municipality,Troms,Norway
Alsaker kraftverk,,Alsaker Kraft AS,1.20 MW,hydro,run-of-the-river,Q17748461,59.76298,6.06727,Kvinnherad Municipality,Vestland,Norway
Bedafors kraftverk,,Hafslund Kraft,1.20 MW,hydro,water-storage,Q11960395,60.15554,12.40086,Kongsvinger Municipality,Innlandet,Norway
Langli kraftverk,,Istad Kraft,1.20 MW,hydro,run-of-the-river,Q19378922,62.825636,7.704958,Molde Municipality,Møre og Romsdal,Norway
Lovik kraftverk,,Andøy Energi,1.20 MW,hydro,water-storage,Q25434983,68.92724,15.7766,Andøy Municipality,Nordland,Norway
Moelv kraftstasjon,,Eidsiva Vannkraft,1.20 MW,hydro,run-of-the-river,Q19381735,60.9437,10.74599,Ringsaker Municipality,Innlandet,Norway
Mølnelva kraftverk,,Sandvik Energi,1.20 MW,hydro,run-of-the-river,Q25434888,69.01555,17.92144,Dyrøy Municipality,Troms,Norway
Nord-Forså kraftverk,,Nordkraft Energidrift,1.20 MW,hydro,water-storage,Q19383109,68.74299,17.00409,Ibestad Municipality,Troms,Norway
Ormhaugfossen kraftverk,,Ren Røros Strøm,1.20 MW,hydro,run-of-the-river,Q11994110,62.638943,11.396567,Røros Municipality,Trøndelag,Norway
Sagbergfossen kraftverk,,Småkraft,1.20 MW,hydro,water-storage,Q11999084,63.24413,10.169467,Melhus Municipality,Trøndelag,Norway
Sya kraftverk,,Sya Kraft,1.20 MW,hydro,run-of-the-river,Q12004500,63.031386,9.697173,Orkland Municipality,Sør-Trøndelag,Norway
Ulstein Kraftverk,,Tussa,1.20 MW,hydro,run-of-the-river,Q14438036,62.36485,5.8469,Ulstein Municipality,Møre og Romsdal,Norway
Utsira vindpark,,Solvind,1.20 MW,wind,,,,,,,
Vik kraftverk,,TrønderEnergi Kraft,1.20 MW,hydro,water-storage,Q12009740,64.242217,10.389848,Roan Municipality,Trøndelag,Norway
Øvre Kivfallet kraftverk,,Østre Hanestad,1.20 MW,hydro,run-of-the-river,Q19399503,61.81581,10.91499,Rendalen Municipality,Innlandet,Norway
Sørdalselva kraftverk,,,1.15 MW,hydro,run-of-the-river,Q19391695,60.77831,5.94839,Vaksdal Municipality,Vestland,Norway
Angvik kraftverk,,Istad Kraft,1.10 MW,hydro,run-of-the-river,Q17748602,62.89129,8.08313,Gjemnes Municipality,Møre og Romsdal,Norway
Bergsfjord kraftverk,,Ymber produksjon,1.10 MW,hydro,water-storage,Q11960730,70.24954,21.79025,Loppa Municipality,Finnmark,Norway
Buer solkraftverk,,,1.10 MW,solar,photovoltaic,,,,,,
Hammerfest kraftverk,,Hammerfest Energi,1.10 MW,hydro,water-storage,Q3126532,70.65793,23.71439,Hammerfest Municipality,Finnmark,Norway
Hasselelva kraftstasjon,,Rissa Kraftlag,1.10 MW,hydro,water-storage,Q11974415,63.651183,9.903767,Indre Fosen Municipality,Trøndelag,Norway
Hestdal kraftverk,,Hestdal E-Verk,1.10 MW,hydro,run-of-the-river,Q19374254,63.60025,10.45753,Indre Fosen Municipality,Trøndelag,Norway
Høgfallet kraftverk,,VOKKS Kraft,1.10 MW,hydro,run-of-the-river,Q11976482,60.88314,10.64562,Gjøvik Municipality,Innlandet,Norway
Langåsfoss kraftverk,,Småkraft,1.10 MW,hydro,water-storage,Q11983211,63.71583,11.35253,Levanger Municipality,Trøndelag,Norway
Sør-Forså kraftverk,,Nordkraft Energidrift,1.10 MW,hydro,water-storage,Q19391661,68.73785,16.96236,Ibestad Municipality,Troms,Norway
Ulvilla kraftverk,,Småkraft,1.10 MW,hydro,water-storage,Q12008360,63.79683,11.81637,Verdal,Trøndelag,Norway
Vika kraftverk,,Mo Industripark,1.10 MW,hydro,run-of-the-river,Q59341976,66.317069444,14.140180555,Rana Municipality,Nordland,Norway
ASKO Vestfold-Telemark,,ASKO,1.09 MW,solar,photovoltaic,,,,,,
Seteråa kraftverk,,Seteråa Kraft,1.05 MW,hydro,run-of-the-river,Q19388272,63.08327,11.4333,Tydal Municipality,Trøndelag,Norway
Rema 1000 lager Stavanger,,,1.02 MW,solar,photovoltaic,,,,,,
Arstadfossen kraftverk,,Arstadfossen kraftverk AS,1.00 MW,hydro,run-of-the-river,Q20753998,67.01638031,14.54533005,Beiarn Municipality,Nordland,Norway
Breiskallen kraftverk,,VOKKS Kraft,1.00 MW,hydro,run-of-the-river,Q17750905,60.75951,10.63007,Gjøvik Municipality,Innlandet,Norway
Breivold kraftverk,,Breivold Energi,1.00 MW,hydro,run-of-the-river,Q17750912,63.915086,10.405759,Åfjord Municipality,Trøndelag,Norway
Oslo Fashion Outlet,,,1.00 MW,solar,photovoltaic,,,,,,
Raua kraftstasjon,,Hafslund Kraft,1.00 MW,hydro,run-of-the-river,Q11997198,61.27175,10.13275,Gausdal Municipality,Innlandet,Norway
Skogbuåna Kraftstasjon,,,1.00 MW,hydro,run-of-the-river,Q19388975,59.038611111,8.651388888,Nissedal,Telemark,Norway
Skotselv kraftverk,,Øvre Eiker Energi,1.00 MW,hydro,run-of-the-river,Q19389059,59.84093,9.89118,Øvre Eiker,Buskerud,Norway
Valvatn kraftverk,,Tinfos,1.00 MW,hydro,water-storage,Q19394227,69.71819,30.6666,Sør-Varanger Municipality,Finnmark,Norway
Vollabekken kraftverk,,Vollakraft,1.00 MW,hydro,run-of-the-river,Q25435009,63.71806,10.32014,Indre Fosen Municipality,Sør-Trøndelag,Norway
Ås kraftverk,,Løvenskiold-Fossum,1.00 MW,hydro,run-of-the-river,Q19399171,,,,,
Dyrstad kraftverk,,Dyrstad Kraft,990 kW,hydro,run-of-the-river,Q25433549,61.77309,5.18091,Bremanger Municipality,Vestland,Norway
Grimo kraftverk,,Grimokraft,990 kW,hydro,run-of-the-river,Q19373396,60.38655,6.63747,Ullensvang Municipality,Vestland,Norway
Jordal kraftverk,,Jordalskraft,990 kW,hydro,run-of-the-river,Q19376439,62.76355,8.31929,Sunndal Municipality,Møre og Romsdal,Norway
Jåstad kraftverk,,Jåstadkraft,990 kW,hydro,run-of-the-river,Q19376638,60.34725,6.62676,Ullensvang Municipality,Vestland,Norway
Laskbekken kraftverk,,Storforshei Naturkraft,990 kW,hydro,run-of-the-river,Q60291080,66.42693,14.48541,Rana Municipality,Nordland,Norway
Dahlefoss kraftverk,,Småkraft,980 kW,hydro,water-storage,Q17764472,64.4436,10.97506,Flatanger Municipality,Trøndelag,Norway
Fatland kraftverk,,Fatland Kraft AS,980 kW,hydro,run-of-the-river,Q28719328,59.77183,6.06122,Kvinnherad Municipality,Vestland,Norway
Sakrisåga kraftverk,,Storforshei Naturkraft,960 kW,hydro,run-of-the-river,Q25434976,66.42683,14.48531,Rana Municipality,Nordland,Norway
Tverå kraftverk,,Tveråkraft,960 kW,hydro,run-of-the-river,Q20113179,62.67559,7.72213,Rauma Municipality,Møre og Romsdal,Norway
Grøneng minikraftverk,,Grøneng Kraftverk,950 kW,hydro,run-of-the-river,Q25435024,61.43431,6.46312,Sunnfjord Municipality,Vestland,Norway
Grønningselva kraftverk,,Mokraft,950 kW,hydro,run-of-the-river,Q79346075,63.61423,11.28628,Levanger Municipality,Trøndelag,Norway
Møllefossen kraftverk,,Småkraft,950 kW,hydro,water-storage,Q19382203,60.59047,5.52408,Osterøy Municipality,Vestland,Norway
Øvrefoss kraftverk,,Nordkraft Energidrift,950 kW,hydro,water-storage,Q17775985,68.61812,16.42907,Harstad Municipality,Troms,Norway
Kjærnes minikraftverk,,Rustad Energi,945 kW,hydro,run-of-the-river,Q25435006,64.88433,13.8129,Røyrvik Municipality,Trøndelag,Norway
Mælafoss kraftverk,,Småkraft,940 kW,hydro,run-of-the-river,Q20754014,63.48874,10.9107,Stjørdal Municipality,Trøndelag,Norway
Gåsvasselva kraftverk,,Lifjellkraft,900 kW,hydro,run-of-the-river,Q20753843,65.8276,13.89821,Hemnes Municipality,Nordland,Norway
Hølera Kraft,,,900 kW,hydro,water-storage,Q19375199,60.76306,9.66086,Sør-Aurdal,Innlandet,Norway
Leirbekken kraftverk,,Bekk og Strøm,900 kW,hydro,run-of-the-river,Q19379170,63.24875,9.74643,Orkland Municipality,Trøndelag,Norway
Meisal1 kraftverk,,Istad Kraft,900 kW,hydro,run-of-the-river,Q76887166,62.78863,8.23245,Molde Municipality,Møre og Romsdal,Norway
Skauma Kraftverk,,Kvikne-Rennebu Kraftlag,900 kW,hydro,run-of-the-river,Q19388767,62.81233,10.00999,Rennebu Municipality,Trøndelag,Norway
Stend kraftverk,,Eviny Fornybar,900 kW,hydro,run-of-the-river,Q12003069,60.26693,5.33118,Bergen Municipality,Vestland,Norway
Svartvasselva minikraftverk,,Unikraft,900 kW,hydro,run-of-the-river,Q20751490,65.52796,13.57345,Grane Municipality,Nordland,Norway
Tømmerdal kraftverk,,2003,900 kW,hydro,run-of-the-river,Q20113183,63.63637,10.57471,Indre Fosen Municipality,Nord-Trøndelag,Norway
Vallestadfossen kraftverk,,Vallestadfossen Kraft,900 kW,hydro,run-of-the-river,Q20750283,61.35897,6.21822,Sunnfjord Municipality,Vestland,Norway
Væla kraftverk,,Væla Kraft,900 kW,hydro,run-of-the-river,Q26256469,63.06102,11.54719,Tydal Municipality,Trøndelag,Norway
Indrebø kraftverk,,Nydalselva Kraft,880 kW,hydro,run-of-the-river,Q20112380,61.61532,6.46848,Sunnfjord Municipality,Vestland,Norway
Tvedestrand VGS,,Agder fylkeskommune,880 kW,solar,photovoltaic,,,,,,
Ryånda kraftverk,,Ryånda Kraftverk,850 kW,hydro,run-of-the-river,Q19387146,63.01471,9.74968,Orkland Municipality,Trøndelag,Norway
Hagaelva kraftverk,,,840 kW,hydro,run-of-the-river,Q17779720,63.30732,9.1351,Heim Municipality,Trøndelag,Norway
Undfossen kraftverk,,Salten Kraftsamband Produksjon,840 kW,hydro,run-of-the-river,Q26256484,67.47065,14.8008,Bodø Municipality,Nordland,Norway
Aarskog kraftverk,,Fitjar Kraftlag,830 kW,hydro,water-storage,Q25435116,59.93378,5.33813,Fitjar Municipality,Vestland,Norway
Tverråa kraftverk,,Tverråa Kraft,830 kW,hydro,run-of-the-river,Q28719646,64.16917,11.69874,Steinkjer Municipality,Trøndelag,Norway
Fagerdalen kraftverk,,,800 kW,hydro,run-of-the-river,Q17770455,60.78667,6.04165,Vaksdal Municipality,Vestland,Norway
Hakkstabben kraftverk,,Alta Kraftlag,800 kW,hydro,water-storage,Q17779760,70.28066,23.12948,Alta,Finnmark,Norway
Halvdagsåa kraftverk,,Halvdagsåa Kraft,800 kW,hydro,run-of-the-river,Q25425440,63.11308,11.38059,Selbu Municipality,Trøndelag,Norway
Sagfossen,,Skagerak Kraft AS,800 kW,hydro,run-of-the-river,Q20750736,59.28006,9.73181,Siljan Municipality,Telemark,Norway
Skagerak Arena,,Odd,800 kW,solar,photovoltaic,,,,,,
Vannebo kraftverk,,Chr Salvesen & Chr Thams's Communication,790 kW,hydro,water-storage,Q20113199,64.50314,11.79157,Overhalla Municipality,Trøndelag,Norway
Bergesli kraftverk,,Bergesli Kraftverk,780 kW,hydro,run-of-the-river,Q25435520,58.55367,6.96885,Kvinesdal Municipality,Agder,Norway
Svartevatn kraftverk,Svartevatn Power Station,Salten Kraftsamband Produksjon,760 kW,hydro,water-storage,Q26256486,67.10312,14.85292,Bodø Municipality,Nordland,Norway
Strandjordselva kraftverk,,Storforshei Naturkraft,750 kW,hydro,run-of-the-river,Q26256477,66.42288,14.76404,Rana Municipality,Nordland,Norway
Forsanvatn minikraftverk,,Nord-Salten Kraft,720 kW,hydro,water-storage,Q25434986,67.94543,15.67261,Steigen Municipality,Nordland,Norway
Hammerstrand kraftverk,,Småkraft,720 kW,hydro,water-storage,Q17782015,63.306813,10.165443,Skaun Municipality,Trøndelag,Norway
Tune Handelspark,,,720 kW,solar,photovoltaic,,,,,,
Birkås kraftverk,,Småkraft,710 kW,hydro,run-of-the-river,Q25425580,61.21209,5.6909,Høyanger Municipality,Vestland,Norway
Freim kraftverk,,Freim kraft,700 kW,hydro,run-of-the-river,Q19373110,60.070666666,6.555333333,Ullensvang Municipality,Vestland,Norway
Kjøljua kraftverk,,Hafslund Kraft,700 kW,hydro,water-storage,Q11981043,60.90868,10.06485,Nordre Land Municipality,Innlandet,Norway
Malmo kraftverk,,Malmo Elektrisitetsverk,700 kW,hydro,run-of-the-river,Q20750957,64.08844,11.2232,Verran Municipality,Nord-Trøndelag,Norway
Sirkelvann kraftverk,,Nordkraft Energidrift,700 kW,hydro,water-storage,Q11110823,68.4947,17.77437,Narvik,Narvik Municipality,Norway
Slettevann,,Løvenskiold Fossum Kraft,700 kW,hydro,run-of-the-river,,,,,,
Sætra kraftverk,,Lofotkraft Produksjon,700 kW,hydro,water-storage,Q25434931,68.26943,14.54069,Vågan Municipality,Nordland,Norway
Sørfjordkraft kraftverk,,Sørfjord Kraft,700 kW,hydro,water-storage,Q19391706,68.95718,17.56567,Dyrøy Municipality,Troms,Norway
Tørrbekken kraftverk,,Tørrbekken Production Øyvind Brattland,700 kW,hydro,run-of-the-river,Q26256481,66.4173,14.5299,Rana Municipality,Nordland,Norway
Čábardasjohka kraftverk,,Ymber produksjon,700 kW,hydro,run-of-the-river,Q19399609,69.07772,23.19431,Kautokeino Municipality,Finnmark,Norway
Økslandselv kraftverk,,Økslandselv Kraftverk,690 kW,hydro,run-of-the-river,Q19399281,61.264,5.83696,Sunnfjord Municipality,Vestland,Norway
Bring & Posten terminal Trondheim,,Posten Norge,684 kW,solar,photovoltaic,,,,,,
Sagelva kraftverk,,Sagelva Energi,650 kW,hydro,run-of-the-river,Q20112799,61.42494,5.94693,Sunnfjord Municipality,Vestland,Norway
Storrøvatnet kraftverk,,Røvassåga Kraftverk,650 kW,hydro,run-of-the-river,Q26256480,66.45883,14.33445,Rana Municipality,Nordland,Norway
TINE Meieriet Bergen,,TINE,650 kW,solar,photovoltaic,,,,,,
Torp IT,,Torp IT,644 kW,solar,photovoltaic,,,,,,
Breivikbotn kraftverk,,Hammerfest Energi,635 kW,hydro,water-storage,Q17750910,70.59463,22.29916,Hasvik Municipality,Finnmark,Norway
Byrkjedal kraftverk,,Byrkjedal kraftverk,630 kW,hydro,run-of-the-river,Q25434204,58.78108,6.32368,Gjesdal Municipality,Rogaland,Norway
Sagelva kraftverk,,Silje Stueflotten,630 kW,hydro,run-of-the-river,Q25439992,62.27641,8.12017,Lesja Municipality,Innlandet,Norway
Bjørgjo kraftverk,,,600 kW,hydro,run-of-the-river,Q24279329,59.645938888,5.830838888,Etne Municipality,Vestland,Norway
Lofoss kraftverk,,TrønderEnergi,600 kW,hydro,,,,,,,
Mofjellet kraftverk,,Statkraft,600 kW,hydro,run-of-the-river,Q20753981,66.30077,14.24836,Rana Municipality,Nordland,Norway
Sjølset kraftverk,,Sjølsetkraft,600 kW,hydro,run-of-the-river,Q25426169,62.68682,8.41566,Sunndal Municipality,Møre og Romsdal,Norway
Ugedal kraftverk,,Ugedal Energi,600 kW,hydro,run-of-the-river,Q20754016,63.97016,10.39044,Åfjord Municipality,Trøndelag,Norway
Varalden kraftverk,,Hafslund Kraft,570 kW,hydro,water-storage,Q12009006,60.14349,12.41516,Kongsvinger Municipality,Innlandet,Norway
Blålid kraftverk,,Blålid Kraft,560 kW,hydro,run-of-the-river,Q25433398,61.85722,5.37954,Bremanger Municipality,Vestland,Norway
Gåslonelva kraftverk,,Gåslunelva Kraftverk,560 kW,hydro,run-of-the-river,Q20754015,63.72447,10.23723,Indre Fosen Municipality,Sør-Trøndelag,Norway
Sagelva 1 kraftverk,,Kvannvatn Kraft,560 kW,hydro,run-of-the-river,Q26256478,66.42172,14.52822,Rana Municipality,Nordland,Norway
Måge karftverk,,Måge naturkraft,550 kW,hydro,run-of-the-river,Q19382146,60.2052,6.55999,Ullensvang Municipality,Vestland,Norway
ROAF Berger solpark,,ROAF,539 kW,solar,photovoltaic,,,,,,
Hindbergelva kraftverk,,Sørsida Kraft,530 kW,hydro,run-of-the-river,Q26256520,63.85328,10.81252,Mosvik Municipality,Nord-Trøndelag,Norway
Kvalvaag kraftverk,,Kvalvaag Vann og Kraft,530 kW,hydro,run-of-the-river,Q19378491,62.96251,7.97154,Gjemnes Municipality,Møre og Romsdal,Norway
Grovane kraftverk,,Grovane Kraftverk,500 kW,hydro,run-of-the-river,Q20112297,61.53641,6.48806,Sunnfjord Municipality,Vestland,Norway
Lundsæter Kraftverk,,,500 kW,hydro,water-storage,Q11987028,59.84481,5.47075,Stord Municipality,Vestland,Norway
Refsdal kraftverk,,Eviny Fornybar,500 kW,hydro,run-of-the-river,Q28720491,61.42128,5.93255,Sunnfjord Municipality,Vestland,Norway
Sildhopen kraftverk,,Nordlaks Smolt,500 kW,hydro,water-storage,Q26256493,67.69459,15.84,Sørfold Municipality,Nordland,Norway
Østli minikraftverk,,Østli Minikraft,500 kW,hydro,run-of-the-river,Q26256538,64.89207,13.16929,Namsskogan Municipality,Trøndelag,Norway
Øverdal kraftverk,,Øverdal Kraftverk,500 kW,hydro,run-of-the-river,Q26256510,64.17128,10.47667,Roan Municipality,Sør-Trøndelag,Norway
Kjeldåga minikraftverk,,Kjeldåga minikraftverk,470 kW,hydro,run-of-the-river,Q26256474,66.78382,14.60432,Beiarn Municipality,Nordland,Norway
Storelva kraftverk,,Nordkraft Magasin 2,470 kW,hydro,water-storage,Q28720432,68.9016,17.40585,Ibestad Municipality,Troms,Norway
Jordalen kraftverk,,Jordalen kraftlag,450 kW,hydro,run-of-the-river,Q25435127,60.88319,6.72242,Voss,Vestland,Norway
Leirosen kraftverk,,Lofotkraft Produksjon,450 kW,hydro,water-storage,Q25434925,68.23936,14.53256,Vågan Municipality,Nordland,Norway
Saupstad kraftverk,,Lofotkraft Produksjon,450 kW,hydro,water-storage,Q25434906,68.25476,13.65249,Vestvågøy Municipality,Nordland,Norway
Skulbørstadfoss kraftverk,,Småkraft,450 kW,hydro,water-storage,Q26256532,63.49583,10.95458,Stjørdal Municipality,Trøndelag,Norway
Verksfossen kraftverk,,,450 kW,hydro,run-of-the-river,Q19397802,60.12075,10.8265,Nittedal,Akershus,Norway
Sagelva 2 kraftverk,,Kvannvatn Kraft,440 kW,hydro,run-of-the-river,Q26256479,66.41839,14.52045,Rana Municipality,Nordland,Norway
Indreitselva kraftverk,,Indreitselva Minikraftverk,430 kW,hydro,run-of-the-river,Q25435231,63.04681,8.23519,Heim Municipality,Trøndelag,Norway
Skogelva kraftverk,,Skogelva Kraftverk,420 kW,hydro,run-of-the-river,Q28719645,64.17973,11.76866,Steinkjer Municipality,Trøndelag,Norway
Heimdal videregående skole,,Trøndelag fylkeskommune,414 kW,solar,photovoltaic,,,,,,
Norsk kylling Orkdal,,Norsk kylling,400 kW,solar,photovoltaic,,,,,,
Adamselv 2 kraftverk,,Grieg Seafood,400 kW,hydro,water-storage,Q28719638,70.41282,26.69774,Lebesby Municipality,Finnmark,Norway
Eftestøl kraftverk,,Ole Tom Eftestøl,400 kW,hydro,run-of-the-river,Q26256429,58.56692,7.0364,Kvinesdal Municipality,Agder,Norway
Eidsfossen kraftverk,,TrønderEnergi Kraft,400 kW,hydro,run-of-the-river,Q28720420,63.22946,9.03608,Heim Municipality,Trøndelag,Norway
Evebøfossen kraftverk,,Sogn og Fjordane Energi Produksjon,400 kW,hydro,run-of-the-river,Q17770254,61.7641,6.21074,Gloppen Municipality,Vestland,Norway
Øvre Åvella,,Vokks Kraft,400 kW,hydro,water-storage,Q12012024,60.78619,10.07524,Nordre Land Municipality,Innlandet,Norway
Karstad minikraftverk,,Karstad Minikraftverk,390 kW,hydro,run-of-the-river,Q26256438,61.40953,6.34676,Sunnfjord Municipality,Vestland,Norway
Skipelva kraftverk,,Skipelva Kraftverk,380 kW,hydro,run-of-the-river,Q26256508,64.27312,10.61385,Osen Municipality,Trøndelag,Norway
Orkdal folkehelsesenter,,Orkdal kommune,371 kW,solar,photovoltaic,,,,,,
Mulvik kraftverk,,Mulvik Kraft,360 kW,hydro,run-of-the-river,Q25435250,62.85472,8.43476,Sunndal Municipality,Møre og Romsdal,Norway
Løa kraftverk,,,350 kW,hydro,run-of-the-river,Q25434777,61.36966,11.38119,Åmot Municipality,Innlandet,Norway
Råfossen kraftverk,,Midt Energi,350 kW,hydro,run-of-the-river,Q26256502,62.86971,10.3728,Midtre Gauldal Municipality,Trøndelag,Norway
Simsfossen kraftverk,,TrønderEnergi Kraft,350 kW,hydro,water-storage,Q26256501,63.28471,10.0493,Skaun Municipality,Trøndelag,Norway
Sølbergfallet kraftverk,,Småkraft,350 kW,hydro,water-storage,Q19391603,63.28914,9.71701,Orkland Municipality,Trøndelag,Norway
Vada kraftverk,,Vadakraft,350 kW,hydro,water-storage,Q26256537,64.00256,11.17705,Verran Municipality,Nord-Trøndelag,Norway
Sagfossen kraftverk,,,347 kW,hydro,run-of-the-river,Q19387360,60.11961,10.8351,Nittedal,Akershus,Norway
Kildal minikraftverk,,Kildal kraft,340 kW,hydro,run-of-the-river,Q111371051,66.76747,13.66736,Meløy,Nordland,Norway
Herjåa kraftverk,,Herjåa Kraft,330 kW,hydro,run-of-the-river,Q26256503,62.93231,10.68293,Midtre Gauldal Municipality,Trøndelag,Norway
Kvernhuselva kraftverk,,Kvernhuselva Minikraftverk,320 kW,hydro,run-of-the-river,Q25426333,61.45644,5.31026,Askvoll Municipality,Vestland,Norway
Kvina kraftverk,,Mk Helgeland,320 kW,hydro,run-of-the-river,Q61080623,66.46666,13.1705,Lurøy Municipality,Nordland,Norway
Nunelva kraftverk,,TrønderEnergi Kraft,320 kW,hydro,run-of-the-river,Q26256495,64.01833,10.09542,Åfjord Municipality,Trøndelag,Norway
Bergelva kraftverk,,Bergelva Kraft,300 kW,hydro,run-of-the-river,Q28719710,62.56796,6.73184,Ålesund Municipality,Møre og Romsdal,Norway
Gjersvik minikraftverk,,Gjersvik Kraft,300 kW,hydro,water-storage,Q26256536,64.85851,13.40834,Røyrvik Municipality,Trøndelag,Norway
Oterbekken kraftverk,,,300 kW,hydro,run-of-the-river,Q26256487,66.33595,14.26945,Rana Municipality,Nordland,Norway
Tverrelva kraftverk,,Troms Kraft Produksjon,300 kW,hydro,water-storage,Q28718738,69.26822,18.17058,Senja Municipality,Troms,Norway
Ytteråa minikraftverk,,Ytteråa Kraftverk,300 kW,hydro,run-of-the-river,Q26256515,64.9207,12.35641,Høylandet Municipality,Trøndelag,Norway
Hegsetdammen kraftverk,,Statkraft,280 kW,hydro,run-of-the-river,Q26256498,63.1092988,11.3874766,Tydal Municipality,Trøndelag,Norway
Kalvåa kraftverk,,Kristian Stokke,280 kW,hydro,run-of-the-river,Q26256470,63.18168,11.18895,Selbu Municipality,Trøndelag,Norway
Kvernerud,,Kongsberg Energiselskap AS,280 kW,hydro,run-of-the-river,Q25431354,59.51233,9.82793,Kongsberg,Buskerud,Norway
Espeland kraftverk,,Espeland minikraftverk,270 kW,hydro,run-of-the-river,Q28720563,61.16629,5.41101,Hyllestad Municipality,Vestland,Norway
Neselva kraftverk,,Neselva Kraftverk,270 kW,hydro,run-of-the-river,Q28720400,61.41658,6.3443,Sunnfjord Municipality,Vestland,Norway
Heimerdalen kraftverk,,Lofotkraft Produksjon,250 kW,hydro,water-storage,Q25434908,68.29191,13.6705,Vestvågøy Municipality,Nordland,Norway
Hurunda kraftverk,,Hurunda Kraft,250 kW,hydro,run-of-the-river,Q26256504,62.88033,9.84136,Rennebu Municipality,Trøndelag,Norway
Nordfjordbekkan kraftverk,,Egil Hermann Johansen,250 kW,hydro,run-of-the-river,Q26256475,66.34434,13.46353,Rana Municipality,Nordland,Norway
Storcash Drammen,,,250 kW,solar,photovoltaic,,,,,,
Åvedal kraftverk,,,250 kW,hydro,run-of-the-river,Q25435497,58.36019,6.54368,Lund Municipality,Rogaland,Norway
Åsgårdselva kraftverk,,NEAS,230 kW,hydro,run-of-the-river,Q25435232,63.34415,8.85358,Aure Municipality,Møre og Romsdal,Norway
Rabb-bekken kraftverk,,Watts Up ?,225 kW,hydro,run-of-the-river,Q28718716,63.4659,11.46141,Stjørdal Municipality,Trøndelag,Norway
Hopsfossen kraftverk,,,220 kW,hydro,water-storage,Q11975812,60.32826,5.33932,Bergen Municipality,Vestland,Norway
Oksefjell kraftverk,,Oksekraft,210 kW,hydro,run-of-the-river,Q19384374,58.40988,6.92783,Kvinesdal Municipality,Agder,Norway
Unkervatn kraftverk,,Frikult AS,210 kW,hydro,water-storage,Q61080863,65.5368,14.16396,Hattfjelldal Municipality,Nordland,Norway
Berdal kraftverk,,Berdal og Møllslett Kraftlag,200 kW,hydro,run-of-the-river,Q26256494,,,,,
Vinjadalen kraftverk,,Oppheim kraft,200 kW,hydro,run-of-the-river,Q25435136,60.79089,6.54607,Voss,Vestland,Norway
Gunnar Jan Gjerland kraftverk,,,180 kW,hydro,run-of-the-river,Q28718677,61.42732,6.37603,Sunnfjord Municipality,Vestland,Norway
Oslo rådhus,,Oslo kommune,172 kW,solar,photovoltaic,,,,,,
Dyping kraftverk,,Cermaq Norway,150 kW,hydro,,Q28719643,67.91776,15.35268,Steigen Municipality,Nordland,Norway
Kvernhusfossen minikraftverk,,Kvernhusfoss Kraftverk,140 kW,hydro,run-of-the-river,,,,,,
Ingstad kraftverk,,Ingstad Kraft,132 kW,hydro,run-of-the-river,Q26256534,63.44957,11.19179,Stjørdal Municipality,Trøndelag,Norway
Baggfossen mikrokraftverk,,Baggfossen mikrokraft,130 kW,hydro,run-of-the-river,Q31079540,67.57907,15.88774,Sørfold Municipality,Nordland,Norway
Bjordøla kraftverk,,,130 kW,hydro,run-of-the-river,Q25434664,59.67827,8.56094,Hjartdal,Telemark,Norway
Hammeren,,Rana Kommune Tekniske Tjenester,130 kW,hydro,run-of-the-river,Q61080866,66.30614,14.21884,Rana Municipality,Nordland,Norway
Mandelid minikraftverk,,Gunnar Osland,130 kW,hydro,run-of-the-river,Q25434875,61.43534,5.31555,Askvoll Municipality,Vestland,Norway
Årteigelva kraftverk,,,130 kW,hydro,run-of-the-river,Q26256441,61.31697,6.03463,Sunnfjord Municipality,Vestland,Norway
Jordal amfi,,,124 kW,solar,photovoltaic,,,,,,
Blokken kraftverk,,Blokken Skipsverft,120 kW,hydro,water-storage,Q85619311,,,,,
Nordelva kraftverk,,,110 kW,hydro,run-of-the-river,Q28719636,69.62868,18.71649,Tromsø Municipality,Troms,Norway
Gravvold kraftverk,,Gravvold Kraft,100 kW,hydro,run-of-the-river,Q25435239,63.0559,8.71328,Surnadal Municipality,Møre og Romsdal,Norway
Kinnali 2 kraftverk,,Kinnali kraft,100 kW,hydro,run-of-the-river,Q61080284,60.36831,6.7494,Ullensvang Municipality,Vestland,Norway
Bessa minikraftverk,,,98 kW,hydro,run-of-the-river,Q25435212,61.51438,8.8485,Vågå,Innlandet,Norway
Bjørnebykverna kraftstasjon,,Solør Miljø Kraft AS,90 kW,hydro,run-of-the-river,Q25431557,60.61529,11.97724,Åsnes Municipality,Innlandet,Norway
Gangsbekken kraftverk,,Ørtfjell Kraft,90 kW,hydro,run-of-the-river,Q28719641,66.42195,14.49703,Rana Municipality,Nordland,Norway
Langsteinelva kraftverk,,,90 kW,hydro,run-of-the-river,Q26256531,,,,,
Søtvik mikrokraftverk,,Kolbjørn Søtvik,90 kW,hydro,run-of-the-river,Q26256514,63.75562,9.93787,Bjugn Municipality,Trøndelag,Norway
Tappstad mikrokraftverk,,,90 kW,hydro,run-of-the-river,Q26256485,67.20817,15.00019,Bodø Municipality,Nordland,Norway
Byaelva mikrokraftverk,,Byakraft,88 kW,hydro,run-of-the-river,Q26256526,63.6902,11.05626,Levanger Municipality,Trøndelag,Norway
Bele mikrokraftverk,,Bele Kraftverk,80 kW,hydro,run-of-the-river,Q25435235,63.01822,8.52951,Surnadal Municipality,Møre og Romsdal,Norway
Grove mikrokraftverk,,Vistekleiven DA,80 kW,hydro,run-of-the-river,Q25435205,61.8239463,8.9738355,Vågå,Innlandet,Norway
Skorovasselva minikraftverk,,Skorovasskraft,80 kW,hydro,run-of-the-river,Q26256517,64.63585,13.10498,Namsskogan Municipality,Trøndelag,Norway
Moskenes Fiskeindustri kraftverk,,Moskenes Fiskeindustri,75 kW,hydro,water-storage,Q28719647,67.8988,13.04639,Moskenes,Nordland,Norway
Bakkefossen kraftverk,,,70 kW,hydro,run-of-the-river,Q26256436,61.4253,6.37705,Sunnfjord Municipality,Vestland,Norway
Kinnali kraftverk,,Kinnali kraft,70 kW,hydro,run-of-the-river,Q61080283,60.3682,6.74901,Ullensvang Municipality,Vestland,Norway
Kvernhusbekken mikrokraftverk,,Grønnmyra,70 kW,hydro,run-of-the-river,Q26256522,64.13138,11.44323,Steinkjer Municipality,Trøndelag,Norway
Rødstøl kraftverk,,Torbjørn Rødstøl,70 kW,hydro,run-of-the-river,Q25435344,62.31262,8.09906,Rauma Municipality,Møre og Romsdal,Norway
Husefest mikrokraftverk,,Otto Ullevålseter,60 kW,hydro,run-of-the-river,Q26256454,61.69566,4.98585,Kinn Municipality,Vestland,Norway
Aspenes mikrokraftverk,,Aspenes Mikrokraft J.M. Aspenes,55 kW,hydro,run-of-the-river,Q28718689,60.28233,5.60955,Bjørnafjorden Municipality,Vestland,Norway
Kaldåni kraftverk,,Lars Måkestad,50 kW,hydro,run-of-the-river,,,,,,
Husbyelva mikrokraftverk,,Ernst Henry Nordvoll,40 kW,hydro,run-of-the-river,Q26256491,66.23501,12.78939,Nesna Municipality,Nordland,Norway
Mørnbekken mikrokraftverk,,,40 kW,hydro,run-of-the-river,Q26256490,65.4641,13.59416,Grane Municipality,Nordland,Norway
Otertjønnbekken mikrokraftverk,,Eivind Karlsen,40 kW,hydro,run-of-the-river,Q26256521,63.84796,10.77862,Mosvik Municipality,Nord-Trøndelag,Norway
Sæterstad mikrokraftverk,,Knut Kastnes,40 kW,hydro,run-of-the-river,Q59914224,65.798930555,14.234261111,Hattfjelldal Municipality,Nordland,Norway
Djupvika mikrokraftverk,,,38 kW,hydro,run-of-the-river,Q28719634,70.10159,23.3541,Alta,Finnmark,Norway
Breksillan mikrokraftverk,,Oddvar Kjelbotn,30 kW,hydro,run-of-the-river,Q26256516,64.6160848,11.4348659,Namsos kommune,Trøndelag,Norway
Hongset Røye mikrokraftverk,,Odd Jarle Hagen,25 kW,hydro,run-of-the-river,Q62571050,65.336261111,12.51935,Brønnøy Municipality,Nordland,Norway
Utistubekken mikrokraftverk,,,25 kW,hydro,run-of-the-river,Q26256518,63.5569,10.21568,Indre Fosen Municipality,Nord-Trøndelag,Norway
Brudalsbekken mikrokraftverk,,,22 kW,hydro,run-of-the-river,Q56405882,63.59716,9.93075,Indre Fosen Municipality,Trøndelag,Norway
Nystavnbekken mikrokraftverk,,,22 kW,hydro,run-of-the-river,Q26256528,63.63796,11.31069,Levanger Municipality,Trøndelag,Norway
Aurdal kraftverk,,,20 kW,hydro,run-of-the-river,Q56405152,59.56009,5.72254,Vindafjord Municipality,Rogaland,Norway
Bjøråa mikrokraftverk,,Nils Aun Okstad,20 kW,hydro,run-of-the-river,Q56405830,64.91006,12.38362,Høylandet Municipality,Trøndelag,Norway
Bæverfjord Gård kraftverk,,ukjent,20 kW,hydro,run-of-the-river,Q25435241,63.02365,8.61362,Surnadal Municipality,Møre og Romsdal,Norway
Kraftstasjonen,,Brunlanes Historielag,20 kW,hydro,run-of-the-river,Q28719520,59.01465,9.91181,Larvik,Vestfold,Norway
Mellomjord 2 mikrokraftverk,,,20 kW,hydro,run-of-the-river,Q59342004,69.41185,19.55064,Tromsø Municipality,Troms,Norway
Nedre Mollisjok mikrokraftverk,,Nedre Mollisjok fjellstue,20 kW,hydro,run-of-the-river,Q61082080,69.52196,24.38059,Karasjok Municipality,Finnmark,Norway
Aunbekken mikrokraftverk,,Inge Kvaal,18 kW,hydro,run-of-the-river,Q26256519,63.46775,11.48888,Stjørdal Municipality,Trøndelag,Norway
Strindmoelva mikrokraftverk,,,18 kW,hydro,run-of-the-river,Q26256523,64.1736,12.08843,Snåsa,Trøndelag,Norway
Blåsvagrova mikrokraftverk,,,16 kW,hydro,run-of-the-river,Q26256444,61.42154,6.42719,Sunnfjord Municipality,Vestland,Norway
Koabekken mikrokraftverk,,Aksel Støre,16 kW,hydro,run-of-the-river,Q26256524,63.84924,11.40593,Inderøy Municipality,Trøndelag,Norway
Øvre Mollisjok mikrokraftverk,,Mollisjok fjellstue,12 kW,hydro,run-of-the-river,Q61081066,69.56525,24.39373,Karasjok Municipality,Finnmark,Norway
Rørvikbekken mikrokraftverk,,,11 kW,hydro,run-of-the-river,Q26256500,,,,,
Bukkskinn mikrokraftverk,,,10 kW,hydro,run-of-the-river,Q59341992,69.356211111,18.108838888,Senja Municipality,Troms,Norway
Krutvatnet mikrokraftverk,,,10 kW,hydro,run-of-the-river,Q26256489,65.6932,14.32811,Hattfjelldal Municipality,Nordland,Norway
Middagsbukt mikrokraftverk,,,10 kW,hydro,run-of-the-river,,,,,,
Steinbekken mikrokraftverk,,,10 kW,hydro,run-of-the-river,Q26256488,66.32219,14.27578,Rana Municipality,Nordland,Norway
Hopla mikrokraftverk,,,10 kW,hydro,run-of-the-river,Q26256530,63.60295,10.95715,Levanger Municipality,Trøndelag,Norway
Uthusbekken mikrokraftverk,,,9 kW,hydro,run-of-the-river,Q61082043,63.18964,11.11515,Selbu Municipality,Trøndelag,Norway
Sørmeland mikrokraftverk,,,8 kW,hydro,run-of-the-river,Q26256509,64.28667,10.53132,Osen Municipality,Trøndelag,Norway
Vollselva mikrokraftverk,,,6 kW,hydro,run-of-the-river,Q26256533,63.49237,10.89431,Stjørdal Municipality,Trøndelag,Norway
Hårstadbekken mikrokraftverk,,,5 kW,hydro,run-of-the-river,Q61082037,63.99264,10.43487,Åfjord Municipality,Trøndelag,Norway
Ravnastua mikrokraftverk,,Ravnastua,5 kW,hydro,run-of-the-river,Q61082065,69.52531,24.95372,Karasjok Municipality,Finnmark,Norway
Holmbekken mikrokraftverk,,Birger Annar Florholmen,4 kW,hydro,run-of-the-river,Q76815343,63.45563,11.42807,Stjørdal Municipality,Trøndelag,Norway
Blikåsbekken mikrokraftverk,,,4 kW,hydro,run-of-the-river,Q56405884,63.51823,9.99511,Indre Fosen Municipality,Trøndelag,Norway
Kvennhusbekken mikrokraftverk,,,4 kW,hydro,run-of-the-river,Q76945726,63.4621617,11.3901197,Stjørdal Municipality,Trøndelag,Norway
Røssvika mikrokraftverk,,Tore Holmen,4 kW,hydro,run-of-the-river,,,,,,
Strand 1 mikrokraftverk,,,4 kW,hydro,run-of-the-river,Q25434675,59.60798,8.74659,Hjartdal,Telemark,Norway
Gjøvik energisentral,,Eidsiva Bioenergi,,biomass,,,,,,,
Lillemoen varmesentral,,Statkraft,,biomass,,,,,,,
MYKLEFOSS KRAFTVERK,,,,hydro,run-of-the-river,,,,,,
Moss fjernvarme,,Statkraft,,biomass,combustion,,,,,,
Nannestad varmesentral,,Statkraft,,biomass,combustion,,,,,,
Ulvik I kraftverk,,Hardanger Energi,,hydro,,Q19393834,60.56932,6.91493,Ulvik Municipality,Vestland,Norway
Vingersjøen fjernvarmesentral,,Eidsiva Bioenergi,,biomass,combustion,,,,,,
Ålmo kraftverk,,Ålmo Energi,,hydro,run-of-the-river,Q25435043,63.19142,8.41145,Aure Municipality,Møre og Romsdal,Norway
[unnamed],,Tussa Energi AS,,hydro,,Q17485299,62.26303,6.49918,Ørsta Municipality,Møre og Romsdal,Norway
[unnamed],,,,solar,photovoltaic,,,,,,
[unnamed],,Vardar AS,,solar,photovoltaic,,,,,,
[unnamed],,,,hydro,run-of-the-river,,,,,,
[unnamed],,,,biomass,combustion,,,,,,
[unnamed],,,,hydro,,,,,,,
[unnamed],,,,hydro,water-storage,,,,,,
[unnamed],,,,hydro,water-storage,,,,,,
