name,english_name,operator,power,source,method,wikidata_id,latitude,longitude,municipality,county,country
Harsprångets kraftverk,,Vattenfall,977 MW,hydro,,Q3127967,66.885833333,19.815833333,Jokkmokk Municipality,Norrbotten County,Sweden
Stornorrfors,,Vattenfall,599 MW,hydro,water-storage,Q3499873,63.8525,20.051667,Umeå Municipality,Västerbotten County,Sweden
Letsi kraftverk,,Vattenfall,486 MW,hydro,,Q10559896,,,,,
Porjus Kraftstation,,Vattenfall AB,481 MW,hydro,water-storage,Q2944573,66.96194444,19.80416667,Jokkmokk Municipality,Norrbotten County,Sweden
Markbygden vindkraftpark,Markbygden Wind Farm,,456 MW,wind,,Q12859023,65.41666667,20.66666667,Piteå Municipality,Norrbotten County,Sweden
Messaure kraftverk,,Vattenfall,446 MW,hydro,,Q2638665,66.68333333,20.33333333,Jokkmokk Municipality,Norrbotten County,Sweden
Ligga kraftverk,,Vattenfall,327 MW,hydro,,Q10561514,,,,,
Vietas Kraftstation,,Vattenfall,306 MW,hydro,water-storage,Q19979079,,,,,
Ritsem Kraftstation,,Vattenfall,304 MW,hydro,water-storage,,,,,,
Trängslet,,Fortum Generation AB,300 MW,hydro,water-storage,Q3375596,,,,,
Björkhöjden vindpark,,Statkraft,288 MW,wind,,,,,,,
Porsi Kraftstation,,Vattenfall,282 MW,hydro,,Q2012979,,,,,
Stor-Skälsjön vindkraftspark,,,260 MW,wind,,,,,,,
Åmot-Lingbo vindpark,,OX2,249 MW,wind,wind_turbine,,,,,,
Blaiken vindkraftpark,Blaiken wind farm,BlaikenVind Aktiebolag,248 MW,wind,wind_turbine,Q4923904,65.2846,17.1716,,,Sweden
Skaftåsen vindkraftpark,,,231 MW,wind,wind_turbine,,,,,,
Seitevare Kraftstation,,Vattenfall,225 MW,hydro,water-storage,Q2188732,66.97611111,18.57805556,Jokkmokk Municipality,Norrbotten County,Sweden
Harrsele Kraftverk,,Statkraft,223 MW,hydro,water-storage,Q56374523,,,,,
Olidans kraftverk,,Vattenfall AB,220 MW,hydro,,Q450818,58.27416667,12.27222222,Trollhättan Municipality,Västra Götaland County,Sweden
Lilla Edets kraftverk,,,210 MW,hydro,,,,,,,
Laxede kraftverk,,Vattenfall,207 MW,hydro,water-storage,Q1921812,66.22083,20.86083,Boden Municipality,Norrbotten County,Sweden
Jädraås vindpark,,,198 MW,wind,wind_turbine,,,,,,
Hjälta kraftverk,,Eon Sverige AB,178 MW,hydro,water-storage,Q11975546,63.1837,17.0968,Sollefteå Municipality,Västernorrland County,Sweden
Bergeforsens Krafverk,,,174 MW,hydro,,,,,,,
Hojums kraftverk,,Vattenfall AB,170 MW,hydro,,Q3565673,58.28,12.27833333,Trollhättan Municipality,Västra Götaland County,Sweden
Vargöns kraftverk,,Vattenfall,165 MW,hydro,run-of-the-river,Q57313384,,,,,
Midskog kraftverk,,Vattenfall,155 MW,hydro,,,,,,,
Akkats Kraftstation,,Vattenfall,150 MW,hydro,,Q10404022,66.63138889,19.81972222,Jokkmokk Municipality,Norrbotten County,Sweden
Lasele,,Vattenfall,150 MW,hydro,,,,,,,
Höljes kraftverk,Höljes Hydroelectric Power Station,Fortum,130 MW,hydro,run-of-the-river,Q11976478,60.9508,12.5472,,,Sweden
Älvkarleby kraftverket,,,125 MW,hydro,water-storage,Q8077057,60.5637,17.4421,Älvkarleby Municipality,Uppsala County,Sweden
Sörby Vindkraftspark,,,122 MW,wind,wind_turbine,,,,,,
Tönsen vindpark,,OX2,116 MW,wind,wind_turbine,,,,,,
Svartnäs vindkraftpark,,,115 MW,wind,wind_turbine,,,,,,
Järpströmmen,,,114 MW,hydro,,Q11979626,63.333333333,13.45,Åre Municipality,Jämtland County,Sweden
Vindkraftpark Målarberget,,,113 MW,wind,wind_turbine,,,,,,
Lillgrunds vindkraftpark,Lillgrund Wind Farm,Vattenfall,110 MW,wind,,Q3012042,55.516666666,12.783333333,Malmö Municipality,Skåne County,Sweden
Ögonfägnaden vindpark,,Statkraft,106 MW,wind,,,,,,,
Maevaara vindpark,,,105 MW,wind,wind_turbine,,,,,,
[unnamed],,Alight,100 MW,solar,photovoltaic,,,,,,
Havsnäs Vindkraftpark,Havsnäs Wind Farm,Nordisk Vindkraft,93 MW,wind,wind_turbine,Q17077578,64.0691,15.7126,,,Sweden
Bäckhammar vindkraftverk,,,92 MW,wind,wind_turbine,,,,,,
Glötesvålen,,Glötesvålen Vind AB,90 MW,wind,,,,,,,
Glötesvålens vindpark,,Glötesvålen Vind AB (IKEA),90 MW,wind,wind_turbine,,,,,,
Rödene vindpark,,Rödene Vindkraft AB,86 MW,wind,wind_turbine,,,,,,
Randi kraftstation,,Vattenfall,85 MW,hydro,,,,,,,
Hammarforsen,,Statkraft,80 MW,hydro,water-storage,Q56374428,63.113472222,16.355305555,,,Sweden
Stor-Rotliden Vindkraftpark,,Vattenfall,80 MW,wind,,,,,,,
Bodens Kraftstaton,,Vattenfall AB,78 MW,hydro,,Q19885732,65.807472222,21.672527777,Boden Municipality,Norrbotten County,Sweden
Mullbergs vindpark,,Mullbergs Vindpark AB,78 MW,wind,,,,,,,
Aldermyrberget,,,72 MW,wind,,,,,,,
Näverede kraftverk,,Vattenfall,70 MW,hydro,,Q56373385,63.221111,15.322028,,,Sweden
Sandviksverket,,,70 MW,geothermal,,Q10661272,56.8678,14.8372,Växjö Municipality,Kronoberg County,Sweden
Vindkraftsparken Riberget,,Fu-Gen,70 MW,wind,,,,,,,
Pengfors kraftverk,,Vattenfall,69 MW,hydro,,,,,,,
Högkölens vindpark,,,68 MW,wind,wind_turbine,,,,,,
Linvasselv kraftverk,,Fortum;NTE Energi,68 MW,hydro,water-storage,Q11984173,64.64836111,13.76119444,Lierne Municipality,Trøndelag,Norway
Krångfors,,Skellefteå Kraftaktiebolag,65 MW,hydro,,,,,,,
Selsfors,,Skellefteå Kraftaktiebolag,62 MW,hydro,,Q56374533,64.742305555,20.631222222,,,Sweden
Sollefteå kraftverk,,Sollefteåforsens AB,62 MW,hydro,water-storage,Q56374468,,,,,
Kvarnsvedens kraftstation,,Fortum Generation AB,61 MW,hydro,,Q10550929,60.52472222,15.42611111,Borlänge Municipality,Dalarna County,Sweden
Rätans kraftverk,,,60 MW,hydro,,Q17265783,62.489389,14.627333,,,Sweden
Stamåsen vindpark,,,60 MW,wind,,,,,,,
Kvarnsvedens kraftstation,,Fortum,58 MW,hydro,water-storage,Q10550929,60.52472222,15.42611111,Borlänge Municipality,Dalarna County,Sweden
Kattstrupeforsens kraftverk,,Jämtkraft,56 MW,hydro,,,,,,,
Västhamnsverket,,Öresundskraft,56 MW,biomass,combustion,,,,,,
Kymmens kraftverk,,Fortum,55 MW,hydro,water-pumped-storage,,,,,,
Häjsberget och södra Länsmansberget,,Tekniska verken i Linköping Vind,53 MW,wind,wind_turbine,,,,,,
Sättravallen vindkraftverk,,,53 MW,wind,wind_turbine,,,,,,
Långhags kraftverk,,Fortum Generation AB,52 MW,hydro,,Q81055350,,,,,
Töftedalsfjället,,,48.30 MW,wind,wind_turbine,,,,,,
Bullerforsens kraftstation,,Bullerforsens Kraft AB,47.00 MW,hydro,water-storage,Q10437660,60.50888889,15.43694444,Borlänge Municipality,Dalarna County,Sweden
Bullerforsens kraftstation,,Fortum Generation AB,47.00 MW,hydro,,Q10437660,60.50888889,15.43694444,Borlänge Municipality,Dalarna County,Sweden
Grimsås,,Grimsås Vindkraft AB,46.80 MW,wind,wind_turbine,,,,,,
Skutskär Mill power station,,,46.80 MW,biomass,,,,,,,
Forshuvudforsens kraftstation,,,44.00 MW,hydro,,Q10498128,60.53527778,15.42194444,Borlänge Municipality,Dalarna County,Sweden
Forshuvudforsens kraftverk,,,44.00 MW,hydro,,Q10498128,60.53527778,15.42194444,Borlänge Municipality,Dalarna County,Sweden
Lanforsen,,Fortum,44.00 MW,hydro,,,,,,,
Tolvmanstegen vindkraftpark,,Eolus Vind AB,44.00 MW,wind,,,,,,,
Hornamossen,,,43.00 MW,wind,wind_turbine,,,,,,
Bjurfors Övre kraftverk,,,42.00 MW,hydro,,,,,,,
Finnforsfallet,,Skellefteå Kraft,42.00 MW,hydro,run-of-the-river,Q56374530,64.790916666,20.336,,,Sweden
Gullspångs kraftverk,,Fortum,40.00 MW,hydro,run-of-the-river,,,,,,
Sikfors Kraftstation,,Skelleftekraft,40.00 MW,hydro,water-storage,,,,,,
Vindpark Riskebo,,,39.20 MW,wind,wind_turbine,,,,,,
Höge Väg Vindkraftpark,,,38.00 MW,wind,wind_turbine,,,,,,
Skedvi kraftstation,,Fortum Generation AB,38.00 MW,hydro,,Q81055797,60.3944,15.84704,,,Sweden
Örtoftaverket,,Kraftringen,38.00 MW,biomass,combustion,,,,,,
Svegs kraftverk,,,37.00 MW,hydro,,,,,,,
Vindkraftpark Enviksberget,,,36.90 MW,wind,wind_turbine,,,,,,
Hjuleberg Vindkraftpark,,Vattenfall Vindkraft AB,36.00 MW,wind,,Q131993226,56.966583333,12.769222222,Falkenberg Municipality,Halland County,Sweden
Lettens kraftverk,,Fortum,36.00 MW,hydro,water-pumped-storage,Q90812268,60.745373,12.786079,Torsby Municipality,Värmland County,Sweden
Spjutmo kraftverk,,Fortum Generation AB,35.00 MW,hydro,water-storage,Q81050096,61.08361,14.32278,Mora Municipality,Dalarna County,Sweden
Munkfors kraftverk,,,33.00 MW,hydro,run-of-the-river,Q96199028,59.847111111,13.538888888,Munkfors Municipality,Värmland County,Sweden
Orrberget vindpark,,OX2,33.00 MW,wind,wind_turbine,,,,,,
Vindpark Mombyåsen,,,33.00 MW,wind,wind_turbine,,,,,,
Alfta,,Voxnan Kraft AB,32.40 MW,hydro,run-of-the-river,,,,,,
Karsefors,,,31.40 MW,hydro,,,,,,,
Grytsjön,,Grytsjö Energi AB,30.00 MW,wind,wind_turbine,,,,,,
Junsterforsen,,,30.00 MW,hydro,,,,,,,
Storrun vindpark,Storrun wind farm,Storrun Vindkraft AB,30.00 MW,wind,wind_turbine,Q7620337,63.759,13.588,,,Sweden
Vindpark Hedbodberget,,,30.00 MW,wind,wind_turbine,,,,,,
Vindpark Vänern,,,30.00 MW,wind,wind_turbine,,,,,,
Vittjärvs Kraftstation,,Vattenfall,30.00 MW,hydro,,,,,,,
Juktan Vindkraftpark,,,29.00 MW,wind,,,,,,,
Långmarken,,Eolus Vind AB,26.40 MW,wind,wind_turbine,,,,,,
Hylte vattenkraftverk,,Statkraft Sverige AB,26.00 MW,hydro,,,,,,,
Hyltebruks kraftstation,,,26.00 MW,hydro,,,,,,,
Juktans kraftstation,,,26.00 MW,hydro,,Q18291062,65.2902,17.2301,,,Sweden
Avestaforsen,,Fortum,24.70 MW,hydro,water-storage,,,,,,
Dragaliden,,,24.00 MW,wind,,,,,,,
Granboforsen kraftverk,,Jämtkraft,24.00 MW,hydro,,,,,,,
Gråda kraftverk,,Fortum Generation AB,24.00 MW,hydro,,Q65194586,60.603888888,15.015,Gagnef Municipality,Dalarna County,Sweden
Halvfari,,,24.00 MW,hydro,run-of-the-river,,,,,,
Näs,,Vattenfall,24.00 MW,hydro,water-storage,,,,,,
Oxhult vindpark,,Arise Windfarm 1 AB,24.00 MW,wind,wind_turbine,,,,,,
Åsens kraftverk,,Fortum Generation AB,24.00 MW,hydro,water-storage,Q81045622,61.28249,13.76064,Älvdalen Municipality,Dalarna County,Sweden
Johannes kraftvärmeverk,,Gävle Energi,23.00 MW,biomass,,,,,,,
Kyrkberget,,Jämtkraft,23.00 MW,wind,wind_turbine,,,,,,
Rögle vindpark,,,22.80 MW,wind,wind_turbine,,,,,,
Bösjövarden,,,22.50 MW,wind,,,,,,,
Bösjövardens vindpark,,,22.50 MW,wind,wind_turbine,,,,,,
Fröslida,,Arise Windfarm 3 AB,22.50 MW,wind,wind_turbine,,,,,,
Uddared vindpark,,Uddared Energi Aktiebolag,22.50 MW,wind,wind_turbine,,,,,,
Avesta Lillforsen,,Fortum,22.00 MW,hydro,water-storage,,,,,,
Domnarvets kraftverk,,Fortum Generation AB,22.00 MW,hydro,,Q81054560,60.49546,15.45446,,,Sweden
Domnarvets kraftverk,,,22.00 MW,hydro,water-storage,Q81054560,60.49546,15.45446,,,Sweden
Gäddede kraftverk,,Statkraft;Holmen Energi,22.00 MW,hydro,water-storage,,,,,,
Mässingbergets vindpark,,,22.00 MW,wind,wind_turbine,,,,,,
Rämsbergets vindpark,,OX2,21.00 MW,wind,wind_turbine,,,,,,
Knäred vindpark,,RWE Renewables Sweden AB,20.00 MW,wind,wind_turbine,,,,,,
Söderfors,,Vattenfall,20.00 MW,hydro,water-storage,,,,,,
[unnamed],,,19.00 MW,solar,photovoltaic,,,,,,
Yngeredsfors kraftverk,,,18.80 MW,hydro,water-storage,,,,,,
Gunnarby,,,18.40 MW,wind,wind_turbine,,,,,,
Martin & Servera solpark,,Alight,18.00 MW,solar,photovoltaic,,,,,,
Örken,,RWE Renewables Sweden AB,18.00 MW,wind,wind_turbine,,,,,,
Kåphult Vindkraftpark,,Arise Windfarm 1 AB,17.50 MW,wind,wind_turbine,,,,,,
Rottnens kraftverk,,Fortum,17.00 MW,hydro,run-of-the-river,,,,,,
Röbergsfjällets vindpark,,,16.00 MW,wind,wind_turbine,,,,,,
Vindpark Säliträdberget,,,16.00 MW,wind,wind_turbine,,,,,,
Henja solpark,,Sunna Group,15.50 MW,solar,photovoltaic,,,,,,
Avesta Storforsen,,Fortum,15.00 MW,hydro,water-storage,Q11959776,,,,,
Blybergs kraftverk,,,15.00 MW,hydro,water-storage,Q81049473,,,,,
Traryd kraftverk,,,15.00 MW,hydro,,,,,,,
Väsa kraftverk,,Fortum Generation AB,15.00 MW,hydro,run-of-the-river,Q81046996,61.17433,14.09175,Älvdalen Municipality,Dalarna County,Sweden
Västraby vindpark,,,14.25 MW,wind,wind_turbine,,,,,,
Strängnäs Solpark,,,14.00 MW,solar,photovoltaic,,,,,,
Tommared,,,13.80 MW,wind,wind_turbine,,,,,,
Nättraby Solpark,,Alight,13.34 MW,solar,photovoltaic,,,,,,
Ryssbol,,Arise Windpower AB,13.20 MW,wind,wind_turbine,,,,,,
Slottsbol,,Slottsbol Drift AB,13.00 MW,wind,wind_turbine,,,,,,
Ätrafors kraftstation,,,13.00 MW,hydro,,,,,,,
Karåsens kraftstation,,Fortum,12.50 MW,hydro,run-of-the-river,,,,,,
Skogaby,,Statkraft Sverige AB,12.50 MW,hydro,,,,,,,
Jung-Åsa vindkraftverk,,Eolus Vind AB,12.00 MW,wind,wind_turbine,,,,,,
Solcellsparken i Linköping,,Alight,12.00 MW,solar,photovoltaic,Q99450361,,,,,
Tavelbergets vindpark,,,12.00 MW,wind,wind_turbine,,,,,,
Laholm vattenkraftverk,,Statkraft Sverige AB,11.30 MW,hydro,,,,,,,
Skåpanäs kraftstation,,,11.00 MW,hydro,water-storage,,,,,,
Nissaström kraftstation,,Statkraft Sverige AB,10.60 MW,hydro,,,,,,,
Kraftvärmeverket i Katrineholm,,Tekniska verken,10.00 MW,biomass,combustion,,,,,,
Porjus gamla kraftstation,,Vattenfall AB,10.00 MW,hydro,,,,,,,
Tåsans kraftverk,,Fortum,10.00 MW,hydro,water-pumped-storage,,,,,,
Vindpark Granberg,,Granberg Vind AB,10.00 MW,wind,wind_turbine,,,,,,
[unnamed],,Svea Solar,9.50 MW,solar,photovoltaic,,,,,,
Skogsforsens kraftverk,,Sydkraft Hydropower AB,9.30 MW,hydro,,,,,,,
Edsforsens kraftverk,,Fortum,9.00 MW,hydro,run-of-the-river,,,,,,
Bällforsen kraftstation,,,8.40 MW,hydro,run-of-the-river,,,,,,
Basebo vindkraftverk,,Eolus Vind AB,8.00 MW,wind,wind_turbine,,,,,,
Bassalt,,,8.00 MW,hydro,,,,,,,
Brattforsens kraftstation,,Fortum,8.00 MW,hydro,run-of-the-river,,,,,,
Knäreds övre kraftverk,,,7.50 MW,hydro,,,,,,,
[unnamed],,Åbro Bryggeri,7.50 MW,solar,photovoltaic,,,,,,
Nolato Solpark,Nolato solar park,Alight,7.20 MW,solar,photovoltaic,,,,,,
Skogaby,,Arise Windpower AB,7.20 MW,wind,wind_turbine,,,,,,
Nains kraftstation,,Fortum,7.00 MW,hydro,run-of-the-river,,,,,,
Ångabäck kraftverk,,,7.00 MW,hydro,,,,,,,
Forshaga kraftverk,,Fortum,6.60 MW,hydro,run-of-the-river,Q49101958,59.525996,13.4996203,Forshaga Municipality,Värmland County,Sweden
Hertings 1 kraftstation,,,6.60 MW,hydro,,,,,,,
Knäreds nedre kraftverk,,,6.60 MW,hydro,,,,,,,
Degerfors kraftverk,,Fortum,6.40 MW,hydro,run-of-the-river,,,,,,
Malta kraftverk,,Fortum,6.10 MW,hydro,run-of-the-river,,,,,,
Karstorp vindkraftverk,,,6.00 MW,wind,wind_turbine,,,,,,
Kilagården vindkraftverk,,Wallenstam Vindkraft Skuggetorp AB,6.00 MW,wind,wind_turbine,,,,,,
Knons kraftverk,,Fortum,6.00 MW,hydro,run-of-the-river,,,,,,
Lindvallens värmeverk,,,6.00 MW,biomass,combustion,,,,,,
Nyckeltorp vindkraftverk,,Eolus Vind AB,6.00 MW,wind,wind_turbine,,,,,,
Simatorp vindkraftverk,,,6.00 MW,wind,wind_turbine,,,,,,
Sunnerstaholm,,Fortum Generation AB,6.00 MW,hydro,water-storage,,,,,,
Torsebro kraftverk,,Uniper Sverige AB,6.00 MW,hydro,,,,,,,
Sparbanken Skånes Solcellspark,,,5.80 MW,solar,photovoltaic,Q64157273,55.619588,13.6767166,,,Sweden
Majenfors ny kraftverk,,,5.70 MW,hydro,,,,,,,
[unnamed],,,5.70 MW,hydro,water-storage,Q96758633,60.032696,13.687021,Hagfors Municipality,Värmland County,Sweden
Kvarnaholm kraftverk,,,5.50 MW,hydro,,,,,,,
Nya Solevi,,Göteborg Energi AB,5.50 MW,solar,photovoltaic,Q56301307,57.78,11.86,Gothenburg Municipality,Västra Götaland County,Sweden
Solinavium,,Göteborg Energi AB,5.50 MW,solar,photovoltaic,,,,,,
Haby kraftstation,,,5.28 MW,hydro,,,,,,,
Majenfors gamla kraftverk,,,4.80 MW,hydro,,,,,,,
Rålanda vindkraftverk,,,4.80 MW,wind,wind_turbine,,,,,,
Varberg Norra,,Solgrid,4.80 MW,solar,photovoltaic,,,,,,
Frykfors kraftverk,,Fortum,4.70 MW,hydro,run-of-the-river,,,,,,
Skeens Kraftverk,,Statkraft Sverige AB,4.60 MW,hydro,,,,,,,
Tängers kraftverk,,Fortum Generation AB,4.60 MW,hydro,,,,,,,
Nöbbelöv Kraftstationen,,Uniper Sverige AB,4.40 MW,hydro,,,,,,,
Vasakronan solcellspark,,Vattenfall,4.40 MW,solar,photovoltaic,,,,,,
[unnamed],,OKQ8/SunStreet Energy,4.30 MW,solar,photovoltaic,,,,,,
Bofors kraftverk,,Fortum,4.20 MW,hydro,,,,,,,
Maredsfors kraftstation,,,4.20 MW,hydro,,,,,,,
Älvestorp kraftverk,,Karlskoga Energi & Miljö AB,4.20 MW,hydro,,,,,,,
Skråmmens kraftstation,,Fortum,4.10 MW,hydro,run-of-the-river,,,,,,
ETC Solpark,,ETC Sol,4.00 MW,solar,photovoltaic,,,,,,
Lejdebergen vindkraftverk,,Bohusvind AB,4.00 MW,wind,wind_turbine,,,,,,
Solpunkten,,C4 Energi,4.00 MW,solar,photovoltaic,,,,,,
Tagelberg vindkraftverk,,Bixia Gryningsvind AB,4.00 MW,wind,wind_turbine,,,,,,
Broby Kraftstationen,,Uniper Sverige AB,3.80 MW,hydro,,,,,,,
Lofsåns Kraftverk,,Härjeåns Kraft AB,3.50 MW,hydro,water-storage,,,,,,
Hertings 2 kraftstation,,,3.30 MW,hydro,run-of-the-river,,,,,,
Sylsjø kraftverk,,Statkraft,3.30 MW,hydro,water-storage,,,,,,
Hedefors kraftverk,,Lerum Energy,3.10 MW,hydro,run-of-the-river,,,,,,
Forsby solpark,,Kraftringen,3.00 MW,solar,photovoltaic,,,,,,
Törneby Solpark,,Törneby driftförening,3.00 MW,solar,photovoltaic,,,,,,
Vindpark Byråsen,,Dala Vind AB,3.00 MW,wind,wind_turbine,,,,,,
Östersund Solpark,,Östersund Solpark ekonomisk förening (Jämtkraft),3.00 MW,solar,photovoltaic,,,,,,
Timsfors kraftstation,,,2.94 MW,hydro,,,,,,,
Kviens kraftverk,,Malungs Elverk AB,2.70 MW,hydro,,,,,,,
Lenninge,,Fortum Generation AB,2.70 MW,hydro,run-of-the-river,,,,,,
Solsidan,,Varberg Energi;Coop Varberg,2.70 MW,solar,photovoltaic,Q56301169,57.033169,12.382328,Varberg Municipality,Halland County,Sweden
Axelfors vattenkraftverk,,,2.57 MW,hydro,,,,,,,
Hulta kraftstation,,,2.57 MW,hydro,,Q132176862,57.467598499,12.612625303,Mark Municipality,Västra Götaland County,Sweden
Björkborns kraftverk,,Fortum,2.50 MW,hydro,run-of-the-river,,,,,,
Fröslida kraftstation,,,2.40 MW,hydro,,,,,,,
Karlskrona Solpark,,Affärsverken,2.40 MW,solar,photovoltaic,,,,,,
Björnåsens kraftverk,,Malungs Elverk AB,2.30 MW,hydro,,,,,,,
Brickan (Svegström),,,2.00 MW,wind,wind_turbine,,,,,,
Råda kraftverk,,Fortum,2.00 MW,hydro,run-of-the-river,,,,,,
Sperlingsholm kraftstation,,Sperlingsholms gods AB,2.00 MW,hydro,,,,,,,
Jonsereds Kraftverk,,,1.90 MW,hydro,,Q108981356,,,,,
Stjern kraftverk,,Fortum,1.90 MW,hydro,run-of-the-river,,,,,,
Vessige kraftstation,,Vessige Vattenkraft AB,1.90 MW,hydro,,,,,,,
Laggåsen,,Fortum Generation AB,1.80 MW,hydro,,Q96758949,,,,,
Ljungby kraftverk,,Ljungby Energi,1.80 MW,hydro,run-of-the-river,,,,,,
Sjuntorps kraftverk,,,1.80 MW,hydro,,,,,,,
Bränneberg vindkraftverk,,,1.70 MW,wind,wind_turbine,,,,,,
Säters värmeverk,,Hedemora Energi,1.70 MW,biomass,combustion,,,,,,
NÄLs solpark,,,1.63 MW,solar,photovoltaic,,,,,,
[unnamed],,E.ON,1.60 MW,solar,photovoltaic,,,,,,
Hanefors kraftstation,,Forsbacka Kraft AB,1.50 MW,hydro,run-of-the-river,,,,,,
Susegårdens Solpark,,E.ON,1.50 MW,solar,photovoltaic,,,,,,
Nyebro kraftstation,,,1.40 MW,hydro,,,,,,,
Frillesås solpark,,Frillesås solpark AB,1.20 MW,solar,photovoltaic,,,,,,
Slottsmöllan kraftstation,,,1.20 MW,hydro,,,,,,,
Oskarström övre kraftstation,,,1.10 MW,hydro,,,,,,,
Kungsfors kraftstation,,,1.06 MW,hydro,,,,,,,
Lofssjöns Kraftverk,,Härjeåns Kraft AB,1.06 MW,hydro,water-storage,,,,,,
Gustavsberg kraftstation,,,1.00 MW,hydro,,,,,,,
Gyllenfors kraftstation,,,1.00 MW,hydro,run-of-the-river,,,,,,
MegaSol,,Arvika Kraft,1.00 MW,solar,photovoltaic,Q18816594,59.6786,12.59154,Arvika Municipality,Värmland County,Sweden
Slitevind Eriksfält,,Slitevind AB,1.00 MW,wind,wind_turbine,,,,,,
Solparken,,Kraftpojkarna,1.00 MW,solar,photovoltaic,Q18332775,59.625277777,16.750833333,Västerås Municipality,Västmanland County,Sweden
[unnamed],,,1.00 MW,hydro,run-of-the-river,Q49097443,59.710778,16.211306,,,Sweden
[unnamed],,Småkraft,950 kW,hydro,run-of-the-river,,,,,,
Oskarström nedre kraftstation,,,800 kW,hydro,,,,,,,
Tranebergs kraftverk,,Fortum,800 kW,hydro,,,,,,,
Stalpet Vattenkraftverket,,Skånska Energi AB,780 kW,hydro,,,,,,,
Rydal kraftstation,,,680 kW,hydro,,,,,,,
Kinnaströms kraftstation,,,625 kW,hydro,run-of-the-river,,,,,,
Eggsjöns kraftverk,,Fortum,600 kW,hydro,water-storage,,,,,,
Fritsla kraftverk,,,600 kW,hydro,,,,,,,
Hörle Kraftstation,,Hörle Bruk AB,500 kW,hydro,water-storage,,,,,,
Kullagård kraftstation,,,450 kW,hydro,,,,,,,
Solhagen i Torphyttan,,Linde energi,450 kW,solar,photovoltaic,,,,,,
Ågesta gårds solcellspark,,,400 kW,solar,photovoltaic,,,,,,
Kollerö kraftstation,,Uddevalla Energi,370 kW,hydro,,,,,,,
Floda kraftverk,,Lerum Energi,360 kW,hydro,run-of-the-river,,,,,,
Kraftstationen Marbäck,,Sperlingsholms gods AB,350 kW,hydro,,,,,,,
Vattenkraftverket,,Skånska Energi AB,320 kW,hydro,,,,,,,
[unnamed],,Solel i Sala & Heby,312 kW,solar,photovoltaic,,,,,,
Ågården kraftstation,,,300 kW,hydro,,,,,,,
Bobergs kraftstation,,,275 kW,hydro,run-of-the-river,,,,,,
Norrstävle Gårds solpark,,,253 kW,solar,photovoltaic,,,,,,
Solevalla solcellspark,,Uddevalla Energi,253 kW,solar,photovoltaic,,,,,,
[unnamed],,,253 kW,solar,photovoltaic,,,,,,
Hulteby,,Privat,220 kW,hydro,,,,,,,
Mölneby Kraftverk,,Mölneby Gård,200 kW,hydro,run-of-the-river,,,,,,
Sembs mölla,,,200 kW,hydro,,,,,,,
Björbo,,Åkerströms Björbo AB,160 kW,hydro,,,,,,,
Hillefors kraftverk,,Erum Energi,160 kW,hydro,run-of-the-river,,,,,,
Berte Qvarn,,Bete Qvarn AB,150 kW,hydro,,,,,,,
Lomfors kraftverk,,Lomforskraft HB,140 kW,hydro,,,,,,,
[unnamed],,Solel i Sala & Heby,78 kW,solar,photovoltaic,,,,,,
Kinnareds kraftstation,,,75 kW,hydro,,,,,,,
Käppesjöns kraftverk,,,75 kW,hydro,,,,,,,
Jädersfors kraftverk,,,37 kW,hydro,,,,,,,
[unnamed],,Solel i Sala & Heby,36 kW,solar,photovoltaic,,,,,,
2284-V-018,,Vindin AB,,wind,wind_turbine,,,,,,
Aapua Vindpark,,,,wind,wind_turbine,,,,,,
Abelvattnets kraftverk,,,,hydro,water-storage,,,,,,
Alered,,ewz Atlantic Sverige AB,,wind,wind_turbine,Q131993402,56.919833333,12.824027777,Falkenberg Municipality,Halland County,Sweden
Allöverket,,,,biomass,,,,,,,
Anneberg,,Eolus Vind AB,,wind,wind_turbine,,,,,,
Annefors kvarn,,,,hydro,,,,,,,
Annelöv,,Eolus Vind AB,,wind,wind_turbine,,,,,,
Apelnäs kraftverk,,,,hydro,,,,,,,
Arvidstorp vind,,,,wind,wind_turbine,,,,,,
Askeberga,,Vindia AB,,wind,wind_turbine,,,,,,
Askomebjär,,Askome Vind AB,,wind,wind_turbine,Q131987382,57.013916666,12.704138888,Falkenberg Municipality,Halland County,Sweden
"Assjö 1, Ella",,Sverige Vindkraftkooperativ Ek för,,wind,wind_turbine,,,,,,
Assmebro Kraftstation,,,,hydro,,,,,,,
Assmebro kraftverk,,,,hydro,,,,,,,
Assmåsa,,Tre Vind AB,,wind,wind_turbine,,,,,,
Axelsvik 1,,Kalix Wind AB,,wind,wind_turbine,,,,,,
Badene,,Vindenergi i Badene AB,,wind,wind_turbine,,,,,,
Bast,,Älvsborgsvind AB (publ),,wind,wind_turbine,,,,,,
Bastusel kraftverk,,,,hydro,,,,,,,
Bergnäs,,,,hydro,,Q81066601,65.677530555,18.112930555,Arjeplog Municipality,Norrbotten County,Sweden
Bergvattnet,,,,hydro,water-storage,,,,,,
Bergvik,,,,hydro,water-storage,,,,,,
Bergvind Lingbo,,Åmot-Lingbo Vindkraft AB,,wind,wind_turbine,,,,,,
Betsele kraftstation,,,,hydro,,,,,,,
Betåsberget,,,,wind,wind_turbine,,,,,,
Bjurfors nedre,,,,hydro,,,,,,,
Bjäresjö,,Söderslätts Vind Investment AB,,wind,wind_turbine,,,,,,
Björka,,,,wind,wind_turbine,,,,,,
Björkvattnet,,Treblade Björkvattnet AB,,wind,wind_turbine,,,,,,
Björna kraftstation,,,,hydro,,,,,,,
Björnberget,,RES Renewable Norden AB,,wind,,,,,,,
Björnlandhöjden,,Nysäter Wind AB,,wind,wind_turbine,,,,,,
Björsdamms kraftstation,,,,hydro,,,,,,,
Blackfjället,,Stavro Vind Aktiebolag,,wind,wind_turbine,,,,,,
Blakliden Vindkraftpark,,Vattenfall Vindkraft AB,,wind,wind_turbine,,,,,,
Blakliden Vindkraftpark,,Vattenfall Vindkraft AB,,wind,wind_turbine,,,,,,
Blekhem,,Arise Windfarm 4 AB,,wind,wind_turbine,,,,,,
Bliekevare,,EnBW Sverige Vind AB,,wind,wind_turbine,,,,,,
Blikstorps kraftverk,,,,hydro,,,,,,,
Blixbol kraftstation,,,,hydro,water-storage,,,,,,
Blodrotberget,,Stavro Vind Aktiebolag,,wind,wind_turbine,,,,,,
Blyberg,,,,hydro,,Q81049473,,,,,
Bodum,,,,hydro,,,,,,,
Bohult,,Arise Windpower AB,,wind,wind_turbine,,,,,,
Bolstads-Prästgård 1,,Eolus Vind AB,,wind,wind_turbine,,,,,,
Bondegärde,,Bondegärde Vindpark AB,,wind,wind_turbine,,,,,,
Bondön,,,,wind,,,,,,,
Borgforsens kraftstation,,,,hydro,,,,,,,
Borgviks kraftstation,,,,hydro,run-of-the-river,,,,,,
Borgärdets Kraftverk,,,,hydro,,,,,,,
Bornforsen,,,,hydro,,,,,,,
Bosgårdens kraftverk,,,,hydro,,,,,,,
Bossgården (Galneryd),,ewz Atlantic Sverige AB,,wind,wind_turbine,,,,,,
Brahehus,,Brahehus Vind AB,,wind,wind_turbine,,,,,,
Brantafors kraftstation,,E.ON Vattenkraft,,hydro,run-of-the-river,,,,,,
Brasmaviken,,Brasvind AB,,wind,wind_turbine,,,,,,
Brattmyrliden - Lidenprojekten,,Brattmyrliden Vind AB,,wind,wind_turbine,,,,,,
Brattön,,Brattön Vind AB,,wind,wind_turbine,,,,,,
Bredstorp Solcellspark,,Tranås Energi AB,,solar,photovoltaic,,,,,,
Brista värmekraftverk,,Stockholm Exergi,,biomass,combustion,Q10435653,,,,,
Bro,,,,hydro,run-of-the-river,,,,,,
Brokvarns kraftstation,,,,hydro,run-of-the-river,,,,,,
Brostorp-Snogeröd,,,,wind,wind_turbine,,,,,,
Brotorp,,Arise Windpower AB,,wind,wind_turbine,,,,,,
Brunsmo Vindkraftpark,,Arise Windpower AB,,wind,wind_turbine,,,,,,
Brännlidens vindkraftspark,,,,wind,,,,,,,
"Bräntet, Solberg",,Solberg Vindkraft AB,,wind,wind_turbine,,,,,,
Bröcklingsberget 1,,FP Lux Wind Bröcklingberget AB,,wind,wind_turbine,,,,,,
Bröcklingsberget 2,,FP Lux Wind Bröcklingberget AB,,wind,wind_turbine,,,,,,
Brönneslöv,,Slitevind AB,,wind,wind_turbine,,,,,,
Brönnestad-Hönsinge,,Vindenergi Syd AB,,wind,wind_turbine,,,,,,
Bursnäs kraftstation,,,,hydro,,,,,,,
Byarforsen,,,,hydro,,,,,,,
Bygdens solhage,,Dala Energi,,solar,photovoltaic,,,,,,
Byråsen,,,,wind,wind_turbine,,,,,,
Bäckebo,,,,hydro,,,,,,,
Bågede kraftverk,,,,hydro,run-of-the-river,,,,,,
Bålforsens Kraftverk,,,,hydro,,,,,,,
Båtfors,,,,hydro,,,,,,,
Båthusströmmen,,,,hydro,water-storage,,,,,,
Bösjövarden,,OX2 AB,,wind,wind_turbine,,,,,,
Dabbsjö,,,,hydro,run-of-the-river,,,,,,
Dal,,Gamesa Energy Sweden AB,,wind,wind_turbine,,,,,,
Dala Järna kraftstation,,,,hydro,water-storage,,,,,,
Dalstuga kraftverk,,,,hydro,,,,,,,
Dammån,,,,hydro,run-of-the-river,,,,,,
Degerforsens Kraftverk,,,,hydro,,,,,,,
Digerberget 1.,,Wallenstam Energi AB,,wind,wind_turbine,,,,,,
Dragaliden,,,,wind,wind_turbine,,,,,,
Dönje,,,,hydro,water-storage,,,,,,
ENTORP / 5690-1,,Agrivind AB,,wind,wind_turbine,,,,,,
Edensforsens Kraftverk,,,,hydro,,,,,,,
Edsele,,,,hydro,,,,,,,
Edänge,,,,hydro,,,,,,,
Egby,,Egby Vindkraftverk AB,,wind,wind_turbine,,,,,,
Egby 2,,Universal Power AB,,wind,wind_turbine,,,,,,
Ekekullen Dintestorp,,,,wind,wind_turbine,,,,,,
Eldforsens kraftstation,,,,hydro,water-storage,,,,,,
Em,,,,wind,wind_turbine,,,,,,
Enviksberget,,Enviksbergets Vindpark AB,,wind,wind_turbine,,,,,,
Eolus Vind,,Hyringa Vind AB,,wind,wind_turbine,,,,,,
Erikshester,,Smålands Miljöenergi AB,,wind,wind_turbine,,,,,,
Erikstads-Björnebol,,Dalboslättens Vind AB,,wind,wind_turbine,,,,,,
Ersträsk,,Enercon GmbH,,wind,wind_turbine,,,,,,
Ersträsk,,,,wind,wind_turbine,,,,,,
Everöd Vindkraftpark,,,,wind,wind_turbine,,,,,,
Fanbyn,,Norrvinden Första Förvaltning AB,,wind,wind_turbine,,,,,,
Finnhyttan,,Dala Vind AB,,wind,wind_turbine,,,,,,
Fittjaverket,,Söderenergi,,biomass,combustion,Q125858238,,,,,
Fjelie-Laxmans Åkarp,,Västanby AB,,wind,wind_turbine,,,,,,
Fjälkinge,,Svinaberga Väderspänning AB,,wind,wind_turbine,,,,,,
Fjällberget,,Fjällberget Energi AB,,wind,wind_turbine,,,,,,
Fjällboheden vindpark,,Fjällboheden Vind AB,,wind,wind_turbine,,,,,,
Fjällsjö,,,,hydro,,,,,,,
Flåsjö kraftverk,,,,hydro,water-storage,,,,,,
Forsmo,,,,hydro,,,,,,,
Forsse,,,,hydro,,,,,,,
Fossumsberg kraftstation,,Uddevalla Energi,,hydro,,,,,,,
Fredriksdal,,,,wind,wind_turbine,,,,,,
Fridafors nedre kraftstation,,,,hydro,run-of-the-river,,,,,,
Fridafors övre kraftstation,,,,hydro,run-of-the-river,,,,,,
Fridene,,Carlssons Täckdikning AB,,wind,wind_turbine,,,,,,
Frotorp,,,,wind,wind_turbine,,,,,,
Fröreda,,Eolus Vind AB,,wind,wind_turbine,,,,,,
Furuby,,Furukraft AB,,wind,wind_turbine,,,,,,
Furudal,,,,hydro,run-of-the-river,,,,,,
Fäbodberget,,Vattenfall Vindkraft Sverige AB,,wind,wind_turbine,,,,,,
Fäbodberget Vindkraftpark,,,,wind,wind_turbine,,,,,,
Fäbodliden,,Fäbodliden Vindkraft AB,,wind,,,,,,,
Fågelbacka,,Dalboslättens Vind AB,,wind,wind_turbine,,,,,,
Fågelås-Torp,,,,wind,wind_turbine,,,,,,
Fåleberg,,,,wind,wind_turbine,,,,,,
Gabrielsberget,,,,wind,wind_turbine,,,,,,
Gammelänge kraftstation,,,,hydro,,,,,,,
Gardikfors kraftstation,,,,hydro,water-storage,,,,,,
Gejmåns kraftstation,,,,hydro,water-storage,,,,,,
"Getaryggen, Söderryd, Stora Björstorp",,ewz Atlantic Sverige AB,,wind,wind_turbine,,,,,,
Gettnabo 1,,Arise Windfarm 5 AB,,wind,wind_turbine,,,,,,
Gislöv,,Gislövs Vind AB,,wind,wind_turbine,,,,,,
Glava Energy Center,,,,solar,,,,,,,
Glimminge,,Glimminge Vindsamfällighetsförening,,wind,wind_turbine,,,,,,
Granberget 1,,,,wind,wind_turbine,,,,,,
Granberget 2,,,,wind,wind_turbine,,,,,,
Granfors,,,,hydro,,,,,,,
Graninge,,,,hydro,,,,,,,
Granö kraftverk,,Uniper Sverige AB,,hydro,run-of-the-river,,,,,,
Grinstads-Hagen 2 öst,,Slättens Vind ek för,,wind,wind_turbine,,,,,,
Groröd kraftstation,,Uddevalla Energi,,hydro,,,,,,,
Grundfors kraftstation,,,,hydro,,Q10509120,64.96206389,17.57798889,,,Sweden
Grytfors,,,,hydro,,,,,,,
Gräshult,,Vindia AB,,wind,wind_turbine,,,,,,
Gråda kraftverk,,,,hydro,,Q65194586,60.603888888,15.015,Gagnef Municipality,Dalarna County,Sweden
Grötlingbo Uddvide Domerarve,,,,wind,wind_turbine,,,,,,
Gubbseleforsen/Vilhelmina,,,,hydro,,,,,,,
Gulsele kraftverk,,,,hydro,,,,,,,
Gummaråsen,,Varberg Energi AB,,wind,wind_turbine,,,,,,
Gunillaberg,,Vindpark Gunillaberg AB,,wind,wind_turbine,,,,,,
Gunnarstorp,,Gunnarstorp Vind AB,,wind,wind_turbine,,,,,,
Gunnarstorp,,Lilla Årås Vindpark AB,,wind,wind_turbine,,,,,,
Gunnestorp,,Gunnestorps Miljö Energi AB,,wind,wind_turbine,,,,,,
Gunnön,,Karlshamn Energi Elförsäljning AB,,wind,wind_turbine,,,,,,
Gärds-Köpinge,,Eolus Vind AB,,wind,wind_turbine,,,,,,
Gärdshyttan,,,,wind,wind_turbine,,,,,,
Gärdslösa,,Eolus Vind AB,,wind,wind_turbine,,,,,,
Gävunda kraftstation,,,,hydro,,,,,,,
Gåxsjö-Raftsjöhöjden,,,,wind,wind_turbine,,,,,,
Götala 1,,Styra Vind AB,,wind,wind_turbine,,,,,,
Hablingbo Stjups Hablingbovind,,Hablingbovind ek för,,wind,wind_turbine,,,,,,
Hakarp,,Eolus Vind AB,,wind,wind_turbine,,,,,,
Hallhult,,,,wind,wind_turbine,,,,,,
Halmstadgården,,Halmstadgården Vindpark AB,,wind,wind_turbine,,,,,,
Handöl Nedre,,,,hydro,,,,,,,
Handöl Övre,,,,hydro,,,,,,,
Hannas,,Firma Ramström Vind AB,,wind,wind_turbine,,,,,,
Hansjö Kraftstation,,,,hydro,run-of-the-river,,,,,,
Haraholmen,,Marakallen Vindbruk AB,,wind,wind_turbine,,,,,,
Harrsjön,,,,wind,wind_turbine,,,,,,
Hedagården,,,,wind,wind_turbine,,,,,,
Hedeskoga Vindkraftpark,,,,wind,wind_turbine,,,,,,
Hellevadström 2 och 3,,Dingleskogen Vind AB,,wind,wind_turbine,,,,,,
Hennans kraftverk,,,,hydro,,,,,,,
Hermansboda kraftstation,,,,hydro,,,,,,,
Hissmofors kraftverk,,Jämtkraft,,hydro,,Q56373347,63.332138888,14.470722222,,,Sweden
Hog,,Spawer Kraft AB,,wind,wind_turbine,,,,,,
Holmen Timber Iggesunds Sågverk Power Station,,,,biomass,,,,,,,
Holms-Västbyn,,Svenska Vindbolaget AB,,wind,wind_turbine,,,,,,
Hornberget,,Jämtkraft AB,,wind,wind_turbine,,,,,,
Horrmund,,,,hydro,water-storage,,,,,,
Hoting,,,,hydro,,,,,,,
Hovby,,,,wind,wind_turbine,,,,,,
Huggelseke-Bessinge,,Östra Sallerup Vind AB,,wind,wind_turbine,,,,,,
Hultema,,VKS Vindkraft Sverige AB,,wind,wind_turbine,,,,,,
Humlekärr,,Lysekils Energi Vind AB,,wind,wind_turbine,,,,,,
Humlekärr,,Lärbro SPW AB,,wind,wind_turbine,,,,,,
Hummelforsens kraftstation,,,,hydro,water-storage,,,,,,
Hunflens Vindpark,,,,wind,wind_turbine,,,,,,
Hällby kraftstation,,,,hydro,,,,,,,
Hällforsens kraftstation,,,,hydro,,Q10531424,64.5851,18.6905,Lycksele Municipality,Västerbotten County,Sweden
Hällsjöns kraftstation,,VB-Energi,,hydro,run-of-the-river,,,,,,
Härjevad,,Eolus Vind AB,,wind,wind_turbine,,,,,,
Hässelbacka,,,,wind,wind_turbine,,,,,,
Hässlås Morups-Lunnagård,,,,wind,wind_turbine,,,,,,
Hässlås Morups-Lunnagård,,,,wind,wind_turbine,,,,,,
Hästkullen,,Nysäter Wind AB,,wind,,,,,,,
Högabjär,,Vattenfall Vindkraft AB,,wind,wind_turbine,,,,,,
Högaliden,,Högaliden Vindkraft AB,,wind,wind_turbine,,,,,,
Högberget,,,,wind,wind_turbine,,,,,,
Högberget,,,,wind,wind_turbine,,,,,,
Högfors,,,,hydro,,,,,,,
Högtjärnsklacks Vindpark,,,,wind,wind_turbine,,,,,,
Höljebro kraftverk,,,,hydro,water-storage,,,,,,
Hölleforsen,,Vattenfall,,hydro,,,,,,,
Idhult,,Arise Windpower AB,,wind,wind_turbine,,,,,,
Igelsta kraftvärmeverk,,Söderenergi,,biomass,combustion,Q125858115,59.17466,17.6675,,,Sweden
Igelstaverket,,Söderenergi,,biomass,combustion,Q125857985,59.17751,17.66436,,,Sweden
Iglasjön,,Eolus Vind AB,,wind,wind_turbine,,,,,,
"Ileberg 1, Tärnmåsen",,Orust Drift AB,,wind,wind_turbine,,,,,,
Ingelstadgården,,Ingelsta Gården AB,,wind,wind_turbine,,,,,,
Ingelsträde,,Öresundskraft AB,,wind,wind_turbine,,,,,,
Isgrannatorp,,Isgrannatorp Drift AB,,wind,wind_turbine,,,,,,
Ivarsfors kraftstation,,,,hydro,,,,,,,
Jenåsen,,Wind Farm Jenasen AB,,wind,,,,,,,
Johannisholm,,,,hydro,run-of-the-river,,,,,,
Jokkmokksliden,,Skellefteå Kraft AB,,wind,wind_turbine,,,,,,
Juvelns kraftverk,,,,hydro,water-storage,,,,,,
Juvelns kraftverk,,,,hydro,water-storage,,,,,,
Jämjö panncentral,,Affärsverken Karlskrona AB,,biomass,combustion,,,,,,
Järkvissle,,Vattenfall,,hydro,,,,,,,
Järmunderöd(Lilla Parken) 3 verk,,,,wind,wind_turbine,,,,,,
Järnvägsforsens kraftverk,,,,hydro,,,,,,,
Järnvägsforsens kraftverk,,,,hydro,,,,,,,
KARSTORP / 7044-3,,Wallenstam Vindkraft Skogaryd AB,,wind,wind_turbine,,,,,,
Kadesjö,,Kadevind AB,,wind,wind_turbine,,,,,,
Kaptensberget,,,,wind,wind_turbine,,,,,,
Kaptensberget,,Vingkraft Hakarp AB,,wind,wind_turbine,,,,,,
Karlsfors kraftstation,,,,hydro,run-of-the-river,,,,,,
Karlsfält,,Slättens Vind ek för,,wind,wind_turbine,,,,,,
Karlskoga Vattenkraft AB,,,,hydro,,,,,,,
Karsholm,,Karsholms Gods AB,,wind,wind_turbine,,,,,,
Karskruv,,Karskruv Vind AB,,wind,wind_turbine,,,,,,
Kastlösa södra,,,,wind,wind_turbine,,,,,,
Kiaby,,Akka Vind AB,,wind,wind_turbine,,,,,,
Kilforsen,,,,hydro,,,,,,,
Klevberget,,Klev Wind AB,,wind,,,,,,,
Klingerforsen,,,,hydro,,,,,,,
Klinte Vindpark,,Siral System & Co AB,,wind,wind_turbine,,,,,,
Klippens kraftstation,,,,hydro,water-storage,Q18291253,65.8883,14.9895,Storuman Municipality,Västerbotten County,Sweden
Klämman,,Klämman Vind AB,,wind,wind_turbine,,,,,,
Klågerup,,BayWa r.e. Scandinavia AB,,wind,wind_turbine,,,,,,
Knuts kulle,,Eolus Vind AB,,wind,wind_turbine,,,,,,
Kolsäter kraftstation,,,,hydro,run-of-the-river,,,,,,
Korpfjällets Vindpark,,,,wind,wind_turbine,,,,,,
Korsnäs,,Falu Energi & Vatten,,hydro,water-storage,,,,,,
Korsselbränna,,,,hydro,,,,,,,
Kraftverk Duved,,Jämtkraft AB,,hydro,water-storage,,,,,,
Kraftverk Ullspinneriet,,,,hydro,,,,,,,
Krokströmmen,,,,hydro,,,,,,,
Kronoberget,,,,wind,,,,,,,
Krontorp vindkraftverk,,,,wind,wind_turbine,,,,,,
Kräklingbo Vidfälle,,,,wind,wind_turbine,,,,,,
Kråktorpet Wind Farm,,Svenska Vindbolaget AB,,wind,,,,,,,
Krångede kraftverk,,,,hydro,,Q11982275,63.14663333,16.07033333,Ragunda Municipality,Jämtland County,Sweden
Kulle vindpark,,Siral System & Co AB,,wind,wind_turbine,,,,,,
Kullen,,,,wind,wind_turbine,,,,,,
Kulltorp,,Gnosjö Energi AB,,wind,wind_turbine,,,,,,
Kullö kraftverk,,,,hydro,,,,,,,
Kvarnfallet,,,,hydro,run-of-the-river,,,,,,
Kvarnforsens kraftverk,,,,hydro,water-storage,,,,,,
Kvilla 1,,Greenextreme AB,,wind,wind_turbine,,,,,,
Kvilla 2,,Greenextreme AB,,wind,wind_turbine,,,,,,
Kyrkberget,,Jämtkraft AB,,wind,wind_turbine,,,,,,
Källeberg,,,,wind,wind_turbine,,,,,,
Kärramölla kraftstation,,,,hydro,,,,,,,
Kärsås,,Vattenfall Vindkraft AB,,wind,wind_turbine,Q132037421,,,,,
Kårehamn Offshore Windfarm,,RWE Renewables Sweden AB,,wind,wind_turbine,,,,,,
Laforsens kraftstation,,,,hydro,,,,,,,
Lafssjö,,,,hydro,,,,,,,
Lagmansholms kraftverk,,,,hydro,,,,,,,
Landafors,,Fortum Generation AB,,hydro,,,,,,,
Larsbo,,Slitevind AB,,wind,wind_turbine,,,,,,
Lau Liffride Nr 1 & 2,,,,wind,wind_turbine,,,,,,
Laxåskogen,,VKS Vindkraft Sverige AB,,wind,wind_turbine,,,,,,
Ledinge kraftverk,,,,hydro,,,,,,,
Legeved,,Legeved Vind AB,,wind,wind_turbine,,,,,,
Lehtirova vindkraftpark,,Lehtirova Wind AB,,wind,wind_turbine,,,,,,
Lemnhult,,,,wind,,,,,,,
Lennartsfors kraftstation,,,,hydro,run-of-the-river,,,,,,
Lerkaka,,Eolus Vind AB,,wind,wind_turbine,,,,,,
Lia kraftverk,,,,hydro,,,,,,,
Lilla Askas solcellsanläggning,,,,solar,photovoltaic,,,,,,
Lillå kraftstation,,,,hydro,,,,,,,
Lima Kraftverk,,,,hydro,water-storage,,,,,,
Lindbyn,,,,hydro,,,,,,,
Lindärva,,Mossängens Vind AB,,wind,wind_turbine,,,,,,
Ljunga kraftverk,,,,hydro,,,,,,,
Ljungafors kraftstation,,,,hydro,,,,,,,
Ljusne strömmars kraftverk,,,,hydro,,,,,,,
Ljusnefors,,,,hydro,water-storage,,,,,,
Lottefors,,,,hydro,,,,,,,
Lugnviksverket,,Jämtkraft,,biomass,combustion,Q78847542,,,,,
Lummelunda Tjauls Agro 1,,Balingsta Vind HB,,wind,wind_turbine,,,,,,
Lundby Trädet,,Sverige Vindkraftkooperativ Ek för,,wind,wind_turbine,,,,,,
Lundåkra,,RWE Renewables Sweden AB,,wind,wind_turbine,,,,,,
Lyby,,,,wind,wind_turbine,,,,,,
Lyngbygård,,,,wind,wind_turbine,,,,,,
Lyngsåsa,,BayWa r.e. Scandinavia AB,,wind,wind_turbine,,,,,,
Lyrestad,,Lyrestad Vind AB,,wind,wind_turbine,,,,,,
Lyrestad II,,Lyrestad Vind AB,,wind,wind_turbine,,,,,,
Längjum,,Längjum Kraft AB,,wind,wind_turbine,,,,,,
Länsterhöjden,,SCA Energy AB,,wind,wind_turbine,,,,,,
Lärbro Nors Norrvange Nr 1 & 2,,Röcklingers Handelsträdgård AB,,wind,wind_turbine,,,,,,
Långbjörn Kraftverk,,,,hydro,water-storage,,,,,,
Långforsen,,,,hydro,,,,,,,
Långströmmen,,,,hydro,,,,,,,
Långåvålen,,Agrivind AB,,wind,wind_turbine,,,,,,
Långö kraftverk,,,,hydro,,,,,,,
Långöre,,Firma Ramström Vind AB,,wind,wind_turbine,,,,,,
Lönneborg,,Lönneborg Vind AB,,wind,wind_turbine,,,,,,
Lörby-Ysane,,,,wind,wind_turbine,,,,,,
Lövhöjden kraftverk,,,,hydro,water-storage,,,,,,
Lövstaviken,,Falkenberg Energi AB,,wind,wind_turbine,Q132035501,56.889149431,12.466107155,Falkenberg Municipality,Halland County,Sweden
Lövön,,,,hydro,,,,,,,
Lövöns gamla kraftstation,,,,hydro,,,,,,,
Maglarp vindkraftpark,,Söderslätts Vind Investment AB,,wind,wind_turbine,,,,,,
Malgomajs kraftverk,,,,hydro,,,,,,,
Marhult Vindpark,,Marhult Vind AB,,wind,wind_turbine,,,,,,
Mariedamm,,,,wind,wind_turbine,,,,,,
Markbygden Etapp 3,,,,wind,,,,,,,
"Markbygden vindkraftpark, etapp 2",,,,wind,wind_turbine,,,,,,
"Markbygden vindkraftpark, etapp 2",,Markbygden Vind AB,,wind,wind_turbine,,,,,,
"Markbygden vindkraftpark, etapp 2",,,,wind,wind_turbine,,,,,,
Matfors kraftverk,,,,hydro,,,,,,,
Mellböda,,Slitevind AB,,wind,wind_turbine,,,,,,
Middagsberget,,Middagsberget Vindkraft AB,,wind,wind_turbine,,,,,,
Milletorp,,Vrångens Kraft AB,,wind,wind_turbine,,,,,,
Moforsen,,,,hydro,,,,,,,
Moheda värmeverk,,Alvesta Energi,,biomass,combustion,,,,,,
Mortorp,,Firma Ramström Vind AB,,wind,wind_turbine,,,,,,
Moskogen,,Kalmar Energi,,biomass,combustion,,,,,,
Mostorp mölla,,,,hydro,,,,,,,
Mosås,,,,wind,wind_turbine,,,,,,
Mungseröd,,Mungseröds Vindpark AB,,wind,wind_turbine,,,,,,
Mungseröd/Gurseröd/Skaveröd,,,,wind,wind_turbine,,,,,,
Mungseröds Vindpark,,,,wind,wind_turbine,,,,,,
Munkedal vattenkraftverk,,,,hydro,,,,,,,
Munkflohögen,,Munkflohögen Vindkraft AB,,wind,wind_turbine,,,,,,
Mässingberget,,OX2 AB,,wind,wind_turbine,,,,,,
Målajord,,BayWa r.e. Scandinavia AB,,wind,wind_turbine,,,,,,
Målarberget,,Vindpark Målarberget i Norberg AB,,wind,wind_turbine,,,,,,
Mårtensklack,,Wallenstam Vindkraft Vettåsen AB,,wind,wind_turbine,,,,,,
Möckelsjöberget,,SR Energy AB,,wind,wind_turbine,,,,,,
Möllebacken,,Åraslövs Foder AB,,wind,wind_turbine,,,,,,
Mönarp,,SEBB Wind AB,,wind,wind_turbine,,,,,,
Mönsterås Bruk,,Statkraft Södra Vindkraft AB,,wind,wind_turbine,,,,,,
Mörsil,,,,hydro,run-of-the-river,,,,,,
Mörttjärnberget,,Statkraft SCA Vind AB,,wind,wind_turbine,,,,,,
Neanberg/VIK,,Neanberg Vind AB,,wind,wind_turbine,,,,,,
Nederede kraftstation,,,,hydro,,,,,,,
Norra Hunna,,Gamesa Energy Sweden AB,,wind,wind_turbine,,,,,,
Norränge,,,,hydro,,,,,,,
Nybro värmecentral,,Nybro Energi,,biomass,combustion,,,,,,
Nylandsbergen Wind Farm,,Eolus Vind AB,,wind,,,,,,,
Nämforsens kraftverk,,,,hydro,,Q10605054,63.440833333,16.881111111,Sollefteå Municipality,Västernorrland County,Sweden
Närefors 1 Norr,,Närvind AB,,wind,wind_turbine,,,,,,
Näs Amfunds Snaigsto,,Gotlandsvind AB,,wind,wind_turbine,,,,,,
Näsby/Överberg,,Örbacken Energi Handelsbolag,,wind,wind_turbine,,,,,,
Näsbyholm,,Universal Power AB,,wind,wind_turbine,,,,,,
Näsforsen,,,,hydro,run-of-the-river,,,,,,
Näsudden Wind farm,,,,wind,wind_turbine,,,,,,
Näsudden Öst,,Vattenfall,,wind,wind_turbine,,,,,,
Oberga,,Oberga Vind AB,,wind,wind_turbine,,,,,,
Odarslöv,,Lundaslättens Vindfabrik AB,,wind,wind_turbine,,,,,,
Odarslöv,,Kopparstaden AB,,wind,wind_turbine,,,,,,
Odenfors Kraftstation,,Tekniska verken,,hydro,run-of-the-river,,,,,,
Ohs bruk,,,,hydro,,,,,,,
Oldens kraftverk,,,,hydro,water-storage,,,,,,
Ollebacken etapp 1,,Ollebacken Energi AB,,wind,wind_turbine,,,,,,
Ollebacken etapp 2,,Ollebacken Energi AB,,wind,wind_turbine,,,,,,
Olofsfält,,Olofsfälts Vind AB,,wind,wind_turbine,,,,,,
Olstorp Vattenkraftsstation,,Tranås Energi AB,,hydro,run-of-the-river,,,,,,
Orrberget/Stensvedberget,,FORTE Nordic Wind AB,,wind,wind_turbine,,,,,,
Orreholmen,,Erikstorp Utveckling AB,,wind,wind_turbine,,,,,,
Orup,,,,wind,wind_turbine,,,,,,
Paljakoberget,,,,wind,wind_turbine,,,,,,
Panna 8,,Borlänge Energi,,biomass,combustion,,,,,,
Parki Kraftstation,,Vattenfall,,hydro,,,,,,,
Parteboda kraftverk,,,,hydro,water-storage,,,,,,
PeBo Naturbruk,,Pe Bo Naturbruk,,wind,wind_turbine,,,,,,
Prässebergens vindpark,,Prässeberg Vind AB,,wind,,,,,,,
Prästbolet,,Boda Nät ek. förening,,wind,wind_turbine,,,,,,
Påboda,,,,wind,wind_turbine,,,,,,
Qvantenburg 2,,,,wind,wind_turbine,,,,,,
Raftsjöhöjden syd,,Rabbalshede Kraft AB,,wind,wind_turbine,,,,,,
Rammeldalsberget,,OWN Power Projects AB,,wind,wind_turbine,,,,,,
Ramsele,,,,hydro,,,,,,,
Ramsnäs,,ewz Atlantic Sverige AB,,wind,wind_turbine,,,,,,
Ramsnäs,,ewz Atlantic Sverige AB,,wind,wind_turbine,,,,,,
Ramsåsa,,,,wind,wind_turbine,,,,,,
Rangeltorp,,Agrivind AB,,wind,wind_turbine,,,,,,
Rengårds kraftstation,,,,hydro,,,,,,,
Reslövsgården,,Nier Maskin AB,,wind,wind_turbine,,,,,,
Rinkaby,,Wallenstam Vindkraft Furulund AB,,wind,wind_turbine,,,,,,
Rockneby,,Eolus Vind AB,,wind,wind_turbine,,,,,,
Rodovålen,,,,wind,wind_turbine,,,,,,
Rusfors kraftstation,,,,hydro,,Q18332309,64.714,18.255,,,Sweden
Rute Furillen Slitevind XI & XII,,Slitevind AB,,wind,wind_turbine,,,,,,
Ruuthsbo-Kärragården,,Eolus Vind AB,,wind,wind_turbine,,,,,,
Ryd-Rönnerum,,Eolus Vind AB,,wind,wind_turbine,,,,,,
Rydboholms kraftverk,,,,hydro,,,,,,,
Rydsgård,,Rydsgårds Vind AB,,wind,wind_turbine,,,,,,
Ryningsnäs,,Visby Energi AB,,wind,wind_turbine,,,,,,
Räpplinge,,Eolus Vind AB,,wind,wind_turbine,,,,,,
Rätans kraftverk,,,,hydro,,Q17265783,62.489389,14.627333,,,Sweden
Råbelöv,,Råbelöfs fideikommiss AB,,wind,wind_turbine,,,,,,
Rågåkra,,Bjäre Kraft Energi AB,,wind,wind_turbine,,,,,,
Rålanda,,Wallenstam Vindkraft Rålanda AB,,wind,wind_turbine,,,,,,
Råmmarehemmet,,EnBW Sverige Vind AB,,wind,wind_turbine,,,,,,
Röbergsfjället,,EnBW Sverige Vind AB,,wind,wind_turbine,,,,,,
Röds kraftverk,,,,hydro,,,,,,,
Rönnerum,,Ryd-Rönnerm Drift AB,,wind,wind_turbine,,,,,,
Rönnöfors,,,,hydro,water-storage,,,,,,
SCA Östrand kraftverk,SCA Ostrand Pulp Mill Power Station,,,biomass,,,,,,,
Salsjön,,,,wind,,,,,,,
Salteå kraftverk,,,,hydro,,,,,,,
Sankt Anna kraftverk,,Uddevalla Energi,,hydro,,,,,,,
Sannersby,,,,wind,wind_turbine,,,,,,
Saxberget,,SR Energy AB,,wind,wind_turbine,,,,,,
Seskarö,,,,wind,wind_turbine,,,,,,
Sidensjö,,Sidensjö Vindkraft AB,,wind,wind_turbine,,,,,,
Sidensjö,,Sidensjö Vindkraft AB,,wind,wind_turbine,,,,,,
Sil,,,,hydro,,,,,,,
Silkomhöjden,,Eolus Vind AB,,wind,wind_turbine,,,,,,
Silkomhöjden,,,,wind,wind_turbine,,,,,,
Sillre kraftstation,,,,hydro,,,,,,,
Simris1,,,,wind,wind_turbine,,,,,,
Sippmikks kraftstation,,,,hydro,water-storage,,,,,,
Sjisjka Vindkraftspark,,Sjisjka Vind AB,,wind,wind_turbine,,,,,,
Skabersjö vindkraftpark,,RWE Renewables Sweden AB,,wind,wind_turbine,,,,,,
Skabersjö vindkraftpark,,RWE Renewables Sweden AB,,wind,wind_turbine,,,,,,
Skallböle kraftstation,,,,hydro,,,,,,,
Skalleberg och Dunabolet,,ewz Atlantic Sverige AB,,wind,wind_turbine,,,,,,
Skarhult,,Blåshult AB,,wind,wind_turbine,,,,,,
Skarhults nygård,,Universal Wind AB,,wind,wind_turbine,,,,,,
Skatofta,,Long Vindpark AB,,wind,wind_turbine,,,,,,
Skattungbyn,,,,hydro,,,,,,,
Skaveröd/Gurseröd,,Skaveröd Gurseröd Vind AB,,wind,wind_turbine,,,,,,
Skedvi Kraftverk,,,,hydro,,Q81055797,60.3944,15.84704,,,Sweden
Skifsforsens Kraftstation,,,,hydro,water-storage,,,,,,
Skogberget,,,,wind,wind_turbine,,,,,,
Skogsvind,,Luveryd Vindkraft AB,,wind,wind_turbine,,,,,,
Skutskär,,,,wind,wind_turbine,,,,,,
Skärbo,,Vindskontoret Skärbo AB,,wind,wind_turbine,,,,,,
Sköllunga,,Rabbalshede Kraft AB,,wind,wind_turbine,,,,,,
Skörstorp,,GSG Drift AB,,wind,wind_turbine,,,,,,
Slageryd,,POG International AB,,wind,wind_turbine,,,,,,
Slagnäs kraftstation,,,,hydro,,Q81135855,65.588338888,18.182019444,Arjeplog Municipality,Norrbotten County,Sweden
Slagsåns kraftstation,,,,hydro,run-of-the-river,,,,,,
Slitevind Rynge,,Slitevind AB,,wind,wind_turbine,,,,,,
Slättäng,,,,wind,wind_turbine,,,,,,
Smöjen vindpark 1 [Slitevind XX],,Slitevind AB,,wind,wind_turbine,,,,,,
Snarkil kraftstation,,,,hydro,run-of-the-river,,,,,,
Solvallen i Vässlingby,,,,solar,photovoltaic,,,,,,
Solvedens kraftstation,,,,hydro,run-of-the-river,,,,,,
Sotared,,Sotared Vindkraftpark AB,,wind,wind_turbine,Q132037132,57.006285069,12.453079779,Falkenberg Municipality,Halland County,Sweden
Spjutmo,,,,hydro,,,,,,,
Spjutåsberget,,Härnösand Energi och Miljö AB,,wind,wind_turbine,,,,,,
St Herrestad,,Von Görtz Vind AB,,wind,wind_turbine,,,,,,
Stadsforsen,,,,hydro,,,,,,,
Stalon,,,,hydro,,,,,,,
Stavhälla,,Prästlönetillgångar i Strängnäs Stift,,wind,wind_turbine,,,,,,
Stengårdsholma,,RWE Renewables Sweden AB,,wind,wind_turbine,,,,,,
Stenkulla,,Eolus Vind AB,,wind,wind_turbine,,,,,,
Stenkullafors kraftstation,,,,hydro,,,,,,,
Stensele kraftverk,,,,hydro,,,,,,,
Stensåsa,,Stenåsa Vindkraft AB,,wind,wind_turbine,,,,,,
Stentjärnåsen,,Stentjärnåsen Vindkraft AB,,wind,wind_turbine,,,,,,
Stigshöjden,,OX2 AB,,wind,wind_turbine,,,,,,
Stjups vindkraftpark,,,,wind,wind_turbine,,,,,,
Stoeryd Colcellspark,,Carpenter Co.,,solar,photovoltaic,,,,,,
Stor-Blåliden,,Storblåliden Vind AB,,wind,wind_turbine,,,,,,
Stor-Rotliden,,Vattenfall Vindkraft Sverige AB,,wind,wind_turbine,,,,,,
Stora Istad,,,,wind,wind_turbine,,,,,,
Stora Jordberga,,Arnold Towers Holding AB,,wind,wind_turbine,,,,,,
Storblåliden,,,,wind,wind_turbine,,,,,,
Storfinnforsen,,,,hydro,,,,,,,
Storflötten,,Turinge Energi AB,,wind,wind_turbine,,,,,,
Storhamrasjön,,,,hydro,,,,,,,
Storliden,,Skellefteå Kraft AB,,wind,wind_turbine,,,,,,
Stormon,,Stormon Energi AB,,wind,wind_turbine,,,,,,
Storrun,,Storrun Vindkraft AB,,wind,wind_turbine,,,,,,
Storugns vindpark,,,,wind,wind_turbine,,,,,,
Storåströmmens kraftverk,,,,hydro,,,,,,,
Storön,,GE Maskintjänst AB,,wind,wind_turbine,,,,,,
Strömbacka Kraftverk,,Streamgate North AB,,hydro,water-storage,,,,,,
Strömberget kraftverk,,Uddevalla Energi,,hydro,,,,,,,
Strömfors kraftverk,,,,hydro,,,,,,,
Stugun,,,,hydro,,,,,,,
Stämmemads kraftstation,,,,hydro,,,,,,,
Stångby,,Stångby Vind AB,,wind,wind_turbine,,,,,,
Sundborns kraftstation,Sundborn power station,,,hydro,water-storage,Q28933195,60.65108,15.77654,Falun Municipality,Dalarna County,Sweden
Svarteborgs-Skogen,,Dingleskogen Vind AB,,wind,wind_turbine,,,,,,
Svarthålsforsen,,,,hydro,,,,,,,
Svartnäs,,Svartnäs Vindkraft AB,,wind,wind_turbine,,,,,,
Svartåfors kraftstation,,Tekniska verken,,hydro,water-storage,,,,,,
Säby,,Blekinge Vindkraft Ekonomisk förening,,wind,wind_turbine,,,,,,
Sädva,,Skellefteå Kraftaktiebolag,,hydro,water-storage,Q80703789,66.4395,16.8337,Arjeplog Municipality,Norrbotten County,Sweden
Söbyn,,,,wind,wind_turbine,,,,,,
Söderbodane,,Älvsborgsvind AB (publ),,wind,wind_turbine,,,,,,
Södervidinge,,Ekovind AB,,wind,wind_turbine,,,,,,
Södra Cell Värö kraftverk,Södra Cell Värö Power Station,,,biomass,,,,,,,
Södra Kärra,,,,wind,wind_turbine,,,,,,
Sölve,,Karlshamn Energi Elförsäljning AB,,wind,wind_turbine,,,,,,
Sönnertorp,,,,wind,wind_turbine,,,,,,
Sötterfällan,,Eolus Vind AB,,wind,wind_turbine,,,,,,
Tapplarp,,Smålandsvind AB,,wind,wind_turbine,,,,,,
Tirup Hällstorp,,Mimer vind AB,,wind,wind_turbine,,,,,,
Topperyd 1 och 2,,Bixia Gryningsvind AB,,wind,wind_turbine,,,,,,
Torp kraftstation,,,,hydro,run-of-the-river,,,,,,
Torps kraftverk,,,,hydro,,,,,,,
Torpshammar,,,,hydro,,,,,,,
Torröns kraftverk,,,,hydro,water-storage,,,,,,
Torseröds Vindkraftpark 5,,Torseröds vindkraftpark,,wind,wind_turbine,,,,,,
Trollberget vindkraft,,,,wind,wind_turbine,,,,,,
Trolleberg,,Vindproduktion i Flackarp AB,,wind,wind_turbine,,,,,,
Trångfors,,,,hydro,water-storage,,,,,,
Tuggarpsgruppen,,Jönköping Energi AB,,wind,wind_turbine,,,,,,
Tuggens kraftstation,,,,hydro,,,,,,,
Tumleberg Norr,,Tumleberg Vindenergi AB,,wind,wind_turbine,,,,,,
Turinge,,,,hydro,,,,,,,
Tvärforsens Kraftverk,,Downing Hydro,,hydro,water-storage,,,,,,
Tvååker,,,,wind,wind_turbine,,,,,,
Tyskagården,,,,wind,wind_turbine,,,,,,
Tängelsbol,,,,wind,wind_turbine,,,,,,
Tängelsås,,,,wind,wind_turbine,,,,,,
Tåsjö,,,,hydro,,,,,,,
Ugsiåns kraftstation,,,,hydro,water-storage,,,,,,
Uljabuoda vindkraftspark,,,,wind,wind_turbine,,,,,,
Ullavi,,Kumbro Vind AB,,wind,wind_turbine,,,,,,
Ullervads kraftstation,,,,hydro,run-of-the-river,,,,,,
Umluspens kraftstation,,Vattenfall AB,,hydro,,,,,,,
Underbacken,,,,wind,wind_turbine,,,,,,
Unna Kraftstation,,,,hydro,,,,,,,
Untra,,Fortum,,hydro,,,,,,,
Upperudsälven,,Vattenfall,,hydro,water-storage,,,,,,
Uvbergets vindpark,,,,wind,wind_turbine,,,,,,
Uvereds Vindkraftförening,,Uvereds Vindkraftspark,,wind,wind_turbine,,,,,,
VIGLUNDA / 7307,,Driftbolaget Skånings Åsaka Vind AB,,wind,wind_turbine,,,,,,
Vallberga Gård Mölla,,,,wind,wind_turbine,,,,,,
Vallerstad Vind,,Vallerstad Vind AB,,wind,wind_turbine,,,,,,
Vallhaga,,,,hydro,run-of-the-river,,,,,,
Vallsås,,Fred Olsen Renewables AB,,wind,wind_turbine,,,,,,
Valterslund,,HB Valterslunds Vind,,wind,wind_turbine,,,,,,
Vannborga,,Kalmarsund Vind Ek. För.,,wind,wind_turbine,,,,,,
Vaplan,,,,hydro,,,,,,,
Vara Badene,,Erikstorp Utveckling AB,,wind,wind_turbine,,,,,,
Varsvik,,Varsvik AB,,wind,wind_turbine,,,,,,
Vassmolösa,,Vassmolösa Vind AB,,wind,wind_turbine,,,,,,
Vattenkraftverk,,,,hydro,run-of-the-river,,,,,,
Ventlinge,,Eolus Vind AB,,wind,wind_turbine,,,,,,
Vettåsen/Finnberget,,,,wind,wind_turbine,,,,,,
Viforsens kraftstation,,,,hydro,,,,,,,
Viksjöfors,,,,hydro,,,,,,,
Villköl,,RWE Renewables Sweden AB,,wind,wind_turbine,,,,,,
Vilseberga,,,,wind,wind_turbine,,,,,,
Vindil Kraft AB,,Vindil Kraft AB,,wind,wind_turbine,Q132034696,56.945143531,12.472684122,Falkenberg Municipality,Halland County,Sweden
Vindkraft Stjärnarp,,Arise Windpower AB,,wind,wind_turbine,,,,,,
Vindkraft Vårdkasen,,Härnösand Energi och Miljö AB,,wind,wind_turbine,,,,,,
Vindkraftanläggning Norrboda,,Slättens Vind ek för,,wind,wind_turbine,,,,,,
Vindkraftpark Högen,,Rabbalshede Kraft AB,,wind,wind_turbine,,,,,,
Vindkraftpark Mårtensklack,,,,wind,wind_turbine,,,,,,
Vindkraftpark Vettåsen,,,,wind,wind_turbine,,,,,,
Vindpark Brännåsen,,Samkraft Grännsjön AB,,wind,wind_turbine,,,,,,
Vindpark Ekeby,,Kumbro Vind AB,,wind,wind_turbine,,,,,,
Vindpark Fjällberget,,,,wind,wind_turbine,,,,,,
Vindpark Högberget,,,,wind,wind_turbine,,,,,,
Vindpark Högen,,Rabbalshede Kraft,,wind,wind_turbine,,,,,,
Vindpark Jädraås,,Jädraås Vindkraft AB,,wind,wind_turbine,,,,,,
Vindpark Ljungbyholm,,OX2 AB,,wind,wind_turbine,,,,,,
Vindpark Mombyåsen,,Mombyåsen Wind Farm AB,,wind,wind_turbine,,,,,,
Vindpark Mörkåsen,,Eolus Vind AB,,wind,wind_turbine,,,,,,
Vindpark Ränsliden,,Scanergy Dalsland AB,,wind,wind_turbine,,,,,,
Vindpark Saxberget,,,,wind,wind_turbine,,,,,,
Vindpark Svartvallsberget,,,,wind,wind_turbine,,,,,,
Vindpark Tågeröd,,Tanum Vindkraft AB,,wind,wind_turbine,,,,,,
Vindpark Vackerdalsberget,,Ownpower,,wind,wind_turbine,,,,,,
Vindpark Våsberget,,Våsberget Vindkraft AB,,wind,wind_turbine,,,,,,
Vindpark Älgkullen,,SR Energy,,wind,wind_turbine,,,,,,
Vindön,,Econergi AB,,wind,wind_turbine,,,,,,
Vinninge,,,,wind,wind_turbine,,,,,,
Virke,,,,wind,wind_turbine,,,,,,
Volgsjöfors,,,,hydro,,,,,,,
Vräkefors kraftverk,,,,hydro,,,,,,,
Väby,,Väby Driftintressenter AB,,wind,wind_turbine,Q131993143,56.964861111,12.754722222,Falkenberg Municipality,Halland County,Sweden
Vänervind,,Vänervind AB,,wind,wind_turbine,,,,,,
Värlinge gård,,Universal Wind AB,,wind,wind_turbine,,,,,,
Värmeshult kraftstation,,,,hydro,,,,,,,
Värmeverket,,Värnamo Energi,,biomass,,,,,,,
Värmevärden,,Adven,,biomass,combustion,,,,,,
Värpinge,,Kraftringen Produktion AB,,wind,wind_turbine,,,,,,
Värslen,,Firma Ramström Vind AB,,wind,wind_turbine,,,,,,
Väsa kraftstation,,,,hydro,,Q81046996,61.17433,14.09175,Älvdalen Municipality,Dalarna County,Sweden
Vässikoski,,,,hydro,,,,,,,
Västanby gård,,Västanby AB,,wind,wind_turbine,,,,,,
Västergården 1,,,,wind,wind_turbine,,,,,,
Västerkäl,,unknown,,wind,wind_turbine,,,,,,
Västra Derome,,Varberg Energi AB,,wind,wind_turbine,,,,,,
Västrabygård,,Västraby Vindpark AB,,wind,wind_turbine,,,,,,
Ytterberg,,Vindkraft i Ytterberg AB,,wind,wind_turbine,,,,,,
Zinkgruvan,,,,wind,wind_turbine,,,,,,
Äle,,,,wind,wind_turbine,,,,,,
"Ängalid III & Torsnäs, Torrlösa",,,,wind,wind_turbine,,,,,,
Äskekärr 1&2,,KråkVind AB,,wind,wind_turbine,,,,,,
Äsperöd,,Eolus Vind AB,,wind,wind_turbine,,,,,,
Äspinge-Klemedstorp,,Eolus Vind AB,,wind,wind_turbine,,,,,,
Åby,,,,hydro,,,,,,,
Åby-Alebo,,Åby Alebo Energi AB,,wind,wind_turbine,,,,,,
Åbyfors,,,,hydro,,,,,,,
Åkebo,,,,wind,wind_turbine,,,,,,
Ålgårda kraftverk,,,,hydro,run-of-the-river,,,,,,
Åliden - Lidenprojekten,,Åliden Vind AB,,wind,wind_turbine,,,,,,
Ålviken,,Jämtkraft,,hydro,water-storage,,,,,,
Åmliden,,Renvind AB,,wind,wind_turbine,,,,,,
Åmliden,,,,wind,wind_turbine,,,,,,
Åmliden 2,,Åmliden Vindkraft AB,,wind,wind_turbine,,,,,,
Åndberget,,Åndberg Vind AB,,wind,wind_turbine,,,,,,
Ånge värmeverk,,Ånge Energi AB,,biomass,combustion,,,,,,
Ånglarna Vindkraftpark,,OX2,,wind,wind_turbine,,,,,,
Årjäng NV,,Årjäng Nordväst Vind AB,,wind,wind_turbine,,,,,,
Årjäng SV,,Årjäng Sydväst Vind AB,,wind,wind_turbine,,,,,,
Ås,,,,wind,wind_turbine,,,,,,
Åsebro kraftstation,,,,hydro,run-of-the-river,,,,,,
Åsele kraftstation,,,,hydro,,,,,,,
Åsen,,Eolus Vind AB,,wind,wind_turbine,,,,,,
Åskälen,,Åskälen Vindkraft AB,,wind,wind_turbine,,,,,,
Åtorps kraftverk,,Fortum,,hydro,,,,,,,
Ödegärdes kraftverk,,,,hydro,,,,,,,
Öjeforsens kraftverk,,,,hydro,,,,,,,
Önafors Värmeverk,,Vattenfall,,biomass,,,,,,,
Örbacken,,,,wind,wind_turbine,,,,,,
Öringe,,RWE Renewables Sweden AB,,wind,wind_turbine,,,,,,
Örja,,RWE Renewables Sweden AB,,wind,wind_turbine,,,,,,
Össjö Skog,,,,wind,wind_turbine,,,,,,
Österforsen,,,,hydro,,,,,,,
Österhultsmåla,,OX2 AB,,wind,wind_turbine,,,,,,
Österåsen,,Åskälen Vindkraft AB,,wind,wind_turbine,,,,,,
Östra Herrestad Vindkraftpark,,Rabbalshede Vind AB,,wind,wind_turbine,,,,,,
[unnamed],,,,hydro,,,,,,,
[unnamed],Hässelby Power Plant,,,biomass,,,,,,,
[unnamed],,,,hydro,,,,,,,
[unnamed],,,,hydro,,,,,,,
[unnamed],,,,hydro,,,,,,,
[unnamed],,Vaggeryds kommun,,biomass,combustion,,,,,,
[unnamed],,,,hydro,,,,,,,
[unnamed],,,,wind,wind_turbine,,,,,,
[unnamed],,,,solar,photovoltaic,,,,,,
[unnamed],,,,hydro,,,,,,,
[unnamed],,,,wind,wind_turbine,,,,,,
[unnamed],,,,wind,wind_turbine,,,,,,
[unnamed],,,,solar,thermal,,,,,,
[unnamed],,Kungälv Energi,,solar,photovoltaic,,,,,,
[unnamed],,,,hydro,,,,,,,
[unnamed],,,,solar,photovoltaic,,,,,,
[unnamed],,,,solar,thermal,,,,,,
[unnamed],,,,hydro,run-of-the-river,,,,,,
[unnamed],,IT-Gården,,solar,photovoltaic,,,,,,
[unnamed],,Skellefteå Kraft,,hydro,run-of-the-river,,,,,,
[unnamed],,,,solar,photovoltaic,,,,,,
[unnamed],,,,wind,,,,,,,
[unnamed],,,,hydro,run-of-the-river,,,,,,
[unnamed],,,,solar,,,,,,,
[unnamed],,,,hydro,water-storage,,,,,,
[unnamed],,,,solar,photovoltaic,,,,,,
[unnamed],,Råda Energi,,biomass,combustion,,,,,,
[unnamed],,,,solar,photovoltaic,,,,,,
[unnamed],,,,hydro,water-storage,,,,,,
[unnamed],,Solör Bioenergi Fjärrvärme AB,,biomass,combustion,,,,,,
[unnamed],,,,hydro,,,,,,,
[unnamed],,,,solar,,,,,,,
[unnamed],,,,solar,photovoltaic,,,,,,
[unnamed],,,,hydro,water-storage,,,,,,
[unnamed],,,,solar,photovoltaic,,,,,,
[unnamed],,,,solar,,,,,,,
[unnamed],,,,hydro,water-storage,,,,,,
[unnamed],,,,solar,photovoltaic,,,,,,
[unnamed],,,,hydro,,,,,,,
[unnamed],,,,hydro,water-storage,,,,,,
[unnamed],,,,solar,photovoltaic,,,,,,
[unnamed],,,,solar,photovoltaic,,,,,,
[unnamed],,,,hydro,,,,,,,
[unnamed],,,,hydro,water-storage,,,,,,
[unnamed],,,,solar,photovoltaic,,,,,,
[unnamed],,,,solar,photovoltaic,,,,,,
[unnamed],,,,solar,photovoltaic,,,,,,
[unnamed],,,,solar,photovoltaic,,,,,,
[unnamed],,,,hydro,,,,,,,
[unnamed],,,,wind,wind_turbine,,,,,,
[unnamed],,Adven Siljan AB,,biomass,combustion,,,,,,
[unnamed],,,,solar,thermal,,,,,,
[unnamed],,OWN Power Projects AB,,wind,wind_turbine,,,,,,
[unnamed],,Sala-Heby Energi,,biomass,combustion,,,,,,
[unnamed],,,,solar,photovoltaic,,,,,,
[unnamed],,HEM,,solar,photovoltaic,,,,,,
[unnamed],,,,hydro,water-storage,,,,,,
[unnamed],,,,wind,,,,,,,
[unnamed],,,,hydro,water-storage,,,,,,
[unnamed],,,,hydro,,,,,,,
[unnamed],,,,hydro,water-storage,,,,,,
[unnamed],,,,hydro,,,,,,,
[unnamed],,,,solar,thermal,,,,,,
[unnamed],,,,solar,photovoltaic,,,,,,
[unnamed],,,,solar,photovoltaic,,,,,,
[unnamed],,,,hydro,run-of-the-river,,,,,,
[unnamed],,,,hydro,,,,,,,
[unnamed],,,,solar,photovoltaic,,,,,,
[unnamed],,,,solar,photovoltaic,,,,,,
[unnamed],,,,hydro,,,,,,,
[unnamed],,,,solar,photovoltaic,,,,,,
[unnamed],,Dala Energi,,solar,photovoltaic,,,,,,
[unnamed],,,,solar,photovoltaic,,,,,,
[unnamed],,,,solar,photovoltaic,,,,,,
[unnamed],,,,solar,photovoltaic,,,,,,
[unnamed],,,,solar,photovoltaic,,,,,,
[unnamed],,,,solar,photovoltaic,,,,,,
[unnamed],,,,solar,photovoltaic,,,,,,
[unnamed],,,,solar,photovoltaic,,,,,,
[unnamed],,,,solar,photovoltaic,,,,,,
[unnamed],,,,solar,photovoltaic,,,,,,
[unnamed],,,,solar,photovoltaic,,,,,,
[unnamed],,,,solar,photovoltaic,,,,,,
[unnamed],,,,solar,photovoltaic,,,,,,
[unnamed],,,,solar,photovoltaic,,,,,,
[unnamed],,,,solar,photovoltaic,,,,,,
[unnamed],,,,solar,photovoltaic,,,,,,
[unnamed],,,,solar,photovoltaic,,,,,,
[unnamed],,,,solar,photovoltaic,,,,,,
[unnamed],,,,solar,photovoltaic,,,,,,
[unnamed],,,,solar,photovoltaic,,,,,,
[unnamed],,,,solar,photovoltaic,,,,,,
[unnamed],,,,solar,photovoltaic,,,,,,
[unnamed],,,,solar,photovoltaic,,,,,,
[unnamed],,,,solar,photovoltaic,,,,,,
[unnamed],,,,solar,photovoltaic,,,,,,
[unnamed],,,,solar,photovoltaic,,,,,,
[unnamed],,,,solar,photovoltaic,,,,,,
[unnamed],,,,solar,photovoltaic,,,,,,
[unnamed],,,,solar,photovoltaic,,,,,,
[unnamed],,,,solar,photovoltaic,,,,,,
[unnamed],,,,solar,photovoltaic,,,,,,
[unnamed],,,,solar,photovoltaic,,,,,,
[unnamed],,,,solar,photovoltaic,,,,,,
[unnamed],,,,solar,photovoltaic,,,,,,
[unnamed],,,,solar,photovoltaic,,,,,,
[unnamed],,,,solar,photovoltaic,,,,,,
[unnamed],,,,solar,photovoltaic,,,,,,
[unnamed],,,,solar,photovoltaic,,,,,,
[unnamed],,,,solar,photovoltaic,,,,,,
[unnamed],,,,solar,photovoltaic,,,,,,
[unnamed],,,,solar,photovoltaic,,,,,,
[unnamed],,,,solar,photovoltaic,,,,,,
[unnamed],,,,solar,photovoltaic,,,,,,
[unnamed],,,,solar,photovoltaic,,,,,,
[unnamed],,,,solar,photovoltaic,,,,,,
[unnamed],,,,solar,photovoltaic,,,,,,
[unnamed],,,,solar,photovoltaic,,,,,,
[unnamed],,,,solar,photovoltaic,,,,,,
[unnamed],,,,solar,photovoltaic,,,,,,
[unnamed],,,,solar,photovoltaic,,,,,,
[unnamed],,,,solar,photovoltaic,,,,,,
[unnamed],,,,solar,photovoltaic,,,,,,
[unnamed],,,,solar,photovoltaic,,,,,,
[unnamed],,,,solar,photovoltaic,,,,,,
[unnamed],,,,solar,photovoltaic,,,,,,
[unnamed],,,,solar,photovoltaic,,,,,,
[unnamed],,,,solar,photovoltaic,,,,,,
[unnamed],,,,solar,photovoltaic,,,,,,
[unnamed],,,,solar,photovoltaic,,,,,,
[unnamed],,,,solar,photovoltaic,,,,,,
[unnamed],,Adven,,biomass,combustion,,,,,,
[unnamed],,Adven,,biomass,combustion,,,,,,
[unnamed],,,,solar,photovoltaic,,,,,,
[unnamed],,,,hydro,,,,,,,
[unnamed],,,,solar,photovoltaic,,,,,,
[unnamed],,,,solar,,,,,,,
[unnamed],,,,hydro,,,,,,,
[unnamed],,,,hydro,,,,,,,
[unnamed],,,,solar,,,,,,,
[unnamed],,,,solar,,,,,,,
[unnamed],,,,solar,photovoltaic,,,,,,
[unnamed],,,,hydro,,,,,,,
[unnamed],,,,hydro,,,,,,,
[unnamed],Nötåsen wind farm,,,wind,,,,,,,
[unnamed],,,,hydro,,,,,,,
[unnamed],,,,solar,photovoltaic,,,,,,
[unnamed],,,,solar,photovoltaic,,,,,,
[unnamed],,,,solar,photovoltaic,,,,,,
[unnamed],,,,solar,photovoltaic,,,,,,
[unnamed],,,,solar,photovoltaic,,,,,,
[unnamed],,,,solar,photovoltaic,,,,,,
[unnamed],,,,solar,photovoltaic,,,,,,
[unnamed],,,,solar,photovoltaic,,,,,,
[unnamed],,,,solar,photovoltaic,,,,,,
[unnamed],,,,hydro,run-of-the-river,,,,,,
[unnamed],,,,solar,,,,,,,
[unnamed],,Solör Bioenergi Strängnäs AB,,biomass,combustion,,,,,,
[unnamed],,,,solar,photovoltaic,,,,,,
[unnamed],,,,hydro,,,,,,,
[unnamed],,Solör Bioenergi Fjärrvärme AB,,biomass,combustion,,,,,,
[unnamed],,,,hydro,,,,,,,
[unnamed],,,,hydro,,,,,,,
[unnamed],,,,hydro,,,,,,,
